Longitude (x),Latitude (y),Station Name,Climate ID,Date/Time (LST),Year,Month,Day,Time (LST),Temp (°C),Temp Flag,Dew Point Temp (°C),Dew Point Temp Flag,Rel Hum (%),Rel Hum Flag,Precip. Amount (mm),Precip. Amount Flag,Wind Dir (10s deg),Wind Dir Flag,Wind Spd (km/h),Wind Spd Flag,Visibility (km),Visibility Flag,Stn Press (kPa),Stn Press Flag,Hmdx,Hmdx Flag,Wind Chill,Wind Chill Flag,Weather
-125.27,49.95,CAMPBELL RIVER A,1021267,11/1/2023 0:00,2023,11,1,0:00,,,,,,,,,,,,,,,,,,,,,
-125.27,49.95,CAMPBELL RIVER A,1021267,11/1/2023 1:00,2023,11,1,1:00,,,,,,,,,,,,,,,,,,,,,
-125.27,49.95,CAMPBELL RIVER A,1021267,11/1/2023 2:00,2023,11,1,2:00,,,,,,,,,,,,,,,,,,,,,
-125.27,49.95,CAMPBELL RIVER A,1021267,11/1/2023 3:00,2023,11,1,3:00,,,,,,,,,,,,,,,,,,,,,
-125.27,49.95,CAMPBELL RIVER A,1021267,11/1/2023 4:00,2023,11,1,4:00,,,,,,,,,,,,,,,,,,,,,
-125.27,49.95,CAMPBELL RIVER A,1021267,11/1/2023 5:00,2023,11,1,5:00,-0.2,,-0.2,,100,,,,32,,7,,24.1,,100.75,,,,-3,,NA
-125.27,49.95,CAMPBELL RIVER A,1021267,11/1/2023 6:00,2023,11,1,6:00,0.7,,0.7,,100,,,,30,,7,,24.1,,100.73,,,,,,NA
-125.27,49.95,CAMPBELL RIVER A,1021267,11/1/2023 7:00,2023,11,1,7:00,1.4,,1.4,,100,,,,,,0,,16.1,,100.69,,,,,,Mostly Cloudy
-125.27,49.95,CAMPBELL RIVER A,1021267,11/1/2023 8:00,2023,11,1,8:00,2.3,,2.3,,100,,,,33,,4,,16.1,,100.73,,,,,,NA
-125.27,49.95,CAMPBELL RIVER A,1021267,11/1/2023 9:00,2023,11,1,9:00,4,,4,,100,,,,31,,4,,12.9,,100.75,,,,,,NA
-125.27,49.95,CAMPBELL RIVER A,1021267,11/1/2023 10:00,2023,11,1,10:00,6.1,,5.1,,93,,,,36,,3,,12.9,,100.71,,,,,,Cloudy
-125.27,49.95,CAMPBELL RIVER A,1021267,11/1/2023 11:00,2023,11,1,11:00,7.5,,6.1,,91,,,,14,,3,,12.9,,100.68,,,,,,NA
-125.27,49.95,CAMPBELL RIVER A,1021267,11/1/2023 12:00,2023,11,1,12:00,8.2,,6,,86,,,,15,,6,,16.1,,100.59,,,,,,NA
-125.27,49.95,CAMPBELL RIVER A,1021267,11/1/2023 13:00,2023,11,1,13:00,8.5,,6.2,,85,,,,36,,3,,16.1,,100.5,,,,,,Mostly Cloudy
-125.27,49.95,CAMPBELL RIVER A,1021267,11/1/2023 14:00,2023,11,1,14:00,9.3,,5.9,,79,,,,13,,7,,32.2,,100.41,,,,,,NA
-125.27,49.95,CAMPBELL RIVER A,1021267,11/1/2023 15:00,2023,11,1,15:00,8.2,,6.3,,88,,,,8,,7,,32.2,,100.33,,,,,,NA
-125.27,49.95,CAMPBELL RIVER A,1021267,11/1/2023 16:00,2023,11,1,16:00,7.6,,6.4,,92,,,,11,,8,,32.2,,100.26,,,,,,Mostly Cloudy
-125.27,49.95,CAMPBELL RIVER A,1021267,11/1/2023 17:00,2023,11,1,17:00,6.9,,6.7,,98,,,,14,,3,,24.1,,100.14,,,,,,NA
-125.27,49.95,CAMPBELL RIVER A,1021267,11/1/2023 18:00,2023,11,1,18:00,6.1,,6.1,,100,,,,36,,3,,24.1,,100.07,,,,,,NA
-125.27,49.95,CAMPBELL RIVER A,1021267,11/1/2023 19:00,2023,11,1,19:00,5.9,,5.9,,100,,,,,,0,,24.1,,99.99,,,,,,Cloudy
-125.27,49.95,CAMPBELL RIVER A,1021267,11/1/2023 20:00,2023,11,1,20:00,5.9,,5.9,,100,,,,,,0,,12.9,,99.94,,,,,,Rain
-125.27,49.95,CAMPBELL RIVER A,1021267,11/1/2023 21:00,2023,11,1,21:00,,,,,,,,,,,,,,,,,,,,,
-125.27,49.95,CAMPBELL RIVER A,1021267,11/1/2023 22:00,2023,11,1,22:00,,,,,,,,,,,,,,,,,,,,,
-125.27,49.95,CAMPBELL RIVER A,1021267,11/1/2023 23:00,2023,11,1,23:00,,,,,,,,,,,,,,,,,,,,,
-125.27,49.95,CAMPBELL RIVER A,1021267,11/2/2023 0:00,2023,11,2,0:00,,,,,,,,,,,,,,,,,,,,,
-125.27,49.95,CAMPBELL RIVER A,1021267,11/2/2023 1:00,2023,11,2,1:00,,,,,,,,,,,,,,,,,,,,,
-125.27,49.95,CAMPBELL RIVER A,1021267,11/2/2023 2:00,2023,11,2,2:00,,,,,,,,,,,,,,,,,,,,,
-125.27,49.95,CAMPBELL RIVER A,1021267,11/2/2023 3:00,2023,11,2,3:00,,,,,,,,,,,,,,,,,,,,,
-125.27,49.95,CAMPBELL RIVER A,1021267,11/2/2023 4:00,2023,11,2,4:00,,,,,,,,,,,,,,,,,,,,,
-125.27,49.95,CAMPBELL RIVER A,1021267,11/2/2023 5:00,2023,11,2,5:00,7.9,,7.9,,100,,,,11,,12,,3.2,,99.01,,,,,,"Rain,Fog"
-125.27,49.95,CAMPBELL RIVER A,1021267,11/2/2023 6:00,2023,11,2,6:00,8.1,,8.1,,100,,,,9,,11,,3.2,,98.97,,,,,,"Rain,Fog"
-125.27,49.95,CAMPBELL RIVER A,1021267,11/2/2023 7:00,2023,11,2,7:00,8.3,,8.3,,100,,,,9,,10,,2.4,,98.95,,,,,,"Rain,Fog"
-125.27,49.95,CAMPBELL RIVER A,1021267,11/2/2023 8:00,2023,11,2,8:00,8.6,,8.6,,100,,,,9,,8,,3.2,,99.01,,,,,,"Rain,Fog"
-125.27,49.95,CAMPBELL RIVER A,1021267,11/2/2023 9:00,2023,11,2,9:00,9.1,,9.1,,100,,,,9,,9,,4.8,,99.05,,,,,,Fog
-125.27,49.95,CAMPBELL RIVER A,1021267,11/2/2023 10:00,2023,11,2,10:00,9.6,,9.6,,100,,,,13,,14,,6.4,,99.1,,,,,,Fog
-125.27,49.95,CAMPBELL RIVER A,1021267,11/2/2023 11:00,2023,11,2,11:00,10,,10,,100,,,,11,,8,,6.4,,99.17,,,,,,Fog
-125.27,49.95,CAMPBELL RIVER A,1021267,11/2/2023 12:00,2023,11,2,12:00,10.5,,10.5,,100,,,,8,,5,,4.8,,99.25,,,,,,Fog
-125.27,49.95,CAMPBELL RIVER A,1021267,11/2/2023 13:00,2023,11,2,13:00,10.7,,10.7,,100,,,,,,0,,4.8,,99.33,,,,,,Fog
-125.27,49.95,CAMPBELL RIVER A,1021267,11/2/2023 14:00,2023,11,2,14:00,11.7,,11.7,,100,,,,29,,6,,6.4,,99.4,,,,,,Fog
-125.27,49.95,CAMPBELL RIVER A,1021267,11/2/2023 15:00,2023,11,2,15:00,12.1,,12.1,,100,,,,30,,5,,12.9,,99.51,,,,,,NA
-125.27,49.95,CAMPBELL RIVER A,1021267,11/2/2023 16:00,2023,11,2,16:00,11.8,,11.8,,100,,,,33,,10,,24.1,,99.61,,,,,,Mostly Cloudy
-125.27,49.95,CAMPBELL RIVER A,1021267,11/2/2023 17:00,2023,11,2,17:00,10.9,,10.9,,100,,,,32,,6,,24.1,,99.7,,,,,,NA
-125.27,49.95,CAMPBELL RIVER A,1021267,11/2/2023 18:00,2023,11,2,18:00,10.6,,10.6,,100,,,,,,0,,24.1,,99.85,,,,,,NA
-125.27,49.95,CAMPBELL RIVER A,1021267,11/2/2023 19:00,2023,11,2,19:00,10.2,,10.2,,100,,,,24,,4,,24.1,,99.96,,,,,,Mostly Cloudy
-125.27,49.95,CAMPBELL RIVER A,1021267,11/2/2023 20:00,2023,11,2,20:00,9.9,,9.9,,100,,,,13,,4,,16.1,,100.06,,,,,,NA
-125.27,49.95,CAMPBELL RIVER A,1021267,11/2/2023 21:00,2023,11,2,21:00,,,,,,,,,,,,,,,,,,,,,
-125.27,49.95,CAMPBELL RIVER A,1021267,11/2/2023 22:00,2023,11,2,22:00,,,,,,,,,,,,,,,,,,,,,
-125.27,49.95,CAMPBELL RIVER A,1021267,11/2/2023 23:00,2023,11,2,23:00,,,,,,,,,,,,,,,,,,,,,
-125.27,49.95,CAMPBELL RIVER A,1021267,11/3/2023 0:00,2023,11,3,0:00,,,,,,,,,,,,,,,,,,,,,
-125.27,49.95,CAMPBELL RIVER A,1021267,11/3/2023 1:00,2023,11,3,1:00,,,,,,,,,,,,,,,,,,,,,
-125.27,49.95,CAMPBELL RIVER A,1021267,11/3/2023 2:00,2023,11,3,2:00,,,,,,,,,,,,,,,,,,,,,
-125.27,49.95,CAMPBELL RIVER A,1021267,11/3/2023 3:00,2023,11,3,3:00,,,,,,,,,,,,,,,,,,,,,
-125.27,49.95,CAMPBELL RIVER A,1021267,11/3/2023 4:00,2023,11,3,4:00,,,,,,,,,,,,,,,,,,,,,
-125.27,49.95,CAMPBELL RIVER A,1021267,11/3/2023 5:00,2023,11,3,5:00,6.6,,6.6,,100,,,,,,0,,24.1,,100.61,,,,,,NA
-125.27,49.95,CAMPBELL RIVER A,1021267,11/3/2023 6:00,2023,11,3,6:00,6.4,,6.4,,100,,,,24,,4,,16.1,,100.6,,,,,,NA
-125.27,49.95,CAMPBELL RIVER A,1021267,11/3/2023 7:00,2023,11,3,7:00,6.7,,6.7,,100,,,,,,0,,12.9,,100.63,,,,,,Cloudy
-125.27,49.95,CAMPBELL RIVER A,1021267,11/3/2023 8:00,2023,11,3,8:00,7.3,,7.3,,100,,,,36,,3,,19.3,,100.66,,,,,,NA
-125.27,49.95,CAMPBELL RIVER A,1021267,11/3/2023 9:00,2023,11,3,9:00,8.7,,8.7,,100,,,,18,,3,,2.4,,100.66,,,,,,Fog
-125.27,49.95,CAMPBELL RIVER A,1021267,11/3/2023 10:00,2023,11,3,10:00,9,,9,,100,,,,13,,3,,0.4,,100.66,,,,,,Fog
-125.27,49.95,CAMPBELL RIVER A,1021267,11/3/2023 11:00,2023,11,3,11:00,9.6,,9.6,,100,,,,11,,9,,1.6,,100.63,,,,,,Fog
-125.27,49.95,CAMPBELL RIVER A,1021267,11/3/2023 12:00,2023,11,3,12:00,9.8,,9.8,,100,,,,10,,10,,2.4,,100.55,,,,,,Fog
-125.27,49.95,CAMPBELL RIVER A,1021267,11/3/2023 13:00,2023,11,3,13:00,11.4,,11.2,,99,,,,12,,18,,8.1,,100.52,,,,,,Fog
-125.27,49.95,CAMPBELL RIVER A,1021267,11/3/2023 14:00,2023,11,3,14:00,10.7,,10.7,,100,,,,9,,14,,19.3,,100.48,,,,,,NA
-125.27,49.95,CAMPBELL RIVER A,1021267,11/3/2023 15:00,2023,11,3,15:00,10.2,,10.2,,100,,,,11,,16,,12.9,,100.3,,,,,,NA
-125.27,49.95,CAMPBELL RIVER A,1021267,11/3/2023 16:00,2023,11,3,16:00,10.6,,10.6,,100,,,,12,,16,,24.1,,100.16,,,,,,Cloudy
-125.27,49.95,CAMPBELL RIVER A,1021267,11/3/2023 17:00,2023,11,3,17:00,10.3,,10.3,,100,,,,13,,17,,24.1,,100.07,,,,,,NA
-125.27,49.95,CAMPBELL RIVER A,1021267,11/3/2023 18:00,2023,11,3,18:00,9.8,,9.8,,100,,,,13,,19,,16.1,,99.93,,,,,,Rain
-125.27,49.95,CAMPBELL RIVER A,1021267,11/3/2023 19:00,2023,11,3,19:00,9.8,,9.8,,100,,,,13,,18,,8.1,,99.78,,,,,,"Rain,Fog"
-125.27,49.95,CAMPBELL RIVER A,1021267,11/3/2023 20:00,2023,11,3,20:00,9.8,,9.8,,100,,,,13,,21,,8.1,,99.63,,,,,,"Rain,Fog"
-125.27,49.95,CAMPBELL RIVER A,1021267,11/3/2023 21:00,2023,11,3,21:00,,,,,,,,,,,,,,,,,,,,,
-125.27,49.95,CAMPBELL RIVER A,1021267,11/3/2023 22:00,2023,11,3,22:00,,,,,,,,,,,,,,,,,,,,,
-125.27,49.95,CAMPBELL RIVER A,1021267,11/3/2023 23:00,2023,11,3,23:00,,,,,,,,,,,,,,,,,,,,,
-125.27,49.95,CAMPBELL RIVER A,1021267,11/4/2023 0:00,2023,11,4,0:00,,,,,,,,,,,,,,,,,,,,,
-125.27,49.95,CAMPBELL RIVER A,1021267,11/4/2023 1:00,2023,11,4,1:00,,,,,,,,,,,,,,,,,,,,,
-125.27,49.95,CAMPBELL RIVER A,1021267,11/4/2023 2:00,2023,11,4,2:00,,,,,,,,,,,,,,,,,,,,,
-125.27,49.95,CAMPBELL RIVER A,1021267,11/4/2023 3:00,2023,11,4,3:00,,,,,,,,,,,,,,,,,,,,,
-125.27,49.95,CAMPBELL RIVER A,1021267,11/4/2023 4:00,2023,11,4,4:00,,,,,,,,,,,,,,,,,,,,,
-125.27,49.95,CAMPBELL RIVER A,1021267,11/4/2023 5:00,2023,11,4,5:00,10.6,,10.6,,100,,,,14,,22,,4.8,,98.68,,,,,,"Rain,Fog"
-125.27,49.95,CAMPBELL RIVER A,1021267,11/4/2023 6:00,2023,11,4,6:00,11,,11,,100,,,,14,,17,,4.8,,98.62,,,,,,"Rain,Fog"
-125.27,49.95,CAMPBELL RIVER A,1021267,11/4/2023 7:00,2023,11,4,7:00,11.7,,11.7,,100,,,,12,,31,,4.8,,98.44,,,,,,"Rain,Fog"
-125.27,49.95,CAMPBELL RIVER A,1021267,11/4/2023 8:00,2023,11,4,8:00,12,,12,,100,,,,13,,23,,4.8,,98.47,,,,,,"Rain,Fog"
-125.27,49.95,CAMPBELL RIVER A,1021267,11/4/2023 9:00,2023,11,4,9:00,11.4,,11.4,,100,,,,13,,31,,1.6,,98.45,,,,,,"Rain,Fog"
-125.27,49.95,CAMPBELL RIVER A,1021267,11/4/2023 10:00,2023,11,4,10:00,13.1,,13.1,,100,,,,13,,22,,9.7,,98.45,,,,,,Fog
-125.27,49.95,CAMPBELL RIVER A,1021267,11/4/2023 11:00,2023,11,4,11:00,15,,13.9,,93,,,,12,,17,,16.1,,98.43,,,,,,NA
-125.27,49.95,CAMPBELL RIVER A,1021267,11/4/2023 12:00,2023,11,4,12:00,16,,11.6,,75,,,,11,,12,,32.2,,98.52,,,,,,NA
-125.27,49.95,CAMPBELL RIVER A,1021267,11/4/2023 13:00,2023,11,4,13:00,15.3,,10.1,,71,,,,11,,27,,40.2,,98.59,,,,,,Mostly Cloudy
-125.27,49.95,CAMPBELL RIVER A,1021267,11/4/2023 14:00,2023,11,4,14:00,15.2,,10.2,,72,,,,14,,9,,40.2,,98.63,,,,,,NA
-125.27,49.95,CAMPBELL RIVER A,1021267,11/4/2023 15:00,2023,11,4,15:00,15.4,,10.2,,71,,,,11,,15,,40.2,,98.7,,,,,,NA
-125.27,49.95,CAMPBELL RIVER A,1021267,11/4/2023 16:00,2023,11,4,16:00,14.2,,9.2,,72,,,,12,,15,,40.2,,98.78,,,,,,Mostly Cloudy
-125.27,49.95,CAMPBELL RIVER A,1021267,11/4/2023 17:00,2023,11,4,17:00,13.4,,9.3,,76,,,,15,,18,,40.2,,98.84,,,,,,NA
-125.27,49.95,CAMPBELL RIVER A,1021267,11/4/2023 18:00,2023,11,4,18:00,12.3,,9.4,,83,,,,16,,10,,24.1,,98.92,,,,,,NA
-125.27,49.95,CAMPBELL RIVER A,1021267,11/4/2023 19:00,2023,11,4,19:00,12.2,,9.4,,83,,,,18,,12,,24.1,,98.97,,,,,,Rain Showers
-125.27,49.95,CAMPBELL RIVER A,1021267,11/4/2023 20:00,2023,11,4,20:00,11.3,,8.8,,84,,,,15,,12,,24.1,,99.03,,,,,,NA
-125.27,49.95,CAMPBELL RIVER A,1021267,11/4/2023 21:00,2023,11,4,21:00,,,,,,,,,,,,,,,,,,,,,
-125.27,49.95,CAMPBELL RIVER A,1021267,11/4/2023 22:00,2023,11,4,22:00,,,,,,,,,,,,,,,,,,,,,
-125.27,49.95,CAMPBELL RIVER A,1021267,11/4/2023 23:00,2023,11,4,23:00,,,,,,,,,,,,,,,,,,,,,
-125.27,49.95,CAMPBELL RIVER A,1021267,11/5/2023 0:00,2023,11,5,0:00,,,,,,,,,,,,,,,,,,,,,
-125.27,49.95,CAMPBELL RIVER A,1021267,11/5/2023 1:00,2023,11,5,1:00,,,,,,,,,,,,,,,,,,,,,
-125.27,49.95,CAMPBELL RIVER A,1021267,11/5/2023 2:00,2023,11,5,2:00,,,,,,,,,,,,,,,,,,,,,
-125.27,49.95,CAMPBELL RIVER A,1021267,11/5/2023 3:00,2023,11,5,3:00,,,,,,,,,,,,,,,,,,,,,
-125.27,49.95,CAMPBELL RIVER A,1021267,11/5/2023 4:00,2023,11,5,4:00,,,,,,,,,,,,,,,,,,,,,
-125.27,49.95,CAMPBELL RIVER A,1021267,11/5/2023 5:00,2023,11,5,5:00,,,,,,,,,,,,,,,,,,,,,
-125.27,49.95,CAMPBELL RIVER A,1021267,11/5/2023 6:00,2023,11,5,6:00,5.9,,5.9,,100,,,,,,0,,24.1,,99.42,,,,,,NA
-125.27,49.95,CAMPBELL RIVER A,1021267,11/5/2023 7:00,2023,11,5,7:00,5.4,,5.4,,100,,,,,,0,,32.2,,99.44,,,,,,Mostly Cloudy
-125.27,49.95,CAMPBELL RIVER A,1021267,11/5/2023 8:00,2023,11,5,8:00,5.5,,5.5,,100,,,,27,,4,,32.2,,99.44,,,,,,NA
-125.27,49.95,CAMPBELL RIVER A,1021267,11/5/2023 9:00,2023,11,5,9:00,7,,7,,100,,,,31,,5,,24.1,,99.44,,,,,,NA
-125.27,49.95,CAMPBELL RIVER A,1021267,11/5/2023 10:00,2023,11,5,10:00,8.7,,8.7,,100,,,,14,,8,,6.4,,99.44,,,,,,"Rain,Fog"
-125.27,49.95,CAMPBELL RIVER A,1021267,11/5/2023 11:00,2023,11,5,11:00,9.8,,9.8,,100,,,,12,,18,,8.1,,99.41,,,,,,"Rain,Fog"
-125.27,49.95,CAMPBELL RIVER A,1021267,11/5/2023 12:00,2023,11,5,12:00,10.1,,10.1,,100,,,,11,,14,,6.4,,99.36,,,,,,"Rain,Fog"
-125.27,49.95,CAMPBELL RIVER A,1021267,11/5/2023 13:00,2023,11,5,13:00,9.9,,9.9,,100,,,,10,,13,,4.8,,99.29,,,,,,"Rain,Fog"
-125.27,49.95,CAMPBELL RIVER A,1021267,11/5/2023 14:00,2023,11,5,14:00,10.3,,10.3,,100,,,,13,,26,,9.7,,99.23,,,,,,"Rain,Fog"
-125.27,49.95,CAMPBELL RIVER A,1021267,11/5/2023 15:00,2023,11,5,15:00,10.7,,10.7,,100,,,,13,,18,,9.7,,99.19,,,,,,"Rain,Fog"
-125.27,49.95,CAMPBELL RIVER A,1021267,11/5/2023 16:00,2023,11,5,16:00,10.4,,10.4,,100,,,,13,,19,,9.7,,99.15,,,,,,Fog
-125.27,49.95,CAMPBELL RIVER A,1021267,11/5/2023 17:00,2023,11,5,17:00,10.4,,10.4,,100,,,,12,,16,,12.9,,99.11,,,,,,Rain
-125.27,49.95,CAMPBELL RIVER A,1021267,11/5/2023 18:00,2023,11,5,18:00,10.1,,10.1,,100,,,,12,,15,,12.9,,99.11,,,,,,NA
-125.27,49.95,CAMPBELL RIVER A,1021267,11/5/2023 19:00,2023,11,5,19:00,9.6,,9.6,,100,,,,9,,11,,19.3,,99.05,,,,,,Cloudy
-125.27,49.95,CAMPBELL RIVER A,1021267,11/5/2023 20:00,2023,11,5,20:00,9.4,,9.4,,100,,,,11,,13,,4,,99.02,,,,,,Fog
-125.27,49.95,CAMPBELL RIVER A,1021267,11/5/2023 21:00,2023,11,5,21:00,9.3,,9.3,,100,,,,12,,10,,4,,98.99,,,,,,Fog
-125.27,49.95,CAMPBELL RIVER A,1021267,11/5/2023 22:00,2023,11,5,22:00,,,,,,,,,,,,,,,,,,,,,
-125.27,49.95,CAMPBELL RIVER A,1021267,11/5/2023 23:00,2023,11,5,23:00,,,,,,,,,,,,,,,,,,,,,
-125.27,49.95,CAMPBELL RIVER A,1021267,11/6/2023 0:00,2023,11,6,0:00,,,,,,,,,,,,,,,,,,,,,
-125.27,49.95,CAMPBELL RIVER A,1021267,11/6/2023 1:00,2023,11,6,1:00,,,,,,,,,,,,,,,,,,,,,
-125.27,49.95,CAMPBELL RIVER A,1021267,11/6/2023 2:00,2023,11,6,2:00,,,,,,,,,,,,,,,,,,,,,
-125.27,49.95,CAMPBELL RIVER A,1021267,11/6/2023 3:00,2023,11,6,3:00,,,,,,,,,,,,,,,,,,,,,
-125.27,49.95,CAMPBELL RIVER A,1021267,11/6/2023 4:00,2023,11,6,4:00,,,,,,,,,,,,,,,,,,,,,
-125.27,49.95,CAMPBELL RIVER A,1021267,11/6/2023 5:00,2023,11,6,5:00,,,,,,,,,,,,,,,,,,,,,
-125.27,49.95,CAMPBELL RIVER A,1021267,11/6/2023 6:00,2023,11,6,6:00,8,,8,,100,,,,,,0,,4.8,,98.7,,,,,,"Drizzle,Fog"
-125.27,49.95,CAMPBELL RIVER A,1021267,11/6/2023 7:00,2023,11,6,7:00,8,,8,,100,,,,32,,5,,4.8,,98.68,,,,,,"Drizzle,Fog"
-125.27,49.95,CAMPBELL RIVER A,1021267,11/6/2023 8:00,2023,11,6,8:00,8.3,,8.3,,100,,,,5,,3,,6.4,,98.68,,,,,,"Drizzle,Fog"
-125.27,49.95,CAMPBELL RIVER A,1021267,11/6/2023 9:00,2023,11,6,9:00,8.6,,8.6,,100,,,,6,,5,,2,,98.69,,,,,,"Drizzle,Fog"
-125.27,49.95,CAMPBELL RIVER A,1021267,11/6/2023 10:00,2023,11,6,10:00,9,,9,,100,,,,10,,5,,2.4,,98.69,,,,,,"Rain,Fog"
-125.27,49.95,CAMPBELL RIVER A,1021267,11/6/2023 11:00,2023,11,6,11:00,8.8,,8.8,,100,,,,7,,3,,2.4,,98.7,,,,,,"Rain,Fog"
-125.27,49.95,CAMPBELL RIVER A,1021267,11/6/2023 12:00,2023,11,6,12:00,8.9,,8.9,,100,,,,7,,5,,1.2,,98.7,,,,,,Fog
-125.27,49.95,CAMPBELL RIVER A,1021267,11/6/2023 13:00,2023,11,6,13:00,9.2,,9.2,,100,,,,,,0,,3.2,,98.68,,,,,,"Rain,Fog"
-125.27,49.95,CAMPBELL RIVER A,1021267,11/6/2023 14:00,2023,11,6,14:00,9.6,,9.6,,100,,,,6,,5,,4.8,,98.69,,,,,,"Rain,Fog"
-125.27,49.95,CAMPBELL RIVER A,1021267,11/6/2023 15:00,2023,11,6,15:00,9.6,,9.6,,100,,,,5,,6,,4.8,,98.73,,,,,,"Rain,Fog"
-125.27,49.95,CAMPBELL RIVER A,1021267,11/6/2023 16:00,2023,11,6,16:00,9.4,,9.4,,100,,,,7,,4,,4.8,,98.78,,,,,,"Rain,Fog"
-125.27,49.95,CAMPBELL RIVER A,1021267,11/6/2023 17:00,2023,11,6,17:00,9.2,,9.2,,100,,,,,,0,,3.2,,98.82,,,,,,"Rain,Fog"
-125.27,49.95,CAMPBELL RIVER A,1021267,11/6/2023 18:00,2023,11,6,18:00,9.1,,9.1,,100,,,,7,,4,,3.2,,98.89,,,,,,"Rain,Fog"
-125.27,49.95,CAMPBELL RIVER A,1021267,11/6/2023 19:00,2023,11,6,19:00,8.9,,8.9,,100,,,,7,,4,,3.2,,98.96,,,,,,"Rain,Fog"
-125.27,49.95,CAMPBELL RIVER A,1021267,11/6/2023 20:00,2023,11,6,20:00,8.8,,8.8,,100,,,,,,0,,3.2,,99.02,,,,,,"Rain,Fog"
-125.27,49.95,CAMPBELL RIVER A,1021267,11/6/2023 21:00,2023,11,6,21:00,8.8,,8.8,,100,,,,27,,4,,4,,99.09,,,,,,"Rain,Fog"
-125.27,49.95,CAMPBELL RIVER A,1021267,11/6/2023 22:00,2023,11,6,22:00,,,,,,,,,,,,,,,,,,,,,
-125.27,49.95,CAMPBELL RIVER A,1021267,11/6/2023 23:00,2023,11,6,23:00,,,,,,,,,,,,,,,,,,,,,
-125.27,49.95,CAMPBELL RIVER A,1021267,11/7/2023 0:00,2023,11,7,0:00,,,,,,,,,,,,,,,,,,,,,
-125.27,49.95,CAMPBELL RIVER A,1021267,11/7/2023 1:00,2023,11,7,1:00,,,,,,,,,,,,,,,,,,,,,
-125.27,49.95,CAMPBELL RIVER A,1021267,11/7/2023 2:00,2023,11,7,2:00,,,,,,,,,,,,,,,,,,,,,
-125.27,49.95,CAMPBELL RIVER A,1021267,11/7/2023 3:00,2023,11,7,3:00,,,,,,,,,,,,,,,,,,,,,
-125.27,49.95,CAMPBELL RIVER A,1021267,11/7/2023 4:00,2023,11,7,4:00,,,,,,,,,,,,,,,,,,,,,
-125.27,49.95,CAMPBELL RIVER A,1021267,11/7/2023 5:00,2023,11,7,5:00,,,,,,,,,,,,,,,,,,,,,
-125.27,49.95,CAMPBELL RIVER A,1021267,11/7/2023 6:00,2023,11,7,6:00,5.2,,3.9,,91,,,,29,,15,,24.1,,99.93,,,,,,NA
-125.27,49.95,CAMPBELL RIVER A,1021267,11/7/2023 7:00,2023,11,7,7:00,4.2,,3.1,,93,,,,29,,9,,48.3,,100.03,,,,,,Mainly Clear
-125.27,49.95,CAMPBELL RIVER A,1021267,11/7/2023 8:00,2023,11,7,8:00,5.2,,2.5,,83,,,,29,,11,,48.3,,100.16,,,,,,NA
-125.27,49.95,CAMPBELL RIVER A,1021267,11/7/2023 9:00,2023,11,7,9:00,7.7,,2.8,,71,,,,31,,21,,48.3,,100.3,,,,,,NA
-125.27,49.95,CAMPBELL RIVER A,1021267,11/7/2023 10:00,2023,11,7,10:00,8.9,,2.1,,62,,,,30,,20,,48.3,,100.39,,,,,,Mainly Clear
-125.27,49.95,CAMPBELL RIVER A,1021267,11/7/2023 11:00,2023,11,7,11:00,9.9,,2.1,,58,,,,31,,22,,48.3,,100.49,,,,,,NA
-125.27,49.95,CAMPBELL RIVER A,1021267,11/7/2023 12:00,2023,11,7,12:00,10.2,,2.2,,57,,,,31,,20,,48.3,,100.53,,,,,,NA
-125.27,49.95,CAMPBELL RIVER A,1021267,11/7/2023 13:00,2023,11,7,13:00,11,,2.8,,57,,,,30,,14,,48.3,,100.55,,,,,,Mostly Cloudy
-125.27,49.95,CAMPBELL RIVER A,1021267,11/7/2023 14:00,2023,11,7,14:00,11,,2.5,,56,,,,30,,20,,48.3,,100.63,,,,,,NA
-125.27,49.95,CAMPBELL RIVER A,1021267,11/7/2023 15:00,2023,11,7,15:00,10.7,,2.9,,58,,,,31,,18,,48.3,,100.69,,,,,,NA
-125.27,49.95,CAMPBELL RIVER A,1021267,11/7/2023 16:00,2023,11,7,16:00,9.2,,3.6,,67,,,,31,,12,,48.3,,100.82,,,,,,Mostly Cloudy
-125.27,49.95,CAMPBELL RIVER A,1021267,11/7/2023 17:00,2023,11,7,17:00,8.2,,3,,69,,,,29,,9,,48.3,,100.89,,,,,,NA
-125.27,49.95,CAMPBELL RIVER A,1021267,11/7/2023 18:00,2023,11,7,18:00,5.7,,4.5,,92,,,,15,,3,,24.1,,100.97,,,,,,NA
-125.27,49.95,CAMPBELL RIVER A,1021267,11/7/2023 19:00,2023,11,7,19:00,4.4,,4.4,,100,,,,,,0,,24.1,,101.01,,,,,,Mostly Cloudy
-125.27,49.95,CAMPBELL RIVER A,1021267,11/7/2023 20:00,2023,11,7,20:00,3.8,,3.8,,100,,,,,,0,,24.1,,101.1,,,,,,NA
-125.27,49.95,CAMPBELL RIVER A,1021267,11/7/2023 21:00,2023,11,7,21:00,3.5,,3.5,,100,,,,27,,3,,24.1,,101.15,,,,,,NA
-125.27,49.95,CAMPBELL RIVER A,1021267,11/7/2023 22:00,2023,11,7,22:00,,,,,,,,,,,,,,,,,,,,,
-125.27,49.95,CAMPBELL RIVER A,1021267,11/7/2023 23:00,2023,11,7,23:00,,,,,,,,,,,,,,,,,,,,,
-125.27,49.95,CAMPBELL RIVER A,1021267,11/8/2023 0:00,2023,11,8,0:00,,,,,,,,,,,,,,,,,,,,,
-125.27,49.95,CAMPBELL RIVER A,1021267,11/8/2023 1:00,2023,11,8,1:00,,,,,,,,,,,,,,,,,,,,,
-125.27,49.95,CAMPBELL RIVER A,1021267,11/8/2023 2:00,2023,11,8,2:00,,,,,,,,,,,,,,,,,,,,,
-125.27,49.95,CAMPBELL RIVER A,1021267,11/8/2023 3:00,2023,11,8,3:00,,,,,,,,,,,,,,,,,,,,,
-125.27,49.95,CAMPBELL RIVER A,1021267,11/8/2023 4:00,2023,11,8,4:00,,,,,,,,,,,,,,,,,,,,,
-125.27,49.95,CAMPBELL RIVER A,1021267,11/8/2023 5:00,2023,11,8,5:00,,,,,,,,,,,,,,,,,,,,,
-125.27,49.95,CAMPBELL RIVER A,1021267,11/8/2023 6:00,2023,11,8,6:00,5.4,,5.4,,100,,,,,,0,,24.1,,101.52,,,,,,Rain
-125.27,49.95,CAMPBELL RIVER A,1021267,11/8/2023 7:00,2023,11,8,7:00,5.5,,5.5,,100,,,,,,0,,24.1,,101.57,,,,,,Drizzle
-125.27,49.95,CAMPBELL RIVER A,1021267,11/8/2023 8:00,2023,11,8,8:00,5.8,,5.8,,100,,,,29,,3,,32.2,,101.6,,,,,,Rain
-125.27,49.95,CAMPBELL RIVER A,1021267,11/8/2023 9:00,2023,11,8,9:00,6.4,,6.4,,100,,,,30,,3,,32.2,,101.64,,,,,,NA
-125.27,49.95,CAMPBELL RIVER A,1021267,11/8/2023 10:00,2023,11,8,10:00,7.8,,7.8,,100,,,,10,,8,,24.1,,101.66,,,,,,Cloudy
-125.27,49.95,CAMPBELL RIVER A,1021267,11/8/2023 11:00,2023,11,8,11:00,8.4,,6.9,,90,,,,13,,14,,32.2,,101.68,,,,,,NA
-125.27,49.95,CAMPBELL RIVER A,1021267,11/8/2023 12:00,2023,11,8,12:00,8.3,,7.8,,97,,,,10,,10,,16.1,,101.67,,,,,,Rain
-125.27,49.95,CAMPBELL RIVER A,1021267,11/8/2023 13:00,2023,11,8,13:00,8.3,,8.3,,100,,,,12,,17,,16.1,,101.6,,,,,,Rain
-125.27,49.95,CAMPBELL RIVER A,1021267,11/8/2023 14:00,2023,11,8,14:00,8.3,,8.3,,100,,,,11,,16,,12.9,,101.56,,,,,,NA
-125.27,49.95,CAMPBELL RIVER A,1021267,11/8/2023 15:00,2023,11,8,15:00,8.3,,8.3,,100,,,,13,,17,,8.1,,101.53,,,,,,"Rain,Fog"
-125.27,49.95,CAMPBELL RIVER A,1021267,11/8/2023 16:00,2023,11,8,16:00,8.1,,8.1,,100,,,,11,,17,,4.8,,101.49,,,,,,"Rain,Fog"
-125.27,49.95,CAMPBELL RIVER A,1021267,11/8/2023 17:00,2023,11,8,17:00,8.1,,8.1,,100,,,,13,,17,,4,,101.46,,,,,,"Rain,Fog"
-125.27,49.95,CAMPBELL RIVER A,1021267,11/8/2023 18:00,2023,11,8,18:00,8.1,,8.1,,100,,,,12,,19,,4,,101.42,,,,,,"Rain,Fog"
-125.27,49.95,CAMPBELL RIVER A,1021267,11/8/2023 19:00,2023,11,8,19:00,8.1,,8.1,,100,,,,13,,23,,3.2,,101.38,,,,,,"Rain,Fog"
-125.27,49.95,CAMPBELL RIVER A,1021267,11/8/2023 20:00,2023,11,8,20:00,8,,8,,100,,,,12,,17,,6.4,,101.3,,,,,,Fog
-125.27,49.95,CAMPBELL RIVER A,1021267,11/8/2023 21:00,2023,11,8,21:00,7.9,,7.9,,100,,,,12,,19,,8.1,,101.27,,,,,,Fog
-125.27,49.95,CAMPBELL RIVER A,1021267,11/8/2023 22:00,2023,11,8,22:00,,,,,,,,,,,,,,,,,,,,,
-125.27,49.95,CAMPBELL RIVER A,1021267,11/8/2023 23:00,2023,11,8,23:00,,,,,,,,,,,,,,,,,,,,,
-125.27,49.95,CAMPBELL RIVER A,1021267,11/9/2023 0:00,2023,11,9,0:00,,,,,,,,,,,,,,,,,,,,,
-125.27,49.95,CAMPBELL RIVER A,1021267,11/9/2023 1:00,2023,11,9,1:00,,,,,,,,,,,,,,,,,,,,,
-125.27,49.95,CAMPBELL RIVER A,1021267,11/9/2023 2:00,2023,11,9,2:00,,,,,,,,,,,,,,,,,,,,,
-125.27,49.95,CAMPBELL RIVER A,1021267,11/9/2023 3:00,2023,11,9,3:00,,,,,,,,,,,,,,,,,,,,,
-125.27,49.95,CAMPBELL RIVER A,1021267,11/9/2023 4:00,2023,11,9,4:00,,,,,,,,,,,,,,,,,,,,,
-125.27,49.95,CAMPBELL RIVER A,1021267,11/9/2023 5:00,2023,11,9,5:00,,,,,,,,,,,,,,,,,,,,,
-125.27,49.95,CAMPBELL RIVER A,1021267,11/9/2023 6:00,2023,11,9,6:00,7.4,,6.7,,95,,,,13,,15,,24.1,,100.51,,,,,,NA
-125.27,49.95,CAMPBELL RIVER A,1021267,11/9/2023 7:00,2023,11,9,7:00,7.1,,6.5,,96,,,,12,,12,,48.3,,100.41,,,,,,Cloudy
-125.27,49.95,CAMPBELL RIVER A,1021267,11/9/2023 8:00,2023,11,9,8:00,7.4,,6,,91,,,,14,,21,,32.2,,100.37,,,,,,NA
-125.27,49.95,CAMPBELL RIVER A,1021267,11/9/2023 9:00,2023,11,9,9:00,7.6,,6.2,,91,,,,13,,26,,32.2,,100.29,,,,,,NA
-125.27,49.95,CAMPBELL RIVER A,1021267,11/9/2023 10:00,2023,11,9,10:00,7.8,,6,,89,,,,14,,22,,32.2,,100.2,,,,,,Cloudy
-125.27,49.95,CAMPBELL RIVER A,1021267,11/9/2023 11:00,2023,11,9,11:00,8.4,,5.3,,81,,,,13,,25,,24.1,,100.09,,,,,,NA
-125.27,49.95,CAMPBELL RIVER A,1021267,11/9/2023 12:00,2023,11,9,12:00,8.1,,5.8,,86,,,,12,,22,,12.9,,99.98,,,,,,Rain
-125.27,49.95,CAMPBELL RIVER A,1021267,11/9/2023 13:00,2023,11,9,13:00,7.4,,7.1,,98,,,,13,,23,,8.1,,99.86,,,,,,"Rain,Fog"
-125.27,49.95,CAMPBELL RIVER A,1021267,11/9/2023 14:00,2023,11,9,14:00,7,,7,,100,,,,14,,19,,8.1,,99.85,,,,,,"Rain,Fog"
-125.27,49.95,CAMPBELL RIVER A,1021267,11/9/2023 15:00,2023,11,9,15:00,7.2,,7.2,,100,,,,14,,24,,8.1,,99.81,,,,,,"Rain,Fog"
-125.27,49.95,CAMPBELL RIVER A,1021267,11/9/2023 16:00,2023,11,9,16:00,7.3,,7.3,,100,,,,14,,16,,8.1,,99.86,,,,,,"Rain,Fog"
-125.27,49.95,CAMPBELL RIVER A,1021267,11/9/2023 17:00,2023,11,9,17:00,7,,7,,100,,,,15,,17,,8.1,,99.88,,,,,,Fog
-125.27,49.95,CAMPBELL RIVER A,1021267,11/9/2023 18:00,2023,11,9,18:00,6.8,,6.8,,100,,,,16,,9,,24.1,,99.89,,,,,,Rain
-125.27,49.95,CAMPBELL RIVER A,1021267,11/9/2023 19:00,2023,11,9,19:00,6,,6,,100,,,,26,,4,,24.1,,99.96,,,,,,Cloudy
-125.27,49.95,CAMPBELL RIVER A,1021267,11/9/2023 20:00,2023,11,9,20:00,4.5,,4.5,,100,,,,32,,5,,24.1,,99.98,,,,,,NA
-125.27,49.95,CAMPBELL RIVER A,1021267,11/9/2023 21:00,2023,11,9,21:00,5.8,,5.8,,100,,,,6,,5,,24.1,,100.01,,,,,,Rain
-125.27,49.95,CAMPBELL RIVER A,1021267,11/9/2023 22:00,2023,11,9,22:00,,,,,,,,,,,,,,,,,,,,,
-125.27,49.95,CAMPBELL RIVER A,1021267,11/9/2023 23:00,2023,11,9,23:00,,,,,,,,,,,,,,,,,,,,,
-125.27,49.95,CAMPBELL RIVER A,1021267,11/10/2023 0:00,2023,11,10,0:00,,,,,,,,,,,,,,,,,,,,,
-125.27,49.95,CAMPBELL RIVER A,1021267,11/10/2023 1:00,2023,11,10,1:00,,,,,,,,,,,,,,,,,,,,,
-125.27,49.95,CAMPBELL RIVER A,1021267,11/10/2023 2:00,2023,11,10,2:00,,,,,,,,,,,,,,,,,,,,,
-125.27,49.95,CAMPBELL RIVER A,1021267,11/10/2023 3:00,2023,11,10,3:00,,,,,,,,,,,,,,,,,,,,,
-125.27,49.95,CAMPBELL RIVER A,1021267,11/10/2023 4:00,2023,11,10,4:00,,,,,,,,,,,,,,,,,,,,,
-125.27,49.95,CAMPBELL RIVER A,1021267,11/10/2023 5:00,2023,11,10,5:00,,,,,,,,,,,,,,,,,,,,,
-125.27,49.95,CAMPBELL RIVER A,1021267,11/10/2023 6:00,2023,11,10,6:00,0.1,,0.1,,100,,,,28,,4,,8.1,,100.3,,,,,,Fog
-125.27,49.95,CAMPBELL RIVER A,1021267,11/10/2023 7:00,2023,11,10,7:00,0.7,,0.7,,100,,,,,,0,,24.1,,100.27,,,,,,Mostly Cloudy
-125.27,49.95,CAMPBELL RIVER A,1021267,11/10/2023 8:00,2023,11,10,8:00,0.5,,0.5,,100,,,,29,,5,,24.1,,100.25,,,,,,NA
-125.27,49.95,CAMPBELL RIVER A,1021267,11/10/2023 9:00,2023,11,10,9:00,2,,2,,100,,,,12,,3,,32.2,,100.24,,,,,,NA
-125.27,49.95,CAMPBELL RIVER A,1021267,11/10/2023 10:00,2023,11,10,10:00,4,,4,,100,,,,12,,7,,32.2,,100.19,,,,,,Mostly Cloudy
-125.27,49.95,CAMPBELL RIVER A,1021267,11/10/2023 11:00,2023,11,10,11:00,7,,6.9,,99,,,,13,,19,,24.1,,100.16,,,,,,NA
-125.27,49.95,CAMPBELL RIVER A,1021267,11/10/2023 12:00,2023,11,10,12:00,8.2,,7.2,,93,,,,12,,21,,24.1,,100.08,,,,,,NA
-125.27,49.95,CAMPBELL RIVER A,1021267,11/10/2023 13:00,2023,11,10,13:00,8.4,,6.5,,88,,,,14,,27,,24.1,,99.93,,,,,,Cloudy
-125.27,49.95,CAMPBELL RIVER A,1021267,11/10/2023 14:00,2023,11,10,14:00,7.8,,7.5,,98,,,,13,,29,,19.3,,99.79,,,,,,NA
-125.27,49.95,CAMPBELL RIVER A,1021267,11/10/2023 15:00,2023,11,10,15:00,7.4,,7.1,,98,,,,12,,27,,12.9,,99.7,,,,,,Rain
-125.27,49.95,CAMPBELL RIVER A,1021267,11/10/2023 16:00,2023,11,10,16:00,7,,7,,100,,,,13,,28,,9.7,,99.55,,,,,,"Rain,Fog"
-125.27,49.95,CAMPBELL RIVER A,1021267,11/10/2023 17:00,2023,11,10,17:00,6.7,,6.7,,100,,,,14,,28,,8.1,,99.45,,,,,,"Moderate Rain,Fog"
-125.27,49.95,CAMPBELL RIVER A,1021267,11/10/2023 18:00,2023,11,10,18:00,6.7,,6.7,,100,,,,13,,21,,4.8,,99.29,,,,,,"Moderate Rain,Fog"
-125.27,49.95,CAMPBELL RIVER A,1021267,11/10/2023 19:00,2023,11,10,19:00,6.9,,6.9,,100,,,,13,,28,,6.4,,99.2,,,,,,"Moderate Rain,Fog"
-125.27,49.95,CAMPBELL RIVER A,1021267,11/10/2023 20:00,2023,11,10,20:00,7.3,,7.3,,100,,,,14,,41,,4.8,,99,,,,,,"Rain,Fog"
-125.27,49.95,CAMPBELL RIVER A,1021267,11/10/2023 21:00,2023,11,10,21:00,7.4,,7.4,,100,,,,13,,37,,4.8,,98.78,,,,,,"Rain,Fog"
-125.27,49.95,CAMPBELL RIVER A,1021267,11/10/2023 22:00,2023,11,10,22:00,,,,,,,,,,,,,,,,,,,,,
-125.27,49.95,CAMPBELL RIVER A,1021267,11/10/2023 23:00,2023,11,10,23:00,,,,,,,,,,,,,,,,,,,,,
-125.27,49.95,CAMPBELL RIVER A,1021267,11/11/2023 0:00,2023,11,11,0:00,,,,,,,,,,,,,,,,,,,,,
-125.27,49.95,CAMPBELL RIVER A,1021267,11/11/2023 1:00,2023,11,11,1:00,,,,,,,,,,,,,,,,,,,,,
-125.27,49.95,CAMPBELL RIVER A,1021267,11/11/2023 2:00,2023,11,11,2:00,,,,,,,,,,,,,,,,,,,,,
-125.27,49.95,CAMPBELL RIVER A,1021267,11/11/2023 3:00,2023,11,11,3:00,,,,,,,,,,,,,,,,,,,,,
-125.27,49.95,CAMPBELL RIVER A,1021267,11/11/2023 4:00,2023,11,11,4:00,,,,,,,,,,,,,,,,,,,,,
-125.27,49.95,CAMPBELL RIVER A,1021267,11/11/2023 5:00,2023,11,11,5:00,,,,,,,,,,,,,,,,,,,,,
-125.27,49.95,CAMPBELL RIVER A,1021267,11/11/2023 6:00,2023,11,11,6:00,5.9,,5.9,,100,,,,16,,11,,24.1,,98.82,,,,,,Rain
-125.27,49.95,CAMPBELL RIVER A,1021267,11/11/2023 7:00,2023,11,11,7:00,5.8,,5.8,,100,,,,28,,7,,24.1,,99.04,,,,,,Rain
-125.27,49.95,CAMPBELL RIVER A,1021267,11/11/2023 8:00,2023,11,11,8:00,3.4,,3.4,,100,,,,30,,6,,32.2,,99.14,,,,,,NA
-125.27,49.95,CAMPBELL RIVER A,1021267,11/11/2023 9:00,2023,11,11,9:00,5.6,,5.6,,100,,,,20,,8,,40.2,,99.24,,,,,,NA
-125.27,49.95,CAMPBELL RIVER A,1021267,11/11/2023 10:00,2023,11,11,10:00,7.2,,5.7,,90,,,,,,0,,48.3,,99.35,,,,,,Mostly Cloudy
-125.27,49.95,CAMPBELL RIVER A,1021267,11/11/2023 11:00,2023,11,11,11:00,7.7,,6.8,,94,,,,36,,3,,48.3,,99.45,,,,,,NA
-125.27,49.95,CAMPBELL RIVER A,1021267,11/11/2023 12:00,2023,11,11,12:00,7.3,,7.3,,100,,,,14,,3,,32.2,,99.56,,,,,,Rain
-125.27,49.95,CAMPBELL RIVER A,1021267,11/11/2023 13:00,2023,11,11,13:00,7,,6.3,,96,,,,19,,5,,12.9,,99.6,,,,,,Rain
-125.27,49.95,CAMPBELL RIVER A,1021267,11/11/2023 14:00,2023,11,11,14:00,6.8,,6.8,,100,,,,29,,6,,9.7,,99.62,,,,,,"Rain,Fog"
-125.27,49.95,CAMPBELL RIVER A,1021267,11/11/2023 15:00,2023,11,11,15:00,7,,7,,100,,,,32,,3,,9.7,,99.68,,,,,,"Rain,Fog"
-125.27,49.95,CAMPBELL RIVER A,1021267,11/11/2023 16:00,2023,11,11,16:00,6.6,,6.6,,100,,,,,,0,,24.1,,99.75,,,,,,Mostly Cloudy
-125.27,49.95,CAMPBELL RIVER A,1021267,11/11/2023 17:00,2023,11,11,17:00,5.8,,5.8,,100,,,,17,,6,,24.1,,99.82,,,,,,Rain Showers
-125.27,49.95,CAMPBELL RIVER A,1021267,11/11/2023 18:00,2023,11,11,18:00,4.6,,4.6,,100,,,,,,0,,24.1,,99.95,,,,,,Rain Showers
-125.27,49.95,CAMPBELL RIVER A,1021267,11/11/2023 19:00,2023,11,11,19:00,4.7,,4.7,,100,,,,31,,4,,24.1,,100.13,,,,,,Rain
-125.27,49.95,CAMPBELL RIVER A,1021267,11/11/2023 20:00,2023,11,11,20:00,2.8,,2.8,,100,,,,36,,4,,24.1,,100.13,,,,,,NA
-125.27,49.95,CAMPBELL RIVER A,1021267,11/11/2023 21:00,2023,11,11,21:00,1.2,,1.2,,100,,,,,,0,,12.9,,100.23,,,,,,NA
-125.27,49.95,CAMPBELL RIVER A,1021267,11/11/2023 22:00,2023,11,11,22:00,,,,,,,,,,,,,,,,,,,,,
-125.27,49.95,CAMPBELL RIVER A,1021267,11/11/2023 23:00,2023,11,11,23:00,,,,,,,,,,,,,,,,,,,,,
-125.27,49.95,CAMPBELL RIVER A,1021267,11/12/2023 0:00,2023,11,12,0:00,,,,,,,,,,,,,,,,,,,,,
-125.27,49.95,CAMPBELL RIVER A,1021267,11/12/2023 1:00,2023,11,12,1:00,,,,,,,,,,,,,,,,,,,,,
-125.27,49.95,CAMPBELL RIVER A,1021267,11/12/2023 2:00,2023,11,12,2:00,,,,,,,,,,,,,,,,,,,,,
-125.27,49.95,CAMPBELL RIVER A,1021267,11/12/2023 3:00,2023,11,12,3:00,,,,,,,,,,,,,,,,,,,,,
-125.27,49.95,CAMPBELL RIVER A,1021267,11/12/2023 4:00,2023,11,12,4:00,,,,,,,,,,,,,,,,,,,,,
-125.27,49.95,CAMPBELL RIVER A,1021267,11/12/2023 5:00,2023,11,12,5:00,,,,,,,,,,,,,,,,,,,,,
-125.27,49.95,CAMPBELL RIVER A,1021267,11/12/2023 6:00,2023,11,12,6:00,6.7,,6.7,,100,,,,13,,34,,6.4,,99.91,,,,,,Moderate Rain
-125.27,49.95,CAMPBELL RIVER A,1021267,11/12/2023 7:00,2023,11,12,7:00,6.7,,6.7,,100,,,,13,,31,,6.4,,99.79,,,,,,"Moderate Rain,Fog"
-125.27,49.95,CAMPBELL RIVER A,1021267,11/12/2023 8:00,2023,11,12,8:00,6.8,,6.8,,100,,,,13,,26,,4.8,,99.77,,,,,,"Rain,Fog"
-125.27,49.95,CAMPBELL RIVER A,1021267,11/12/2023 9:00,2023,11,12,9:00,7.3,,7.2,,99,,,,14,,28,,4.8,,99.68,,,,,,"Rain,Fog"
-125.27,49.95,CAMPBELL RIVER A,1021267,11/12/2023 10:00,2023,11,12,10:00,7.2,,7.2,,100,,,,13,,23,,4.8,,99.65,,,,,,"Rain,Fog"
-125.27,49.95,CAMPBELL RIVER A,1021267,11/12/2023 11:00,2023,11,12,11:00,7.5,,7.5,,100,,,,14,,22,,6.4,,99.58,,,,,,"Rain,Fog"
-125.27,49.95,CAMPBELL RIVER A,1021267,11/12/2023 12:00,2023,11,12,12:00,7.4,,7.4,,100,,,,19,,9,,6.4,,99.56,,,,,,"Rain,Fog"
-125.27,49.95,CAMPBELL RIVER A,1021267,11/12/2023 13:00,2023,11,12,13:00,7.3,,7.3,,100,,,,21,,4,,8.1,,99.52,,,,,,"Rain,Fog"
-125.27,49.95,CAMPBELL RIVER A,1021267,11/12/2023 14:00,2023,11,12,14:00,7.2,,7.2,,100,,,,12,,6,,8.1,,99.43,,,,,,"Rain,Fog"
-125.27,49.95,CAMPBELL RIVER A,1021267,11/12/2023 15:00,2023,11,12,15:00,7,,7,,100,,,,15,,12,,8.1,,99.37,,,,,,"Rain,Fog"
-125.27,49.95,CAMPBELL RIVER A,1021267,11/12/2023 16:00,2023,11,12,16:00,6.7,,6.7,,100,,,,10,,11,,6.4,,99.28,,,,,,"Rain,Fog"
-125.27,49.95,CAMPBELL RIVER A,1021267,11/12/2023 17:00,2023,11,12,17:00,6.2,,6.2,,100,,,,31,,5,,12.9,,99.27,,,,,,Rain
-125.27,49.95,CAMPBELL RIVER A,1021267,11/12/2023 18:00,2023,11,12,18:00,5.8,,5.8,,100,,,,24,,4,,16.1,,99.25,,,,,,Rain
-125.27,49.95,CAMPBELL RIVER A,1021267,11/12/2023 19:00,2023,11,12,19:00,5.1,,5.1,,100,,,,30,,7,,16.1,,99.24,,,,,,Rain
-125.27,49.95,CAMPBELL RIVER A,1021267,11/12/2023 20:00,2023,11,12,20:00,4.8,,4.8,,100,,,,30,,8,,16.1,,99.23,,,,,,Rain
-125.27,49.95,CAMPBELL RIVER A,1021267,11/12/2023 21:00,2023,11,12,21:00,4.7,,4.7,,100,,,,29,,9,,16.1,,99.27,,,,,,Rain
-125.27,49.95,CAMPBELL RIVER A,1021267,11/12/2023 22:00,2023,11,12,22:00,,,,,,,,,,,,,,,,,,,,,
-125.27,49.95,CAMPBELL RIVER A,1021267,11/12/2023 23:00,2023,11,12,23:00,,,,,,,,,,,,,,,,,,,,,
-125.27,49.95,CAMPBELL RIVER A,1021267,11/13/2023 0:00,2023,11,13,0:00,,,,,,,,,,,,,,,,,,,,,
-125.27,49.95,CAMPBELL RIVER A,1021267,11/13/2023 1:00,2023,11,13,1:00,,,,,,,,,,,,,,,,,,,,,
-125.27,49.95,CAMPBELL RIVER A,1021267,11/13/2023 2:00,2023,11,13,2:00,,,,,,,,,,,,,,,,,,,,,
-125.27,49.95,CAMPBELL RIVER A,1021267,11/13/2023 3:00,2023,11,13,3:00,,,,,,,,,,,,,,,,,,,,,
-125.27,49.95,CAMPBELL RIVER A,1021267,11/13/2023 4:00,2023,11,13,4:00,,,,,,,,,,,,,,,,,,,,,
-125.27,49.95,CAMPBELL RIVER A,1021267,11/13/2023 5:00,2023,11,13,5:00,,,,,,,,,,,,,,,,,,,,,
-125.27,49.95,CAMPBELL RIVER A,1021267,11/13/2023 6:00,2023,11,13,6:00,0,,0,,100,,,,30,,4,,24.1,,100.03,,,,-1,,NA
-125.27,49.95,CAMPBELL RIVER A,1021267,11/13/2023 7:00,2023,11,13,7:00,-0.7,,-0.7,,100,,,,36,,3,,32.2,,100.12,,,,-2,,Mainly Clear
-125.27,49.95,CAMPBELL RIVER A,1021267,11/13/2023 8:00,2023,11,13,8:00,-1,,-1,,100,,,,31,,3,,48.3,,100.24,,,,-2,,NA
-125.27,49.95,CAMPBELL RIVER A,1021267,11/13/2023 9:00,2023,11,13,9:00,0.7,,0.7,,100,,,,29,,3,,48.3,,100.35,,,,,,NA
-125.27,49.95,CAMPBELL RIVER A,1021267,11/13/2023 10:00,2023,11,13,10:00,4.6,,4.6,,100,,,,32,,7,,48.3,,100.43,,,,,,Mainly Clear
-125.27,49.95,CAMPBELL RIVER A,1021267,11/13/2023 11:00,2023,11,13,11:00,7.1,,5.9,,92,,,,,,0,,48.3,,100.51,,,,,,NA
-125.27,49.95,CAMPBELL RIVER A,1021267,11/13/2023 12:00,2023,11,13,12:00,7.2,,5.5,,89,,,,10,,8,,48.3,,100.55,,,,,,NA
-125.27,49.95,CAMPBELL RIVER A,1021267,11/13/2023 13:00,2023,11,13,13:00,7,,5.9,,92,,,,7,,9,,48.3,,100.58,,,,,,Mostly Cloudy
-125.27,49.95,CAMPBELL RIVER A,1021267,11/13/2023 14:00,2023,11,13,14:00,7.1,,6,,93,,,,7,,6,,48.3,,100.61,,,,,,NA
-125.27,49.95,CAMPBELL RIVER A,1021267,11/13/2023 15:00,2023,11,13,15:00,7.3,,6,,92,,,,10,,9,,48.3,,100.64,,,,,,NA
-125.27,49.95,CAMPBELL RIVER A,1021267,11/13/2023 16:00,2023,11,13,16:00,6.1,,6.1,,100,,,,14,,5,,48.3,,100.65,,,,,,Mainly Clear
-125.27,49.95,CAMPBELL RIVER A,1021267,11/13/2023 17:00,2023,11,13,17:00,3.9,,3.9,,100,,,,,,0,,48.3,,100.66,,,,,,NA
-125.27,49.95,CAMPBELL RIVER A,1021267,11/13/2023 18:00,2023,11,13,18:00,2.5,,2.5,,100,,,,24,,5,,4.8,,100.69,,,,,,Fog
-125.27,49.95,CAMPBELL RIVER A,1021267,11/13/2023 19:00,2023,11,13,19:00,2.4,,2.4,,100,,,,32,,4,,24.1,,100.72,,,,,,Mostly Cloudy
-125.27,49.95,CAMPBELL RIVER A,1021267,11/13/2023 20:00,2023,11,13,20:00,2.9,,2.9,,100,,,,,,0,,24.1,,100.77,,,,,,NA
-125.27,49.95,CAMPBELL RIVER A,1021267,11/13/2023 21:00,2023,11,13,21:00,2.8,,2.8,,100,,,,,,0,,24.1,,100.78,,,,,,NA
-125.27,49.95,CAMPBELL RIVER A,1021267,11/13/2023 22:00,2023,11,13,22:00,,,,,,,,,,,,,,,,,,,,,
-125.27,49.95,CAMPBELL RIVER A,1021267,11/13/2023 23:00,2023,11,13,23:00,,,,,,,,,,,,,,,,,,,,,
-125.27,49.95,CAMPBELL RIVER A,1021267,11/14/2023 0:00,2023,11,14,0:00,,,,,,,,,,,,,,,,,,,,,
-125.27,49.95,CAMPBELL RIVER A,1021267,11/14/2023 1:00,2023,11,14,1:00,,,,,,,,,,,,,,,,,,,,,
-125.27,49.95,CAMPBELL RIVER A,1021267,11/14/2023 2:00,2023,11,14,2:00,,,,,,,,,,,,,,,,,,,,,
-125.27,49.95,CAMPBELL RIVER A,1021267,11/14/2023 3:00,2023,11,14,3:00,,,,,,,,,,,,,,,,,,,,,
-125.27,49.95,CAMPBELL RIVER A,1021267,11/14/2023 4:00,2023,11,14,4:00,,,,,,,,,,,,,,,,,,,,,
-125.27,49.95,CAMPBELL RIVER A,1021267,11/14/2023 5:00,2023,11,14,5:00,,,,,,,,,,,,,,,,,,,,,
-125.27,49.95,CAMPBELL RIVER A,1021267,11/14/2023 6:00,2023,11,14,6:00,1.6,,1.6,,100,,,,23,,4,,24.1,,100.68,,,,,,NA
-125.27,49.95,CAMPBELL RIVER A,1021267,11/14/2023 7:00,2023,11,14,7:00,1.6,,1.6,,100,,,,31,,5,,32.2,,100.67,,,,,,Mostly Cloudy
-125.27,49.95,CAMPBELL RIVER A,1021267,11/14/2023 8:00,2023,11,14,8:00,0.4,,0.4,,100,,,,15,,3,,48.3,,100.69,,,,,,NA
-125.27,49.95,CAMPBELL RIVER A,1021267,11/14/2023 9:00,2023,11,14,9:00,2.2,,2.2,,100,,,,31,,3,,48.3,,100.68,,,,,,NA
-125.27,49.95,CAMPBELL RIVER A,1021267,11/14/2023 10:00,2023,11,14,10:00,3.8,,3.8,,100,,,,,,0,,48.3,,100.62,,,,,,Mostly Cloudy
-125.27,49.95,CAMPBELL RIVER A,1021267,11/14/2023 11:00,2023,11,14,11:00,5.7,,5.2,,96,,,,8,,4,,48.3,,100.6,,,,,,NA
-125.27,49.95,CAMPBELL RIVER A,1021267,11/14/2023 12:00,2023,11,14,12:00,6.4,,4.4,,87,,,,11,,8,,48.3,,100.59,,,,,,NA
-125.27,49.95,CAMPBELL RIVER A,1021267,11/14/2023 13:00,2023,11,14,13:00,6.8,,5,,88,,,,12,,11,,48.3,,100.49,,,,,,Mostly Cloudy
-125.27,49.95,CAMPBELL RIVER A,1021267,11/14/2023 14:00,2023,11,14,14:00,6.6,,5,,90,,,,9,,9,,48.3,,100.46,,,,,,NA
-125.27,49.95,CAMPBELL RIVER A,1021267,11/14/2023 15:00,2023,11,14,15:00,6.3,,5.2,,92,,,,11,,9,,48.3,,100.38,,,,,,NA
-125.27,49.95,CAMPBELL RIVER A,1021267,11/14/2023 16:00,2023,11,14,16:00,4.6,,4.6,,100,,,,,,0,,48.3,,100.33,,,,,,Mostly Cloudy
-125.27,49.95,CAMPBELL RIVER A,1021267,11/14/2023 17:00,2023,11,14,17:00,2.7,,2.7,,100,,,,,,0,,24.1,,100.32,,,,,,NA
-125.27,49.95,CAMPBELL RIVER A,1021267,11/14/2023 18:00,2023,11,14,18:00,1.7,,1.7,,100,,,,31,,3,,24.1,,100.29,,,,,,NA
-125.27,49.95,CAMPBELL RIVER A,1021267,11/14/2023 19:00,2023,11,14,19:00,0.7,,0.7,,100,,,,,,0,,16.1,,100.27,,,,,,Mostly Cloudy
-125.27,49.95,CAMPBELL RIVER A,1021267,11/14/2023 20:00,2023,11,14,20:00,-0.4,,-0.4,,100,,,,,,0,,1.2,,100.27,,,,,,Fog
-125.27,49.95,CAMPBELL RIVER A,1021267,11/14/2023 21:00,2023,11,14,21:00,0.2,,0.2,,100,,,,30,,4,,24.1,,100.26,,,,,,NA
-125.27,49.95,CAMPBELL RIVER A,1021267,11/14/2023 22:00,2023,11,14,22:00,,,,,,,,,,,,,,,,,,,,,
-125.27,49.95,CAMPBELL RIVER A,1021267,11/14/2023 23:00,2023,11,14,23:00,,,,,,,,,,,,,,,,,,,,,
-125.27,49.95,CAMPBELL RIVER A,1021267,11/15/2023 0:00,2023,11,15,0:00,,,,,,,,,,,,,,,,,,,,,
-125.27,49.95,CAMPBELL RIVER A,1021267,11/15/2023 1:00,2023,11,15,1:00,,,,,,,,,,,,,,,,,,,,,
-125.27,49.95,CAMPBELL RIVER A,1021267,11/15/2023 2:00,2023,11,15,2:00,,,,,,,,,,,,,,,,,,,,,
-125.27,49.95,CAMPBELL RIVER A,1021267,11/15/2023 3:00,2023,11,15,3:00,,,,,,,,,,,,,,,,,,,,,
-125.27,49.95,CAMPBELL RIVER A,1021267,11/15/2023 4:00,2023,11,15,4:00,,,,,,,,,,,,,,,,,,,,,
-125.27,49.95,CAMPBELL RIVER A,1021267,11/15/2023 5:00,2023,11,15,5:00,,,,,,,,,,,,,,,,,,,,,
-125.27,49.95,CAMPBELL RIVER A,1021267,11/15/2023 6:00,2023,11,15,6:00,2.9,,2.9,,100,,,,33,,5,,24.1,,100.21,,,,,,NA
-125.27,49.95,CAMPBELL RIVER A,1021267,11/15/2023 7:00,2023,11,15,7:00,2.7,,2.7,,100,,,,36,,3,,24.1,,100.22,,,,,,Cloudy
-125.27,49.95,CAMPBELL RIVER A,1021267,11/15/2023 8:00,2023,11,15,8:00,2.6,,2.6,,100,,,,31,,4,,32.2,,100.26,,,,,,NA
-125.27,49.95,CAMPBELL RIVER A,1021267,11/15/2023 9:00,2023,11,15,9:00,3.5,,3.5,,100,,,,26,,3,,40.2,,100.27,,,,,,NA
-125.27,49.95,CAMPBELL RIVER A,1021267,11/15/2023 10:00,2023,11,15,10:00,5.3,,5.3,,100,,,,30,,5,,32.2,,100.28,,,,,,Mostly Cloudy
-125.27,49.95,CAMPBELL RIVER A,1021267,11/15/2023 11:00,2023,11,15,11:00,7.2,,6.2,,93,,,,30,,7,,32.2,,100.31,,,,,,NA
-125.27,49.95,CAMPBELL RIVER A,1021267,11/15/2023 12:00,2023,11,15,12:00,7.2,,4.2,,81,,,,31,,8,,48.3,,100.28,,,,,,NA
-125.27,49.95,CAMPBELL RIVER A,1021267,11/15/2023 13:00,2023,11,15,13:00,6.7,,4.4,,86,,,,34,,10,,32.2,,100.27,,,,,,Mostly Cloudy
-125.27,49.95,CAMPBELL RIVER A,1021267,11/15/2023 14:00,2023,11,15,14:00,7.8,,3.8,,75,,,,32,,13,,48.3,,100.24,,,,,,NA
-125.27,49.95,CAMPBELL RIVER A,1021267,11/15/2023 15:00,2023,11,15,15:00,7,,3.3,,77,,,,34,,4,,48.3,,100.27,,,,,,NA
-125.27,49.95,CAMPBELL RIVER A,1021267,11/15/2023 16:00,2023,11,15,16:00,4.7,,3.9,,94,,,,31,,7,,48.3,,100.28,,,,,,Mainly Clear
-125.27,49.95,CAMPBELL RIVER A,1021267,11/15/2023 17:00,2023,11,15,17:00,3.2,,2.7,,96,,,,29,,9,,48.3,,100.36,,,,,,NA
-125.27,49.95,CAMPBELL RIVER A,1021267,11/15/2023 18:00,2023,11,15,18:00,1.5,,1.5,,100,,,,26,,5,,24.1,,100.43,,,,,,NA
-125.27,49.95,CAMPBELL RIVER A,1021267,11/15/2023 19:00,2023,11,15,19:00,1.7,,1.7,,100,,,,28,,10,,24.1,,100.49,,,,,,Clear
-125.27,49.95,CAMPBELL RIVER A,1021267,11/15/2023 20:00,2023,11,15,20:00,1.4,,1.4,,100,,,,27,,8,,24.1,,100.54,,,,,,NA
-125.27,49.95,CAMPBELL RIVER A,1021267,11/15/2023 21:00,2023,11,15,21:00,1.4,,0.7,,95,,,,27,,9,,24.1,,100.57,,,,,,NA
-125.27,49.95,CAMPBELL RIVER A,1021267,11/15/2023 22:00,2023,11,15,22:00,,,,,,,,,,,,,,,,,,,,,
-125.27,49.95,CAMPBELL RIVER A,1021267,11/15/2023 23:00,2023,11,15,23:00,,,,,,,,,,,,,,,,,,,,,
-125.27,49.95,CAMPBELL RIVER A,1021267,11/16/2023 0:00,2023,11,16,0:00,,,,,,,,,,,,,,,,,,,,,
-125.27,49.95,CAMPBELL RIVER A,1021267,11/16/2023 1:00,2023,11,16,1:00,,,,,,,,,,,,,,,,,,,,,
-125.27,49.95,CAMPBELL RIVER A,1021267,11/16/2023 2:00,2023,11,16,2:00,,,,,,,,,,,,,,,,,,,,,
-125.27,49.95,CAMPBELL RIVER A,1021267,11/16/2023 3:00,2023,11,16,3:00,,,,,,,,,,,,,,,,,,,,,
-125.27,49.95,CAMPBELL RIVER A,1021267,11/16/2023 4:00,2023,11,16,4:00,,,,,,,,,,,,,,,,,,,,,
-125.27,49.95,CAMPBELL RIVER A,1021267,11/16/2023 5:00,2023,11,16,5:00,,,,,,,,,,,,,,,,,,,,,
-125.27,49.95,CAMPBELL RIVER A,1021267,11/16/2023 6:00,2023,11,16,6:00,-2.7,,-2.7,,100,,,,26,,4,,24.1,,100.84,,,,-4,,NA
-125.27,49.95,CAMPBELL RIVER A,1021267,11/16/2023 7:00,2023,11,16,7:00,-2.9,,-2.9,,100,,,,26,,5,,48.3,,100.84,,,,-5,,Mainly Clear
-125.27,49.95,CAMPBELL RIVER A,1021267,11/16/2023 8:00,2023,11,16,8:00,-3,,-3,,100,,,,27,,4,,48.3,,100.85,,,,-5,,NA
-125.27,49.95,CAMPBELL RIVER A,1021267,11/16/2023 9:00,2023,11,16,9:00,-1.2,,-1.2,,100,,,,36,,3,,48.3,,100.82,,,,-2,,NA
-125.27,49.95,CAMPBELL RIVER A,1021267,11/16/2023 10:00,2023,11,16,10:00,2.4,,2,,97,,,,31,,7,,48.3,,100.82,,,,,,Mostly Cloudy
-125.27,49.95,CAMPBELL RIVER A,1021267,11/16/2023 11:00,2023,11,16,11:00,4.4,,1.7,,83,,,,36,,3,,48.3,,100.86,,,,,,NA
-125.27,49.95,CAMPBELL RIVER A,1021267,11/16/2023 12:00,2023,11,16,12:00,5.3,,1.1,,74,,,,36,,3,,48.3,,100.83,,,,,,NA
-125.27,49.95,CAMPBELL RIVER A,1021267,11/16/2023 13:00,2023,11,16,13:00,6.2,,0.9,,68,,,,16,,3,,48.3,,100.8,,,,,,Mostly Cloudy
-125.27,49.95,CAMPBELL RIVER A,1021267,11/16/2023 14:00,2023,11,16,14:00,7,,1.1,,66,,,,22,,4,,48.3,,100.76,,,,,,NA
-125.27,49.95,CAMPBELL RIVER A,1021267,11/16/2023 15:00,2023,11,16,15:00,6.2,,2.2,,76,,,,8,,4,,48.3,,100.74,,,,,,NA
-125.27,49.95,CAMPBELL RIVER A,1021267,11/16/2023 16:00,2023,11,16,16:00,4.5,,2.7,,88,,,,14,,5,,48.3,,100.75,,,,,,Mostly Cloudy
-125.27,49.95,CAMPBELL RIVER A,1021267,11/16/2023 17:00,2023,11,16,17:00,3.1,,3.1,,100,,,,30,,3,,48.3,,100.78,,,,,,NA
-125.27,49.95,CAMPBELL RIVER A,1021267,11/16/2023 18:00,2023,11,16,18:00,2.7,,2.7,,100,,,,,,0,,24.1,,100.78,,,,,,NA
-125.27,49.95,CAMPBELL RIVER A,1021267,11/16/2023 19:00,2023,11,16,19:00,2.2,,2.2,,100,,,,30,,3,,24.1,,100.83,,,,,,Mostly Cloudy
-125.27,49.95,CAMPBELL RIVER A,1021267,11/16/2023 20:00,2023,11,16,20:00,2.3,,2.3,,100,,,,29,,3,,24.1,,100.84,,,,,,NA
-125.27,49.95,CAMPBELL RIVER A,1021267,11/16/2023 21:00,2023,11,16,21:00,2.7,,2.7,,100,,,,30,,4,,24.1,,100.83,,,,,,NA
-125.27,49.95,CAMPBELL RIVER A,1021267,11/16/2023 22:00,2023,11,16,22:00,,,,,,,,,,,,,,,,,,,,,
-125.27,49.95,CAMPBELL RIVER A,1021267,11/16/2023 23:00,2023,11,16,23:00,,,,,,,,,,,,,,,,,,,,,
-125.27,49.95,CAMPBELL RIVER A,1021267,11/17/2023 0:00,2023,11,17,0:00,,,,,,,,,,,,,,,,,,,,,
-125.27,49.95,CAMPBELL RIVER A,1021267,11/17/2023 1:00,2023,11,17,1:00,,,,,,,,,,,,,,,,,,,,,
-125.27,49.95,CAMPBELL RIVER A,1021267,11/17/2023 2:00,2023,11,17,2:00,,,,,,,,,,,,,,,,,,,,,
-125.27,49.95,CAMPBELL RIVER A,1021267,11/17/2023 3:00,2023,11,17,3:00,,,,,,,,,,,,,,,,,,,,,
-125.27,49.95,CAMPBELL RIVER A,1021267,11/17/2023 4:00,2023,11,17,4:00,,,,,,,,,,,,,,,,,,,,,
-125.27,49.95,CAMPBELL RIVER A,1021267,11/17/2023 5:00,2023,11,17,5:00,,,,,,,,,,,,,,,,,,,,,
-125.27,49.95,CAMPBELL RIVER A,1021267,11/17/2023 6:00,2023,11,17,6:00,3.1,,3.1,,100,,,,,,0,,24.1,,100.7,,,,,,NA
-125.27,49.95,CAMPBELL RIVER A,1021267,11/17/2023 7:00,2023,11,17,7:00,3.2,,3.2,,100,,,,36,,3,,24.1,,100.66,,,,,,Mostly Cloudy
-125.27,49.95,CAMPBELL RIVER A,1021267,11/17/2023 8:00,2023,11,17,8:00,3.8,,3.8,,100,,,,33,,4,,48.3,,100.64,,,,,,NA
-125.27,49.95,CAMPBELL RIVER A,1021267,11/17/2023 9:00,2023,11,17,9:00,4.3,,4.3,,100,,,,,,0,,48.3,,100.64,,,,,,NA
-125.27,49.95,CAMPBELL RIVER A,1021267,11/17/2023 10:00,2023,11,17,10:00,5.6,,4.8,,95,,,,,,0,,32.2,,100.62,,,,,,Cloudy
-125.27,49.95,CAMPBELL RIVER A,1021267,11/17/2023 11:00,2023,11,17,11:00,6.1,,4.8,,91,,,,36,,3,,32.2,,100.56,,,,,,NA
-125.27,49.95,CAMPBELL RIVER A,1021267,11/17/2023 12:00,2023,11,17,12:00,7,,5.2,,88,,,,5,,9,,32.2,,100.5,,,,,,NA
-125.27,49.95,CAMPBELL RIVER A,1021267,11/17/2023 13:00,2023,11,17,13:00,6.8,,5.1,,89,,,,5,,9,,32.2,,100.42,,,,,,Mostly Cloudy
-125.27,49.95,CAMPBELL RIVER A,1021267,11/17/2023 14:00,2023,11,17,14:00,6.9,,4.8,,86,,,,8,,9,,48.3,,100.36,,,,,,NA
-125.27,49.95,CAMPBELL RIVER A,1021267,11/17/2023 15:00,2023,11,17,15:00,6.6,,4.6,,87,,,,10,,5,,48.3,,100.31,,,,,,NA
-125.27,49.95,CAMPBELL RIVER A,1021267,11/17/2023 16:00,2023,11,17,16:00,5.4,,5.3,,100,,,,,,0,,48.3,,100.25,,,,,,Mostly Cloudy
-125.27,49.95,CAMPBELL RIVER A,1021267,11/17/2023 17:00,2023,11,17,17:00,4.7,,4.7,,100,,,,31,,4,,48.3,,100.2,,,,,,NA
-125.27,49.95,CAMPBELL RIVER A,1021267,11/17/2023 18:00,2023,11,17,18:00,3,,3,,100,,,,36,,3,,24.1,,100.15,,,,,,NA
-125.27,49.95,CAMPBELL RIVER A,1021267,11/17/2023 19:00,2023,11,17,19:00,1.8,,1.8,,100,,,,28,,4,,8.1,,100.1,,,,,,Fog
-125.27,49.95,CAMPBELL RIVER A,1021267,11/17/2023 20:00,2023,11,17,20:00,0.3,,0.3,,100,,,,29,,3,,24.1,,100.07,,,,,,NA
-125.27,49.95,CAMPBELL RIVER A,1021267,11/17/2023 21:00,2023,11,17,21:00,-0.8,,-0.8,,100,,,,30,,5,,24.1,,100.04,,,,-2,,NA
-125.27,49.95,CAMPBELL RIVER A,1021267,11/17/2023 22:00,2023,11,17,22:00,,,,,,,,,,,,,,,,,,,,,
-125.27,49.95,CAMPBELL RIVER A,1021267,11/17/2023 23:00,2023,11,17,23:00,,,,,,,,,,,,,,,,,,,,,
-125.27,49.95,CAMPBELL RIVER A,1021267,11/18/2023 0:00,2023,11,18,0:00,,,,,,,,,,,,,,,,,,,,,
-125.27,49.95,CAMPBELL RIVER A,1021267,11/18/2023 1:00,2023,11,18,1:00,,,,,,,,,,,,,,,,,,,,,
-125.27,49.95,CAMPBELL RIVER A,1021267,11/18/2023 2:00,2023,11,18,2:00,,,,,,,,,,,,,,,,,,,,,
-125.27,49.95,CAMPBELL RIVER A,1021267,11/18/2023 3:00,2023,11,18,3:00,,,,,,,,,,,,,,,,,,,,,
-125.27,49.95,CAMPBELL RIVER A,1021267,11/18/2023 4:00,2023,11,18,4:00,,,,,,,,,,,,,,,,,,,,,
-125.27,49.95,CAMPBELL RIVER A,1021267,11/18/2023 5:00,2023,11,18,5:00,,,,,,,,,,,,,,,,,,,,,
-125.27,49.95,CAMPBELL RIVER A,1021267,11/18/2023 6:00,2023,11,18,6:00,1,,1,,100,,,,24,,7,,1.2,,99.62,,,,,,Fog
-125.27,49.95,CAMPBELL RIVER A,1021267,11/18/2023 7:00,2023,11,18,7:00,1.2,,1.2,,100,,,,32,,5,,6.4,,99.58,,,,,,Fog
-125.27,49.95,CAMPBELL RIVER A,1021267,11/18/2023 8:00,2023,11,18,8:00,1.7,,1.7,,100,,,,31,,5,,6.4,,99.52,,,,,,Fog
-125.27,49.95,CAMPBELL RIVER A,1021267,11/18/2023 9:00,2023,11,18,9:00,2.8,,2.8,,100,,,,36,,3,,4.8,,99.47,,,,,,Fog
-125.27,49.95,CAMPBELL RIVER A,1021267,11/18/2023 10:00,2023,11,18,10:00,4.3,,4.3,,100,,,,32,,7,,2.8,,99.42,,,,,,Fog
-125.27,49.95,CAMPBELL RIVER A,1021267,11/18/2023 11:00,2023,11,18,11:00,5,,5,,100,,,,36,,3,,3.2,,99.35,,,,,,Fog
-125.27,49.95,CAMPBELL RIVER A,1021267,11/18/2023 12:00,2023,11,18,12:00,5.6,,5.6,,100,,,,10,,4,,3.2,,99.25,,,,,,Fog
-125.27,49.95,CAMPBELL RIVER A,1021267,11/18/2023 13:00,2023,11,18,13:00,6.5,,6.5,,100,,,,11,,9,,4.8,,99.16,,,,,,Fog
-125.27,49.95,CAMPBELL RIVER A,1021267,11/18/2023 14:00,2023,11,18,14:00,6.6,,6.6,,100,,,,12,,8,,32.2,,99.09,,,,,,Rain
-125.27,49.95,CAMPBELL RIVER A,1021267,11/18/2023 15:00,2023,11,18,15:00,6.7,,6.7,,100,,,,9,,10,,24.1,,98.99,,,,,,NA
-125.27,49.95,CAMPBELL RIVER A,1021267,11/18/2023 16:00,2023,11,18,16:00,6.5,,6.5,,100,,,,11,,8,,24.1,,98.92,,,,,,Mostly Cloudy
-125.27,49.95,CAMPBELL RIVER A,1021267,11/18/2023 17:00,2023,11,18,17:00,6.2,,6.2,,100,,,,15,,4,,9.7,,98.87,,,,,,Fog
-125.27,49.95,CAMPBELL RIVER A,1021267,11/18/2023 18:00,2023,11,18,18:00,5.8,,5.8,,100,,,,24,,5,,24.1,,98.78,,,,,,Rain
-125.27,49.95,CAMPBELL RIVER A,1021267,11/18/2023 19:00,2023,11,18,19:00,5.7,,5.7,,100,,,,21,,7,,8.1,,98.76,,,,,,"Rain,Fog"
-125.27,49.95,CAMPBELL RIVER A,1021267,11/18/2023 20:00,2023,11,18,20:00,5.6,,5.6,,100,,,,23,,3,,4.8,,98.71,,,,,,"Rain,Fog"
-125.27,49.95,CAMPBELL RIVER A,1021267,11/18/2023 21:00,2023,11,18,21:00,5.6,,5.6,,100,,,,16,,4,,4.8,,98.7,,,,,,"Rain,Fog"
-125.27,49.95,CAMPBELL RIVER A,1021267,11/18/2023 22:00,2023,11,18,22:00,,,,,,,,,,,,,,,,,,,,,
-125.27,49.95,CAMPBELL RIVER A,1021267,11/18/2023 23:00,2023,11,18,23:00,,,,,,,,,,,,,,,,,,,,,
-125.27,49.95,CAMPBELL RIVER A,1021267,11/19/2023 0:00,2023,11,19,0:00,,,,,,,,,,,,,,,,,,,,,
-125.27,49.95,CAMPBELL RIVER A,1021267,11/19/2023 1:00,2023,11,19,1:00,,,,,,,,,,,,,,,,,,,,,
-125.27,49.95,CAMPBELL RIVER A,1021267,11/19/2023 2:00,2023,11,19,2:00,,,,,,,,,,,,,,,,,,,,,
-125.27,49.95,CAMPBELL RIVER A,1021267,11/19/2023 3:00,2023,11,19,3:00,,,,,,,,,,,,,,,,,,,,,
-125.27,49.95,CAMPBELL RIVER A,1021267,11/19/2023 4:00,2023,11,19,4:00,,,,,,,,,,,,,,,,,,,,,
-125.27,49.95,CAMPBELL RIVER A,1021267,11/19/2023 5:00,2023,11,19,5:00,,,,,,,,,,,,,,,,,,,,,
-125.27,49.95,CAMPBELL RIVER A,1021267,11/19/2023 6:00,2023,11,19,6:00,5.2,,5.2,,100,,,,30,,12,,24.1,,99.96,,,,,,NA
-125.27,49.95,CAMPBELL RIVER A,1021267,11/19/2023 7:00,2023,11,19,7:00,5,,5,,100,,,,32,,15,,32.2,,100.13,,,,,,Mostly Cloudy
-125.27,49.95,CAMPBELL RIVER A,1021267,11/19/2023 8:00,2023,11,19,8:00,5.1,,5,,99,,,,30,,10,,48.3,,100.36,,,,,,NA
-125.27,49.95,CAMPBELL RIVER A,1021267,11/19/2023 9:00,2023,11,19,9:00,5.8,,5.1,,95,,,,33,,15,,48.3,,100.56,,,,,,NA
-125.27,49.95,CAMPBELL RIVER A,1021267,11/19/2023 10:00,2023,11,19,10:00,6.5,,5.3,,92,,,,30,,9,,48.3,,100.79,,,,,,Mostly Cloudy
-125.27,49.95,CAMPBELL RIVER A,1021267,11/19/2023 11:00,2023,11,19,11:00,7.5,,4.4,,81,,,,33,,16,,48.3,,100.96,,,,,,NA
-125.27,49.95,CAMPBELL RIVER A,1021267,11/19/2023 12:00,2023,11,19,12:00,6.1,,4.1,,87,,,,28,,8,,48.3,,101.06,,,,,,NA
-125.27,49.95,CAMPBELL RIVER A,1021267,11/19/2023 13:00,2023,11,19,13:00,9,,1,,57,,,,31,,14,,48.3,,101.17,,,,,,Mostly Cloudy
-125.27,49.95,CAMPBELL RIVER A,1021267,11/19/2023 14:00,2023,11,19,14:00,9.8,,-1,,47,,,,30,,15,,48.3,,101.28,,,,,,NA
-125.27,49.95,CAMPBELL RIVER A,1021267,11/19/2023 15:00,2023,11,19,15:00,9.4,,-1.8,,45,,,,30,,9,,48.3,,101.39,,,,,,NA
-125.27,49.95,CAMPBELL RIVER A,1021267,11/19/2023 16:00,2023,11,19,16:00,5.8,,3.3,,84,,,,31,,4,,48.3,,101.48,,,,,,Mostly Cloudy
-125.27,49.95,CAMPBELL RIVER A,1021267,11/19/2023 17:00,2023,11,19,17:00,3.5,,2.5,,93,,,,23,,7,,48.3,,101.62,,,,,,NA
-125.27,49.95,CAMPBELL RIVER A,1021267,11/19/2023 18:00,2023,11,19,18:00,1.6,,1.6,,100,,,,29,,7,,48.3,,101.68,,,,,,NA
-125.27,49.95,CAMPBELL RIVER A,1021267,11/19/2023 19:00,2023,11,19,19:00,-0.3,,-0.3,,100,,,,31,,3,,48.3,,101.76,,,,-1,,Mostly Cloudy
-125.27,49.95,CAMPBELL RIVER A,1021267,11/19/2023 20:00,2023,11,19,20:00,0.1,,0.1,,100,,,,29,,3,,48.3,,101.77,,,,,,NA
-125.27,49.95,CAMPBELL RIVER A,1021267,11/19/2023 21:00,2023,11,19,21:00,-1,,-1,,100,,,,28,,5,,48.3,,101.82,,,,-3,,NA
-125.27,49.95,CAMPBELL RIVER A,1021267,11/19/2023 22:00,2023,11,19,22:00,,,,,,,,,,,,,,,,,,,,,
-125.27,49.95,CAMPBELL RIVER A,1021267,11/19/2023 23:00,2023,11,19,23:00,,,,,,,,,,,,,,,,,,,,,
-125.27,49.95,CAMPBELL RIVER A,1021267,11/20/2023 0:00,2023,11,20,0:00,,,,,,,,,,,,,,,,,,,,,
-125.27,49.95,CAMPBELL RIVER A,1021267,11/20/2023 1:00,2023,11,20,1:00,,,,,,,,,,,,,,,,,,,,,
-125.27,49.95,CAMPBELL RIVER A,1021267,11/20/2023 2:00,2023,11,20,2:00,,,,,,,,,,,,,,,,,,,,,
-125.27,49.95,CAMPBELL RIVER A,1021267,11/20/2023 3:00,2023,11,20,3:00,,,,,,,,,,,,,,,,,,,,,
-125.27,49.95,CAMPBELL RIVER A,1021267,11/20/2023 4:00,2023,11,20,4:00,,,,,,,,,,,,,,,,,,,,,
-125.27,49.95,CAMPBELL RIVER A,1021267,11/20/2023 5:00,2023,11,20,5:00,,,,,,,,,,,,,,,,,,,,,
-125.27,49.95,CAMPBELL RIVER A,1021267,11/20/2023 6:00,2023,11,20,6:00,2.6,,2.6,,100,,,,16,,5,,24.1,,101.89,,,,,,NA
-125.27,49.95,CAMPBELL RIVER A,1021267,11/20/2023 7:00,2023,11,20,7:00,4.8,,4.2,,96,,,,14,,9,,24.1,,101.9,,,,,,Mostly Cloudy
-125.27,49.95,CAMPBELL RIVER A,1021267,11/20/2023 8:00,2023,11,20,8:00,4.8,,4.6,,98,,,,13,,9,,32.2,,101.94,,,,,,NA
-125.27,49.95,CAMPBELL RIVER A,1021267,11/20/2023 9:00,2023,11,20,9:00,5.6,,4.8,,95,,,,12,,15,,48.3,,101.91,,,,,,NA
-125.27,49.95,CAMPBELL RIVER A,1021267,11/20/2023 10:00,2023,11,20,10:00,,,,,,,,,,,,,,,,,,,,,NA
-125.27,49.95,CAMPBELL RIVER A,1021267,11/20/2023 11:00,2023,11,20,11:00,7.2,,4.7,,84,,,,14,,27,,32.2,,101.9,,,,,,NA
-125.27,49.95,CAMPBELL RIVER A,1021267,11/20/2023 12:00,2023,11,20,12:00,7.8,,5.3,,84,,,,13,,23,,32.2,,101.82,,,,,,NA
-125.27,49.95,CAMPBELL RIVER A,1021267,11/20/2023 13:00,2023,11,20,13:00,8,,5,,82,,,,13,,23,,32.2,,101.76,,,,,,Mostly Cloudy
-125.27,49.95,CAMPBELL RIVER A,1021267,11/20/2023 14:00,2023,11,20,14:00,8.4,,3.4,,70,,,,11,,18,,48.3,,101.72,,,,,,NA
-125.27,49.95,CAMPBELL RIVER A,1021267,11/20/2023 15:00,2023,11,20,15:00,7.7,,2.9,,72,,,,13,,18,,48.3,,101.67,,,,,,NA
-125.27,49.95,CAMPBELL RIVER A,1021267,11/20/2023 16:00,2023,11,20,16:00,7,,3.5,,78,,,,12,,21,,48.3,,101.61,,,,,,Cloudy
-125.27,49.95,CAMPBELL RIVER A,1021267,11/20/2023 17:00,2023,11,20,17:00,6.1,,4.1,,87,,,,11,,10,,24.1,,101.55,,,,,,NA
-125.27,49.95,CAMPBELL RIVER A,1021267,11/20/2023 18:00,2023,11,20,18:00,5.8,,4.2,,89,,,,12,,20,,24.1,,101.45,,,,,,NA
-125.27,49.95,CAMPBELL RIVER A,1021267,11/20/2023 19:00,2023,11,20,19:00,5.8,,4.2,,90,,,,13,,24,,24.1,,101.41,,,,,,Mostly Cloudy
-125.27,49.95,CAMPBELL RIVER A,1021267,11/20/2023 20:00,2023,11,20,20:00,6.1,,3.8,,85,,,,12,,21,,24.1,,101.31,,,,,,NA
-125.27,49.95,CAMPBELL RIVER A,1021267,11/20/2023 21:00,2023,11,20,21:00,5.8,,3.8,,87,,,,11,,14,,24.1,,101.3,,,,,,NA
-125.27,49.95,CAMPBELL RIVER A,1021267,11/20/2023 22:00,2023,11,20,22:00,,,,,,,,,,,,,,,,,,,,,
-125.27,49.95,CAMPBELL RIVER A,1021267,11/20/2023 23:00,2023,11,20,23:00,,,,,,,,,,,,,,,,,,,,,
-125.27,49.95,CAMPBELL RIVER A,1021267,11/21/2023 0:00,2023,11,21,0:00,,,,,,,,,,,,,,,,,,,,,
-125.27,49.95,CAMPBELL RIVER A,1021267,11/21/2023 1:00,2023,11,21,1:00,,,,,,,,,,,,,,,,,,,,,
-125.27,49.95,CAMPBELL RIVER A,1021267,11/21/2023 2:00,2023,11,21,2:00,,,,,,,,,,,,,,,,,,,,,
-125.27,49.95,CAMPBELL RIVER A,1021267,11/21/2023 3:00,2023,11,21,3:00,,,,,,,,,,,,,,,,,,,,,
-125.27,49.95,CAMPBELL RIVER A,1021267,11/21/2023 4:00,2023,11,21,4:00,,,,,,,,,,,,,,,,,,,,,
-125.27,49.95,CAMPBELL RIVER A,1021267,11/21/2023 5:00,2023,11,21,5:00,,,,,,,,,,,,,,,,,,,,,
-125.27,49.95,CAMPBELL RIVER A,1021267,11/21/2023 6:00,2023,11,21,6:00,6,,1.7,,74,,,,13,,23,,24.1,,100.67,,,,,,NA
-125.27,49.95,CAMPBELL RIVER A,1021267,11/21/2023 7:00,2023,11,21,7:00,6.8,,2.4,,73,,,,14,,28,,24.1,,100.59,,,,,,Mostly Cloudy
-125.27,49.95,CAMPBELL RIVER A,1021267,11/21/2023 8:00,2023,11,21,8:00,6.8,,2.9,,76,,,,13,,20,,32.2,,100.59,,,,,,NA
-125.27,49.95,CAMPBELL RIVER A,1021267,11/21/2023 9:00,2023,11,21,9:00,7.2,,3.4,,77,,,,17,,8,,32.2,,100.64,,,,,,NA
-125.27,49.95,CAMPBELL RIVER A,1021267,11/21/2023 10:00,2023,11,21,10:00,7,,3,,76,,,,24,,8,,32.2,,100.69,,,,,,Cloudy
-125.27,49.95,CAMPBELL RIVER A,1021267,11/21/2023 11:00,2023,11,21,11:00,5.9,,5.8,,100,,,,28,,7,,32.2,,100.76,,,,,,Rain
-125.27,49.95,CAMPBELL RIVER A,1021267,11/21/2023 12:00,2023,11,21,12:00,5.8,,5.8,,100,,,,27,,7,,4.8,,100.82,,,,,,"Moderate Rain,Fog"
-125.27,49.95,CAMPBELL RIVER A,1021267,11/21/2023 13:00,2023,11,21,13:00,5.8,,5.8,,100,,,,27,,8,,4.8,,100.85,,,,,,"Moderate Rain,Fog"
-125.27,49.95,CAMPBELL RIVER A,1021267,11/21/2023 14:00,2023,11,21,14:00,6.3,,6.3,,100,,,,23,,5,,6.4,,100.89,,,,,,"Rain,Fog"
-125.27,49.95,CAMPBELL RIVER A,1021267,11/21/2023 15:00,2023,11,21,15:00,6.7,,6.7,,100,,,,,,0,,12.9,,100.89,,,,,,NA
-125.27,49.95,CAMPBELL RIVER A,1021267,11/21/2023 16:00,2023,11,21,16:00,6.5,,6.5,,100,,,,30,,6,,12.9,,100.9,,,,,,Cloudy
-125.27,49.95,CAMPBELL RIVER A,1021267,11/21/2023 17:00,2023,11,21,17:00,6,,6,,100,,,,,,0,,4.8,,100.94,,,,,,"Rain,Fog"
-125.27,49.95,CAMPBELL RIVER A,1021267,11/21/2023 18:00,2023,11,21,18:00,5.9,,5.9,,100,,,,29,,4,,9.7,,101.01,,,,,,Fog
-125.27,49.95,CAMPBELL RIVER A,1021267,11/21/2023 19:00,2023,11,21,19:00,5.9,,5.9,,100,,,,30,,5,,9.7,,101.09,,,,,,Fog
-125.27,49.95,CAMPBELL RIVER A,1021267,11/21/2023 20:00,2023,11,21,20:00,5.8,,5.8,,100,,,,,,0,,9.7,,101.13,,,,,,"Drizzle,Fog"
-125.27,49.95,CAMPBELL RIVER A,1021267,11/21/2023 21:00,2023,11,21,21:00,5.6,,5.6,,100,,,,32,,3,,24.1,,101.2,,,,,,NA
-125.27,49.95,CAMPBELL RIVER A,1021267,11/21/2023 22:00,2023,11,21,22:00,,,,,,,,,,,,,,,,,,,,,
-125.27,49.95,CAMPBELL RIVER A,1021267,11/21/2023 23:00,2023,11,21,23:00,,,,,,,,,,,,,,,,,,,,,
-125.27,49.95,CAMPBELL RIVER A,1021267,11/22/2023 0:00,2023,11,22,0:00,,,,,,,,,,,,,,,,,,,,,
-125.27,49.95,CAMPBELL RIVER A,1021267,11/22/2023 1:00,2023,11,22,1:00,,,,,,,,,,,,,,,,,,,,,
-125.27,49.95,CAMPBELL RIVER A,1021267,11/22/2023 2:00,2023,11,22,2:00,,,,,,,,,,,,,,,,,,,,,
-125.27,49.95,CAMPBELL RIVER A,1021267,11/22/2023 3:00,2023,11,22,3:00,,,,,,,,,,,,,,,,,,,,,
-125.27,49.95,CAMPBELL RIVER A,1021267,11/22/2023 4:00,2023,11,22,4:00,,,,,,,,,,,,,,,,,,,,,
-125.27,49.95,CAMPBELL RIVER A,1021267,11/22/2023 5:00,2023,11,22,5:00,,,,,,,,,,,,,,,,,,,,,
-125.27,49.95,CAMPBELL RIVER A,1021267,11/22/2023 6:00,2023,11,22,6:00,0.2,,0.2,,100,,,,24,,7,,24.1,,101.6,,,,,,NA
-125.27,49.95,CAMPBELL RIVER A,1021267,11/22/2023 7:00,2023,11,22,7:00,1.6,,1.6,,100,,,,27,,12,,48.3,,101.65,,,,,,Mainly Clear
-125.27,49.95,CAMPBELL RIVER A,1021267,11/22/2023 8:00,2023,11,22,8:00,2.2,,2.2,,100,,,,28,,10,,48.3,,101.66,,,,,,NA
-125.27,49.95,CAMPBELL RIVER A,1021267,11/22/2023 9:00,2023,11,22,9:00,2.9,,2.9,,100,,,,32,,5,,48.3,,101.69,,,,,,NA
-125.27,49.95,CAMPBELL RIVER A,1021267,11/22/2023 10:00,2023,11,22,10:00,5,,5,,100,,,,33,,10,,48.3,,101.72,,,,,,Mostly Cloudy
-125.27,49.95,CAMPBELL RIVER A,1021267,11/22/2023 11:00,2023,11,22,11:00,6.5,,5.4,,93,,,,32,,11,,48.3,,101.75,,,,,,NA
-125.27,49.95,CAMPBELL RIVER A,1021267,11/22/2023 12:00,2023,11,22,12:00,7.5,,4.8,,83,,,,36,,10,,48.3,,101.73,,,,,,NA
-125.27,49.95,CAMPBELL RIVER A,1021267,11/22/2023 13:00,2023,11,22,13:00,7.6,,3.8,,77,,,,34,,14,,48.3,,101.75,,,,,,Mostly Cloudy
-125.27,49.95,CAMPBELL RIVER A,1021267,11/22/2023 14:00,2023,11,22,14:00,7.3,,3.9,,79,,,,34,,9,,48.3,,101.74,,,,,,NA
-125.27,49.95,CAMPBELL RIVER A,1021267,11/22/2023 15:00,2023,11,22,15:00,7.7,,3.4,,74,,,,31,,10,,48.3,,101.71,,,,,,NA
-125.27,49.95,CAMPBELL RIVER A,1021267,11/22/2023 16:00,2023,11,22,16:00,5,,3.7,,91,,,,30,,9,,48.3,,101.72,,,,,,Mainly Clear
-125.27,49.95,CAMPBELL RIVER A,1021267,11/22/2023 17:00,2023,11,22,17:00,2.6,,2.6,,100,,,,28,,7,,48.3,,101.75,,,,,,NA
-125.27,49.95,CAMPBELL RIVER A,1021267,11/22/2023 18:00,2023,11,22,18:00,4.7,,2.4,,85,,,,30,,11,,24.1,,101.75,,,,,,NA
-125.27,49.95,CAMPBELL RIVER A,1021267,11/22/2023 19:00,2023,11,22,19:00,2.4,,2.4,,100,,,,25,,5,,24.1,,101.77,,,,,,Clear
-125.27,49.95,CAMPBELL RIVER A,1021267,11/22/2023 20:00,2023,11,22,20:00,0.7,,0.7,,100,,,,,,0,,24.1,,101.82,,,,,,NA
-125.27,49.95,CAMPBELL RIVER A,1021267,11/22/2023 21:00,2023,11,22,21:00,-0.2,,-0.2,,100,,,,,,0,,24.1,,101.84,,,,,,NA
-125.27,49.95,CAMPBELL RIVER A,1021267,11/22/2023 22:00,2023,11,22,22:00,,,,,,,,,,,,,,,,,,,,,
-125.27,49.95,CAMPBELL RIVER A,1021267,11/22/2023 23:00,2023,11,22,23:00,,,,,,,,,,,,,,,,,,,,,
-125.27,49.95,CAMPBELL RIVER A,1021267,11/23/2023 0:00,2023,11,23,0:00,,,,,,,,,,,,,,,,,,,,,
-125.27,49.95,CAMPBELL RIVER A,1021267,11/23/2023 1:00,2023,11,23,1:00,,,,,,,,,,,,,,,,,,,,,
-125.27,49.95,CAMPBELL RIVER A,1021267,11/23/2023 2:00,2023,11,23,2:00,,,,,,,,,,,,,,,,,,,,,
-125.27,49.95,CAMPBELL RIVER A,1021267,11/23/2023 3:00,2023,11,23,3:00,,,,,,,,,,,,,,,,,,,,,
-125.27,49.95,CAMPBELL RIVER A,1021267,11/23/2023 4:00,2023,11,23,4:00,,,,,,,,,,,,,,,,,,,,,
-125.27,49.95,CAMPBELL RIVER A,1021267,11/23/2023 5:00,2023,11,23,5:00,,,,,,,,,,,,,,,,,,,,,
-125.27,49.95,CAMPBELL RIVER A,1021267,11/23/2023 6:00,2023,11,23,6:00,-3.3,,-3.3,,100,,,,31,,10,,24.1,,101.94,,,,-7,,NA
-125.27,49.95,CAMPBELL RIVER A,1021267,11/23/2023 7:00,2023,11,23,7:00,-3,,-3,,100,,,,30,,4,,24.1,,101.98,,,,-5,,Clear
-125.27,49.95,CAMPBELL RIVER A,1021267,11/23/2023 8:00,2023,11,23,8:00,-2.7,,-2.7,,100,,,,36,,3,,48.3,,101.99,,,,-4,,NA
-125.27,49.95,CAMPBELL RIVER A,1021267,11/23/2023 9:00,2023,11,23,9:00,-0.4,,-0.4,,100,,,,30,,3,,48.3,,102.01,,,,-1,,NA
-125.27,49.95,CAMPBELL RIVER A,1021267,11/23/2023 10:00,2023,11,23,10:00,4.2,,3.4,,95,,,,31,,8,,48.3,,102.03,,,,,,Clear
-125.27,49.95,CAMPBELL RIVER A,1021267,11/23/2023 11:00,2023,11,23,11:00,5.6,,2.8,,82,,,,30,,9,,48.3,,102.04,,,,,,NA
-125.27,49.95,CAMPBELL RIVER A,1021267,11/23/2023 12:00,2023,11,23,12:00,6.8,,3.1,,77,,,,29,,9,,48.3,,102,,,,,,NA
-125.27,49.95,CAMPBELL RIVER A,1021267,11/23/2023 13:00,2023,11,23,13:00,7.5,,2.2,,69,,,,31,,8,,48.3,,101.94,,,,,,Mainly Clear
-125.27,49.95,CAMPBELL RIVER A,1021267,11/23/2023 14:00,2023,11,23,14:00,7.8,,2.8,,71,,,,28,,6,,48.3,,101.88,,,,,,NA
-125.27,49.95,CAMPBELL RIVER A,1021267,11/23/2023 15:00,2023,11,23,15:00,6.5,,3.2,,79,,,,29,,5,,48.3,,101.84,,,,,,NA
-125.27,49.95,CAMPBELL RIVER A,1021267,11/23/2023 16:00,2023,11,23,16:00,2.7,,2.7,,100,,,,29,,5,,48.3,,101.86,,,,,,Mainly Clear
-125.27,49.95,CAMPBELL RIVER A,1021267,11/23/2023 17:00,2023,11,23,17:00,2.2,,2.2,,100,,,,31,,8,,24.1,,101.86,,,,,,NA
-125.27,49.95,CAMPBELL RIVER A,1021267,11/23/2023 18:00,2023,11,23,18:00,0.2,,0.2,,100,,,,29,,4,,24.1,,101.86,,,,,,NA
-125.27,49.95,CAMPBELL RIVER A,1021267,11/23/2023 19:00,2023,11,23,19:00,-0.5,,-0.5,,100,,,,34,,7,,24.1,,101.86,,,,-3,,Clear
-125.27,49.95,CAMPBELL RIVER A,1021267,11/23/2023 20:00,2023,11,23,20:00,-1.1,,-1.1,,100,,,,26,,3,,24.1,,101.87,,,,-2,,NA
-125.27,49.95,CAMPBELL RIVER A,1021267,11/23/2023 21:00,2023,11,23,21:00,-1.8,,-1.8,,100,,,,,,0,,24.1,,101.87,,,,,,NA
-125.27,49.95,CAMPBELL RIVER A,1021267,11/23/2023 22:00,2023,11,23,22:00,,,,,,,,,,,,,,,,,,,,,
-125.27,49.95,CAMPBELL RIVER A,1021267,11/23/2023 23:00,2023,11,23,23:00,,,,,,,,,,,,,,,,,,,,,
-125.27,49.95,CAMPBELL RIVER A,1021267,11/24/2023 0:00,2023,11,24,0:00,,,,,,,,,,,,,,,,,,,,,
-125.27,49.95,CAMPBELL RIVER A,1021267,11/24/2023 1:00,2023,11,24,1:00,,,,,,,,,,,,,,,,,,,,,
-125.27,49.95,CAMPBELL RIVER A,1021267,11/24/2023 2:00,2023,11,24,2:00,,,,,,,,,,,,,,,,,,,,,
-125.27,49.95,CAMPBELL RIVER A,1021267,11/24/2023 3:00,2023,11,24,3:00,,,,,,,,,,,,,,,,,,,,,
-125.27,49.95,CAMPBELL RIVER A,1021267,11/24/2023 4:00,2023,11,24,4:00,,,,,,,,,,,,,,,,,,,,,
-125.27,49.95,CAMPBELL RIVER A,1021267,11/24/2023 5:00,2023,11,24,5:00,,,,,,,,,,,,,,,,,,,,,
-125.27,49.95,CAMPBELL RIVER A,1021267,11/24/2023 6:00,2023,11,24,6:00,-4.3,,-4.3,,100,,,,26,,3,,24.1,,101.8,,,,-6,,NA
-125.27,49.95,CAMPBELL RIVER A,1021267,11/24/2023 7:00,2023,11,24,7:00,-3.6,,-3.6,,100,,,,36,,3,,24.1,,101.78,,,,-5,,Clear
-125.27,49.95,CAMPBELL RIVER A,1021267,11/24/2023 8:00,2023,11,24,8:00,-3.2,,-3.2,,100,,,,25,,3,,48.3,,101.77,,,,-4,,NA
-125.27,49.95,CAMPBELL RIVER A,1021267,11/24/2023 9:00,2023,11,24,9:00,-1.6,,-1.6,,100,,,,32,,3,,48.3,,101.79,,,,-3,,NA
-125.27,49.95,CAMPBELL RIVER A,1021267,11/24/2023 10:00,2023,11,24,10:00,1.3,,1.3,,100,,,,30,,7,,48.3,,101.78,,,,,,Mainly Clear
-125.27,49.95,CAMPBELL RIVER A,1021267,11/24/2023 11:00,2023,11,24,11:00,3.3,,2.2,,92,,,,33,,12,,48.3,,101.77,,,,,,NA
-125.27,49.95,CAMPBELL RIVER A,1021267,11/24/2023 12:00,2023,11,24,12:00,4.4,,1.7,,82,,,,31,,9,,48.3,,101.72,,,,,,NA
-125.27,49.95,CAMPBELL RIVER A,1021267,11/24/2023 13:00,2023,11,24,13:00,5.2,,1.9,,79,,,,32,,7,,48.3,,101.67,,,,,,Mainly Clear
-125.27,49.95,CAMPBELL RIVER A,1021267,11/24/2023 14:00,2023,11,24,14:00,5.7,,2.6,,80,,,,30,,7,,48.3,,101.61,,,,,,NA
-125.27,49.95,CAMPBELL RIVER A,1021267,11/24/2023 15:00,2023,11,24,15:00,4.7,,2.3,,84,,,,30,,11,,48.3,,101.59,,,,,,NA
-125.27,49.95,CAMPBELL RIVER A,1021267,11/24/2023 16:00,2023,11,24,16:00,2.8,,2.3,,97,,,,30,,13,,48.3,,101.61,,,,,,Mainly Clear
-125.27,49.95,CAMPBELL RIVER A,1021267,11/24/2023 17:00,2023,11,24,17:00,1.8,,1.8,,100,,,,29,,8,,24.1,,101.61,,,,,,NA
-125.27,49.95,CAMPBELL RIVER A,1021267,11/24/2023 18:00,2023,11,24,18:00,1.6,,1.6,,100,,,,29,,5,,24.1,,101.62,,,,,,NA
-125.27,49.95,CAMPBELL RIVER A,1021267,11/24/2023 19:00,2023,11,24,19:00,0.3,,0.3,,100,,,,29,,4,,24.1,,101.63,,,,,,Mostly Cloudy
-125.27,49.95,CAMPBELL RIVER A,1021267,11/24/2023 20:00,2023,11,24,20:00,1.2,,1.2,,100,,,,26,,3,,24.1,,101.62,,,,,,NA
-125.27,49.95,CAMPBELL RIVER A,1021267,11/24/2023 21:00,2023,11,24,21:00,2.4,,2.4,,100,,,,26,,7,,24.1,,101.64,,,,,,NA
-125.27,49.95,CAMPBELL RIVER A,1021267,11/24/2023 22:00,2023,11,24,22:00,,,,,,,,,,,,,,,,,,,,,
-125.27,49.95,CAMPBELL RIVER A,1021267,11/24/2023 23:00,2023,11,24,23:00,,,,,,,,,,,,,,,,,,,,,
-125.27,49.95,CAMPBELL RIVER A,1021267,11/25/2023 0:00,2023,11,25,0:00,,,,,,,,,,,,,,,,,,,,,
-125.27,49.95,CAMPBELL RIVER A,1021267,11/25/2023 1:00,2023,11,25,1:00,,,,,,,,,,,,,,,,,,,,,
-125.27,49.95,CAMPBELL RIVER A,1021267,11/25/2023 2:00,2023,11,25,2:00,,,,,,,,,,,,,,,,,,,,,
-125.27,49.95,CAMPBELL RIVER A,1021267,11/25/2023 3:00,2023,11,25,3:00,,,,,,,,,,,,,,,,,,,,,
-125.27,49.95,CAMPBELL RIVER A,1021267,11/25/2023 4:00,2023,11,25,4:00,,,,,,,,,,,,,,,,,,,,,
-125.27,49.95,CAMPBELL RIVER A,1021267,11/25/2023 5:00,2023,11,25,5:00,,,,,,,,,,,,,,,,,,,,,
-125.27,49.95,CAMPBELL RIVER A,1021267,11/25/2023 6:00,2023,11,25,6:00,0.6,,0.6,,100,,,,27,,7,,16.1,,101.59,,,,,,NA
-125.27,49.95,CAMPBELL RIVER A,1021267,11/25/2023 7:00,2023,11,25,7:00,0.4,,0.4,,100,,,,25,,8,,12.9,,101.61,,,,,,Mostly Cloudy
-125.27,49.95,CAMPBELL RIVER A,1021267,11/25/2023 8:00,2023,11,25,8:00,-0.1,,-0.1,,100,,,,27,,5,,6.4,,101.63,,,,-2,,Fog
-125.27,49.95,CAMPBELL RIVER A,1021267,11/25/2023 9:00,2023,11,25,9:00,1.1,,1.1,,100,,,,26,,8,,6.4,,101.68,,,,,,Fog
-125.27,49.95,CAMPBELL RIVER A,1021267,11/25/2023 10:00,2023,11,25,10:00,1.9,,1.9,,100,,,,25,,4,,6.4,,101.71,,,,,,Fog
-125.27,49.95,CAMPBELL RIVER A,1021267,11/25/2023 11:00,2023,11,25,11:00,3.8,,2.5,,91,,,,32,,7,,48.3,,101.7,,,,,,NA
-125.27,49.95,CAMPBELL RIVER A,1021267,11/25/2023 12:00,2023,11,25,12:00,4.8,,2.9,,87,,,,14,,10,,19.3,,101.65,,,,,,NA
-125.27,49.95,CAMPBELL RIVER A,1021267,11/25/2023 13:00,2023,11,25,13:00,5.2,,3.4,,88,,,,12,,5,,32.2,,101.58,,,,,,Mainly Clear
-125.27,49.95,CAMPBELL RIVER A,1021267,11/25/2023 14:00,2023,11,25,14:00,5.2,,3.4,,88,,,,14,,5,,40.2,,101.53,,,,,,NA
-125.27,49.95,CAMPBELL RIVER A,1021267,11/25/2023 15:00,2023,11,25,15:00,5.2,,3.5,,89,,,,8,,6,,48.3,,101.53,,,,,,NA
-125.27,49.95,CAMPBELL RIVER A,1021267,11/25/2023 16:00,2023,11,25,16:00,2.8,,2.8,,100,,,,14,,4,,48.3,,101.54,,,,,,Mainly Clear
-125.27,49.95,CAMPBELL RIVER A,1021267,11/25/2023 17:00,2023,11,25,17:00,0.7,,0.7,,100,,,,30,,4,,24.1,,101.54,,,,,,NA
-125.27,49.95,CAMPBELL RIVER A,1021267,11/25/2023 18:00,2023,11,25,18:00,1.4,,1.4,,100,,,,,,0,,24.1,,101.53,,,,,,NA
-125.27,49.95,CAMPBELL RIVER A,1021267,11/25/2023 19:00,2023,11,25,19:00,2,,2,,100,,,,23,,6,,8.1,,101.55,,,,,,Fog
-125.27,49.95,CAMPBELL RIVER A,1021267,11/25/2023 20:00,2023,11,25,20:00,2.2,,2.2,,100,,,,28,,4,,1.2,,101.53,,,,,,Fog
-125.27,49.95,CAMPBELL RIVER A,1021267,11/25/2023 21:00,2023,11,25,21:00,2.1,,2.1,,100,,,,27,,6,,0.8,,101.53,,,,,,Fog
-125.27,49.95,CAMPBELL RIVER A,1021267,11/25/2023 22:00,2023,11,25,22:00,,,,,,,,,,,,,,,,,,,,,
-125.27,49.95,CAMPBELL RIVER A,1021267,11/25/2023 23:00,2023,11,25,23:00,,,,,,,,,,,,,,,,,,,,,
-125.27,49.95,CAMPBELL RIVER A,1021267,11/26/2023 0:00,2023,11,26,0:00,,,,,,,,,,,,,,,,,,,,,
-125.27,49.95,CAMPBELL RIVER A,1021267,11/26/2023 1:00,2023,11,26,1:00,,,,,,,,,,,,,,,,,,,,,
-125.27,49.95,CAMPBELL RIVER A,1021267,11/26/2023 2:00,2023,11,26,2:00,,,,,,,,,,,,,,,,,,,,,
-125.27,49.95,CAMPBELL RIVER A,1021267,11/26/2023 3:00,2023,11,26,3:00,,,,,,,,,,,,,,,,,,,,,
-125.27,49.95,CAMPBELL RIVER A,1021267,11/26/2023 4:00,2023,11,26,4:00,,,,,,,,,,,,,,,,,,,,,
-125.27,49.95,CAMPBELL RIVER A,1021267,11/26/2023 5:00,2023,11,26,5:00,,,,,,,,,,,,,,,,,,,,,
-125.27,49.95,CAMPBELL RIVER A,1021267,11/26/2023 6:00,2023,11,26,6:00,-1.6,,-1.6,,100,,,,31,,3,,0.6,,101.35,,,,-3,,Freezing Fog
-125.27,49.95,CAMPBELL RIVER A,1021267,11/26/2023 7:00,2023,11,26,7:00,-2.5,,-2.5,,100,,,,32,,5,,3.2,,101.33,,,,-4,,Fog
-125.27,49.95,CAMPBELL RIVER A,1021267,11/26/2023 8:00,2023,11,26,8:00,-2,,-2,,100,,,,28,,4,,0.8,,101.33,,,,-3,,Freezing Fog
-125.27,49.95,CAMPBELL RIVER A,1021267,11/26/2023 9:00,2023,11,26,9:00,-1.3,,-1.3,,100,,,,36,,3,,2.4,,101.36,,,,-2,,Fog
-125.27,49.95,CAMPBELL RIVER A,1021267,11/26/2023 10:00,2023,11,26,10:00,-0.1,,-0.1,,100,,,,36,,3,,0.8,,101.37,,,,-1,,Freezing Fog
-125.27,49.95,CAMPBELL RIVER A,1021267,11/26/2023 11:00,2023,11,26,11:00,0.4,,0.4,,100,,,,25,,3,,1,,101.34,,,,,,Fog
-125.27,49.95,CAMPBELL RIVER A,1021267,11/26/2023 12:00,2023,11,26,12:00,1.2,,1.2,,100,,,,,,0,,1.6,,101.29,,,,,,Fog
-125.27,49.95,CAMPBELL RIVER A,1021267,11/26/2023 13:00,2023,11,26,13:00,1.9,,1.9,,100,,,,19,,4,,0.4,,101.22,,,,,,Fog
-125.27,49.95,CAMPBELL RIVER A,1021267,11/26/2023 14:00,2023,11,26,14:00,1.7,,1.7,,100,,,,,,0,,0.6,,101.2,,,,,,Fog
-125.27,49.95,CAMPBELL RIVER A,1021267,11/26/2023 15:00,2023,11,26,15:00,1.4,,1.4,,100,,,,28,,5,,0.8,,101.17,,,,,,Fog
-125.27,49.95,CAMPBELL RIVER A,1021267,11/26/2023 16:00,2023,11,26,16:00,1.3,,1.3,,100,,,,26,,5,,0.6,,101.15,,,,,,Fog
-125.27,49.95,CAMPBELL RIVER A,1021267,11/26/2023 17:00,2023,11,26,17:00,0.9,,0.9,,100,,,,,,0,,0.6,,101.11,,,,,,Fog
-125.27,49.95,CAMPBELL RIVER A,1021267,11/26/2023 18:00,2023,11,26,18:00,0.2,,0.2,,100,,,,29,,3,,0.6,,101.1,,,,,,Fog
-125.27,49.95,CAMPBELL RIVER A,1021267,11/26/2023 19:00,2023,11,26,19:00,-0.3,,-0.3,,100,,,,26,,4,,0.6,,101.11,,,,-2,,Freezing Fog
-125.27,49.95,CAMPBELL RIVER A,1021267,11/26/2023 20:00,2023,11,26,20:00,-1.2,,-1.2,,100,,,,30,,3,,2.4,,101.09,,,,-2,,Fog
-125.27,49.95,CAMPBELL RIVER A,1021267,11/26/2023 21:00,2023,11,26,21:00,-1.1,,-1.1,,100,,,,36,,3,,1.2,,101.08,,,,-2,,Fog
-125.27,49.95,CAMPBELL RIVER A,1021267,11/26/2023 22:00,2023,11,26,22:00,,,,,,,,,,,,,,,,,,,,,
-125.27,49.95,CAMPBELL RIVER A,1021267,11/26/2023 23:00,2023,11,26,23:00,,,,,,,,,,,,,,,,,,,,,
-125.27,49.95,CAMPBELL RIVER A,1021267,11/27/2023 0:00,2023,11,27,0:00,,,,,,,,,,,,,,,,,,,,,
-125.27,49.95,CAMPBELL RIVER A,1021267,11/27/2023 1:00,2023,11,27,1:00,,,,,,,,,,,,,,,,,,,,,
-125.27,49.95,CAMPBELL RIVER A,1021267,11/27/2023 2:00,2023,11,27,2:00,,,,,,,,,,,,,,,,,,,,,
-125.27,49.95,CAMPBELL RIVER A,1021267,11/27/2023 3:00,2023,11,27,3:00,,,,,,,,,,,,,,,,,,,,,
-125.27,49.95,CAMPBELL RIVER A,1021267,11/27/2023 4:00,2023,11,27,4:00,,,,,,,,,,,,,,,,,,,,,
-125.27,49.95,CAMPBELL RIVER A,1021267,11/27/2023 5:00,2023,11,27,5:00,,,,,,,,,,,,,,,,,,,,,
-125.27,49.95,CAMPBELL RIVER A,1021267,11/27/2023 6:00,2023,11,27,6:00,-0.3,,-0.3,,100,,,,30,,7,,0.8,,101.07,,,,-3,,Freezing Fog
-125.27,49.95,CAMPBELL RIVER A,1021267,11/27/2023 7:00,2023,11,27,7:00,-0.2,,-0.2,,100,,,,31,,7,,0.8,,101.1,,,,-3,,Freezing Fog
-125.27,49.95,CAMPBELL RIVER A,1021267,11/27/2023 8:00,2023,11,27,8:00,0,,0,,100,,,,31,,8,,0.8,,101.11,,,,-3,,Fog
-125.27,49.95,CAMPBELL RIVER A,1021267,11/27/2023 9:00,2023,11,27,9:00,0.3,,0.3,,100,,,,30,,3,,0.8,,101.14,,,,,,Fog
-125.27,49.95,CAMPBELL RIVER A,1021267,11/27/2023 10:00,2023,11,27,10:00,0.6,,0.6,,100,,,,30,,3,,1.6,,101.17,,,,,,Fog
-125.27,49.95,CAMPBELL RIVER A,1021267,11/27/2023 11:00,2023,11,27,11:00,1.7,,1.7,,100,,,,,,0,,0.8,,101.15,,,,,,Fog
-125.27,49.95,CAMPBELL RIVER A,1021267,11/27/2023 12:00,2023,11,27,12:00,2.6,,2.6,,100,,,,,,0,,1.6,,101.11,,,,,,Fog
-125.27,49.95,CAMPBELL RIVER A,1021267,11/27/2023 13:00,2023,11,27,13:00,3.2,,3.2,,100,,,,,,0,,3.2,,101.08,,,,,,Fog
-125.27,49.95,CAMPBELL RIVER A,1021267,11/27/2023 14:00,2023,11,27,14:00,3.5,,3.5,,100,,,,24,,3,,3.2,,101.03,,,,,,Fog
-125.27,49.95,CAMPBELL RIVER A,1021267,11/27/2023 15:00,2023,11,27,15:00,3.5,,3.5,,100,,,,18,,9,,6.4,,101.03,,,,,,Fog
-125.27,49.95,CAMPBELL RIVER A,1021267,11/27/2023 16:00,2023,11,27,16:00,3.5,,3.5,,100,,,,13,,7,,6.4,,101.01,,,,,,Fog
-125.27,49.95,CAMPBELL RIVER A,1021267,11/27/2023 17:00,2023,11,27,17:00,3.3,,3.3,,100,,,,13,,4,,8.1,,101.01,,,,,,Fog
-125.27,49.95,CAMPBELL RIVER A,1021267,11/27/2023 18:00,2023,11,27,18:00,3.2,,3.2,,100,,,,21,,4,,19.3,,101.03,,,,,,NA
-125.27,49.95,CAMPBELL RIVER A,1021267,11/27/2023 19:00,2023,11,27,19:00,2.9,,2.9,,100,,,,26,,3,,12.9,,101.01,,,,,,Cloudy
-125.27,49.95,CAMPBELL RIVER A,1021267,11/27/2023 20:00,2023,11,27,20:00,2.7,,2.7,,100,,,,30,,3,,16.1,,101,,,,,,NA
-125.27,49.95,CAMPBELL RIVER A,1021267,11/27/2023 21:00,2023,11,27,21:00,2.6,,2.6,,100,,,,29,,3,,19.3,,101.01,,,,,,NA
-125.27,49.95,CAMPBELL RIVER A,1021267,11/27/2023 22:00,2023,11,27,22:00,,,,,,,,,,,,,,,,,,,,,
-125.27,49.95,CAMPBELL RIVER A,1021267,11/27/2023 23:00,2023,11,27,23:00,,,,,,,,,,,,,,,,,,,,,
-125.27,49.95,CAMPBELL RIVER A,1021267,11/28/2023 0:00,2023,11,28,0:00,,,,,,,,,,,,,,,,,,,,,
-125.27,49.95,CAMPBELL RIVER A,1021267,11/28/2023 1:00,2023,11,28,1:00,,,,,,,,,,,,,,,,,,,,,
-125.27,49.95,CAMPBELL RIVER A,1021267,11/28/2023 2:00,2023,11,28,2:00,,,,,,,,,,,,,,,,,,,,,
-125.27,49.95,CAMPBELL RIVER A,1021267,11/28/2023 3:00,2023,11,28,3:00,,,,,,,,,,,,,,,,,,,,,
-125.27,49.95,CAMPBELL RIVER A,1021267,11/28/2023 4:00,2023,11,28,4:00,,,,,,,,,,,,,,,,,,,,,
-125.27,49.95,CAMPBELL RIVER A,1021267,11/28/2023 5:00,2023,11,28,5:00,,,,,,,,,,,,,,,,,,,,,
-125.27,49.95,CAMPBELL RIVER A,1021267,11/28/2023 6:00,2023,11,28,6:00,2.4,,2.4,,100,,,,31,,6,,24.1,,100.99,,,,,,NA
-125.27,49.95,CAMPBELL RIVER A,1021267,11/28/2023 7:00,2023,11,28,7:00,2.4,,2.4,,100,,,,31,,3,,24.1,,101,,,,,,Cloudy
-125.27,49.95,CAMPBELL RIVER A,1021267,11/28/2023 8:00,2023,11,28,8:00,2.4,,2.4,,100,,,,31,,3,,16.1,,101.02,,,,,,NA
-125.27,49.95,CAMPBELL RIVER A,1021267,11/28/2023 9:00,2023,11,28,9:00,2.5,,2.5,,100,,,,,,0,,24.1,,101.05,,,,,,NA
-125.27,49.95,CAMPBELL RIVER A,1021267,11/28/2023 10:00,2023,11,28,10:00,2.8,,2.8,,100,,,,30,,5,,16.1,,101.06,,,,,,Cloudy
-125.27,49.95,CAMPBELL RIVER A,1021267,11/28/2023 11:00,2023,11,28,11:00,3,,3,,100,,,,29,,4,,24.1,,101.08,,,,,,NA
-125.27,49.95,CAMPBELL RIVER A,1021267,11/28/2023 12:00,2023,11,28,12:00,3.5,,3.4,,99,,,,35,,3,,24.1,,101.02,,,,,,NA
-125.27,49.95,CAMPBELL RIVER A,1021267,11/28/2023 13:00,2023,11,28,13:00,3.9,,3.8,,100,,,,9,,3,,24.1,,100.96,,,,,,Cloudy
-125.27,49.95,CAMPBELL RIVER A,1021267,11/28/2023 14:00,2023,11,28,14:00,3.9,,3.9,,100,,,,31,,5,,19.3,,100.94,,,,,,NA
-125.27,49.95,CAMPBELL RIVER A,1021267,11/28/2023 15:00,2023,11,28,15:00,3.9,,3.9,,100,,,,33,,4,,12.9,,100.91,,,,,,NA
-125.27,49.95,CAMPBELL RIVER A,1021267,11/28/2023 16:00,2023,11,28,16:00,3.8,,3.8,,100,,,,27,,3,,24.1,,100.9,,,,,,Cloudy
-125.27,49.95,CAMPBELL RIVER A,1021267,11/28/2023 17:00,2023,11,28,17:00,3.4,,3.4,,100,,,,,,0,,24.1,,100.87,,,,,,NA
-125.27,49.95,CAMPBELL RIVER A,1021267,11/28/2023 18:00,2023,11,28,18:00,3.3,,3.3,,100,,,,27,,4,,24.1,,100.86,,,,,,NA
-125.27,49.95,CAMPBELL RIVER A,1021267,11/28/2023 19:00,2023,11,28,19:00,3.1,,2.8,,98,,,,24,,6,,24.1,,100.84,,,,,,Cloudy
-125.27,49.95,CAMPBELL RIVER A,1021267,11/28/2023 20:00,2023,11,28,20:00,2.8,,2.8,,100,,,,26,,5,,24.1,,100.83,,,,,,NA
-125.27,49.95,CAMPBELL RIVER A,1021267,11/28/2023 21:00,2023,11,28,21:00,2.5,,2.5,,100,,,,27,,4,,24.1,,100.84,,,,,,NA
-125.27,49.95,CAMPBELL RIVER A,1021267,11/28/2023 22:00,2023,11,28,22:00,,,,,,,,,,,,,,,,,,,,,
-125.27,49.95,CAMPBELL RIVER A,1021267,11/28/2023 23:00,2023,11,28,23:00,,,,,,,,,,,,,,,,,,,,,
-125.27,49.95,CAMPBELL RIVER A,1021267,11/29/2023 0:00,2023,11,29,0:00,,,,,,,,,,,,,,,,,,,,,
-125.27,49.95,CAMPBELL RIVER A,1021267,11/29/2023 1:00,2023,11,29,1:00,,,,,,,,,,,,,,,,,,,,,
-125.27,49.95,CAMPBELL RIVER A,1021267,11/29/2023 2:00,2023,11,29,2:00,,,,,,,,,,,,,,,,,,,,,
-125.27,49.95,CAMPBELL RIVER A,1021267,11/29/2023 3:00,2023,11,29,3:00,,,,,,,,,,,,,,,,,,,,,
-125.27,49.95,CAMPBELL RIVER A,1021267,11/29/2023 4:00,2023,11,29,4:00,,,,,,,,,,,,,,,,,,,,,
-125.27,49.95,CAMPBELL RIVER A,1021267,11/29/2023 5:00,2023,11,29,5:00,,,,,,,,,,,,,,,,,,,,,
-125.27,49.95,CAMPBELL RIVER A,1021267,11/29/2023 6:00,2023,11,29,6:00,2,,1.6,,97,,,,25,,7,,24.1,,100.8,,,,,,NA
-125.27,49.95,CAMPBELL RIVER A,1021267,11/29/2023 7:00,2023,11,29,7:00,2,,1.3,,95,,,,28,,3,,24.1,,100.8,,,,,,Cloudy
-125.27,49.95,CAMPBELL RIVER A,1021267,11/29/2023 8:00,2023,11,29,8:00,1.9,,1.4,,97,,,,26,,3,,24.1,,100.78,,,,,,NA
-125.27,49.95,CAMPBELL RIVER A,1021267,11/29/2023 9:00,2023,11,29,9:00,2.1,,1.6,,97,,,,,,0,,32.2,,100.79,,,,,,NA
-125.27,49.95,CAMPBELL RIVER A,1021267,11/29/2023 10:00,2023,11,29,10:00,2.6,,1.9,,95,,,,31,,7,,32.2,,100.81,,,,,,Cloudy
-125.27,49.95,CAMPBELL RIVER A,1021267,11/29/2023 11:00,2023,11,29,11:00,3.1,,2.2,,94,,,,31,,6,,32.2,,100.81,,,,,,NA
-125.27,49.95,CAMPBELL RIVER A,1021267,11/29/2023 12:00,2023,11,29,12:00,3.4,,2.1,,92,,,,32,,7,,32.2,,100.73,,,,,,NA
-125.27,49.95,CAMPBELL RIVER A,1021267,11/29/2023 13:00,2023,11,29,13:00,3.6,,1.7,,87,,,,4,,6,,32.2,,100.67,,,,,,Cloudy
-125.27,49.95,CAMPBELL RIVER A,1021267,11/29/2023 14:00,2023,11,29,14:00,3.7,,1.9,,88,,,,36,,3,,32.2,,100.64,,,,,,NA
-125.27,49.95,CAMPBELL RIVER A,1021267,11/29/2023 15:00,2023,11,29,15:00,3.6,,1.7,,87,,,,11,,5,,24.1,,100.61,,,,,,NA
-125.27,49.95,CAMPBELL RIVER A,1021267,11/29/2023 16:00,2023,11,29,16:00,3.1,,2.9,,99,,,,,,0,,32.2,,100.56,,,,,,Cloudy
-125.27,49.95,CAMPBELL RIVER A,1021267,11/29/2023 17:00,2023,11,29,17:00,3,,3,,100,,,,36,,3,,24.1,,100.52,,,,,,NA
-125.27,49.95,CAMPBELL RIVER A,1021267,11/29/2023 18:00,2023,11,29,18:00,2.7,,2.7,,100,,,,,,0,,24.1,,100.49,,,,,,NA
-125.27,49.95,CAMPBELL RIVER A,1021267,11/29/2023 19:00,2023,11,29,19:00,2.6,,2.6,,100,,,,,,0,,24.1,,100.44,,,,,,Cloudy
-125.27,49.95,CAMPBELL RIVER A,1021267,11/29/2023 20:00,2023,11,29,20:00,2.6,,2.6,,100,,,,,,0,,24.1,,100.41,,,,,,NA
-125.27,49.95,CAMPBELL RIVER A,1021267,11/29/2023 21:00,2023,11,29,21:00,2.4,,2.4,,100,,,,,,0,,24.1,,100.37,,,,,,NA
-125.27,49.95,CAMPBELL RIVER A,1021267,11/29/2023 22:00,2023,11,29,22:00,,,,,,,,,,,,,,,,,,,,,
-125.27,49.95,CAMPBELL RIVER A,1021267,11/29/2023 23:00,2023,11,29,23:00,,,,,,,,,,,,,,,,,,,,,
-125.27,49.95,CAMPBELL RIVER A,1021267,11/30/2023 0:00,2023,11,30,0:00,,,,,,,,,,,,,,,,,,,,,
-125.27,49.95,CAMPBELL RIVER A,1021267,11/30/2023 1:00,2023,11,30,1:00,,,,,,,,,,,,,,,,,,,,,
-125.27,49.95,CAMPBELL RIVER A,1021267,11/30/2023 2:00,2023,11,30,2:00,,,,,,,,,,,,,,,,,,,,,
-125.27,49.95,CAMPBELL RIVER A,1021267,11/30/2023 3:00,2023,11,30,3:00,,,,,,,,,,,,,,,,,,,,,
-125.27,49.95,CAMPBELL RIVER A,1021267,11/30/2023 4:00,2023,11,30,4:00,,,,,,,,,,,,,,,,,,,,,
-125.27,49.95,CAMPBELL RIVER A,1021267,11/30/2023 5:00,2023,11,30,5:00,,,,,,,,,,,,,,,,,,,,,
-125.27,49.95,CAMPBELL RIVER A,1021267,11/30/2023 6:00,2023,11,30,6:00,3,,3,,100,,,,13,,4,,4.8,,99.89,,,,,,"Rain,Fog"
-125.27,49.95,CAMPBELL RIVER A,1021267,11/30/2023 7:00,2023,11,30,7:00,3,,3,,100,,,,15,,6,,4.8,,99.84,,,,,,"Rain,Fog"
-125.27,49.95,CAMPBELL RIVER A,1021267,11/30/2023 8:00,2023,11,30,8:00,3.2,,3.2,,100,,,,13,,15,,4.8,,99.81,,,,,,Fog
-125.27,49.95,CAMPBELL RIVER A,1021267,11/30/2023 9:00,2023,11,30,9:00,3.6,,3.2,,98,,,,13,,20,,6.4,,99.8,,,,,,"Rain,Fog"
-125.27,49.95,CAMPBELL RIVER A,1021267,11/30/2023 10:00,2023,11,30,10:00,3.4,,3.4,,100,,,,11,,16,,6.4,,99.78,,,,,,"Rain,Fog"
-125.27,49.95,CAMPBELL RIVER A,1021267,11/30/2023 11:00,2023,11,30,11:00,3.2,,3.2,,100,,,,14,,10,,6.4,,99.75,,,,,,"Rain,Fog"
-125.27,49.95,CAMPBELL RIVER A,1021267,11/30/2023 12:00,2023,11,30,12:00,3.4,,3.4,,100,,,,12,,9,,4.8,,99.69,,,,,,"Rain,Fog"
-125.27,49.95,CAMPBELL RIVER A,1021267,11/30/2023 13:00,2023,11,30,13:00,3.3,,3.3,,100,,,,11,,11,,9.7,,99.66,,,,,,"Rain,Fog"
-125.27,49.95,CAMPBELL RIVER A,1021267,11/30/2023 14:00,2023,11,30,14:00,2.9,,2.9,,100,,,,12,,10,,9.7,,99.63,,,,,,"Rain,Fog"
-125.27,49.95,CAMPBELL RIVER A,1021267,11/30/2023 15:00,2023,11,30,15:00,2.6,,2.6,,100,,,,14,,8,,6.4,,99.6,,,,,,"Rain,Fog"
-125.27,49.95,CAMPBELL RIVER A,1021267,11/30/2023 16:00,2023,11,30,16:00,2.2,,2.2,,100,,,,14,,5,,4.8,,99.55,,,,,,"Rain,Fog"
-125.27,49.95,CAMPBELL RIVER A,1021267,11/30/2023 17:00,2023,11,30,17:00,1.8,,1.8,,100,,,,15,,4,,8.1,,99.52,,,,,,"Rain,Fog"
-125.27,49.95,CAMPBELL RIVER A,1021267,11/30/2023 18:00,2023,11,30,18:00,1.8,,1.8,,100,,,,1,,3,,8.1,,99.53,,,,,,"Rain,Fog"
-125.27,49.95,CAMPBELL RIVER A,1021267,11/30/2023 19:00,2023,11,30,19:00,1.7,,1.7,,100,,,,,,0,,9.7,,99.48,,,,,,"Rain,Fog"
-125.27,49.95,CAMPBELL RIVER A,1021267,11/30/2023 20:00,2023,11,30,20:00,1.8,,1.8,,100,,,,8,,6,,8.1,,99.43,,,,,,"Rain,Fog"
-125.27,49.95,CAMPBELL RIVER A,1021267,11/30/2023 21:00,2023,11,30,21:00,2,,2,,100,,,,13,,3,,4.8,,99.37,,,,,,"Rain,Fog"
-125.27,49.95,CAMPBELL RIVER A,1021267,11/30/2023 22:00,2023,11,30,22:00,,,,,,,,,,,,,,,,,,,,,
-125.27,49.95,CAMPBELL RIVER A,1021267,11/30/2023 23:00,2023,11,30,23:00,,,,,,,,,,,,,,,,,,,,,
