Longitude (x),Latitude (y),Station Name,Climate ID,Date/Time (LST),Year,Month,Day,Time (LST),Temp (°C),Temp Flag,Dew Point Temp (°C),Dew Point Temp Flag,Rel Hum (%),Rel Hum Flag,Precip. Amount (mm),Precip. Amount Flag,Wind Dir (10s deg),Wind Dir Flag,Wind Spd (km/h),Wind Spd Flag,Visibility (km),Visibility Flag,Stn Press (kPa),Stn Press Flag,Hmdx,Hmdx Flag,Wind Chill,Wind Chill Flag,Weather
-125.27,49.95,CAMPBELL RIVER A,1021267,10/1/2022 0:00,2022,10.00,1,0:00,,,,,,,,,,,,,,,,,,,,,
-125.27,49.95,CAMPBELL RIVER A,1021267,10/1/2022 1:00,2022,10.00,1,1:00,,,,,,,,,,,,,,,,,,,,,
-125.27,49.95,CAMPBELL RIVER A,1021267,10/1/2022 2:00,2022,10.00,1,2:00,,,,,,,,,,,,,,,,,,,,,
-125.27,49.95,CAMPBELL RIVER A,1021267,10/1/2022 3:00,2022,10.00,1,3:00,,,,,,,,,,,,,,,,,,,,,
-125.27,49.95,CAMPBELL RIVER A,1021267,10/1/2022 4:00,2022,10.00,1,4:00,,,,,,,,,,,,,,,,,,,,,
-125.27,49.95,CAMPBELL RIVER A,1021267,10/1/2022 5:00,2022,10.00,1,5:00,5.9,,5.9,,100,,,,,,0,,24.1,,100.69,,,,,,NA
-125.27,49.95,CAMPBELL RIVER A,1021267,10/1/2022 6:00,2022,10.00,1,6:00,5.8,,5.8,,100,,,,31,,4,,48.3,,100.7,,,,,,NA
-125.27,49.95,CAMPBELL RIVER A,1021267,10/1/2022 7:00,2022,10.00,1,7:00,6,,6,,100,,,,31,,4,,48.3,,100.68,,,,,,Mainly Clear
-125.27,49.95,CAMPBELL RIVER A,1021267,10/1/2022 8:00,2022,10.00,1,8:00,10.1,,9.9,,99,,,,31,,3,,48.3,,100.68,,,,,,NA
-125.27,49.95,CAMPBELL RIVER A,1021267,10/1/2022 9:00,2022,10.00,1,9:00,16,,10.6,,70,,,,34,,5,,48.3,,100.65,,,,,,NA
-125.27,49.95,CAMPBELL RIVER A,1021267,10/1/2022 10:00,2022,10.00,1,10:00,19.2,,9.6,,53,,,,36,,3,,48.3,,100.62,,,,,,Mainly Clear
-125.27,49.95,CAMPBELL RIVER A,1021267,10/1/2022 11:00,2022,10.00,1,11:00,20.4,,10.9,,54,,,,9,,4,,40.2,,100.57,,,,,,NA
-125.27,49.95,CAMPBELL RIVER A,1021267,10/1/2022 12:00,2022,10.00,1,12:00,22.2,,11.1,,49,,,,10,,7,,48.3,,100.51,,,,,,NA
-125.27,49.95,CAMPBELL RIVER A,1021267,10/1/2022 13:00,2022,10.00,1,13:00,23.2,,10.6,,44,,,,7,,8,,48.3,,100.45,,25,,,,Clear
-125.27,49.95,CAMPBELL RIVER A,1021267,10/1/2022 14:00,2022,10.00,1,14:00,24.3,,10.4,,41,,,,15,,4,,48.3,,100.37,,26,,,,NA
-125.27,49.95,CAMPBELL RIVER A,1021267,10/1/2022 15:00,2022,10.00,1,15:00,25.2,,10.4,,39,,,,12,,5,,48.3,,100.32,,27,,,,NA
-125.27,49.95,CAMPBELL RIVER A,1021267,10/1/2022 16:00,2022,10.00,1,16:00,26.1,,10.5,,37,,,,16,,4,,48.3,,100.27,,28,,,,Mainly Clear
-125.27,49.95,CAMPBELL RIVER A,1021267,10/1/2022 17:00,2022,10.00,1,17:00,24.1,,11.2,,44,,,,8,,4,,48.3,,100.23,,26,,,,NA
-125.27,49.95,CAMPBELL RIVER A,1021267,10/1/2022 18:00,2022,10.00,1,18:00,16.6,,13.1,,80,,,,,,0,,48.3,,100.21,,,,,,NA
-125.27,49.95,CAMPBELL RIVER A,1021267,10/1/2022 19:00,2022,10.00,1,19:00,13.9,,12.8,,93,,,,,,0,,24.1,,100.22,,,,,,Clear
-125.27,49.95,CAMPBELL RIVER A,1021267,10/1/2022 20:00,2022,10.00,1,20:00,11.6,,10.8,,95,,,,28,,5,,24.1,,100.24,,,,,,NA
-125.27,49.95,CAMPBELL RIVER A,1021267,10/1/2022 21:00,2022,10.00,1,21:00,,,,,,,,,,,,,,,,,,,,,
-125.27,49.95,CAMPBELL RIVER A,1021267,10/1/2022 22:00,2022,10.00,1,22:00,,,,,,,,,,,,,,,,,,,,,
-125.27,49.95,CAMPBELL RIVER A,1021267,10/1/2022 23:00,2022,10.00,1,23:00,,,,,,,,,,,,,,,,,,,,,
-125.27,49.95,CAMPBELL RIVER A,1021267,10/2/2022 0:00,2022,10.00,2,0:00,,,,,,,,,,,,,,,,,,,,,
-125.27,49.95,CAMPBELL RIVER A,1021267,10/2/2022 1:00,2022,10.00,2,1:00,,,,,,,,,,,,,,,,,,,,,
-125.27,49.95,CAMPBELL RIVER A,1021267,10/2/2022 2:00,2022,10.00,2,2:00,,,,,,,,,,,,,,,,,,,,,
-125.27,49.95,CAMPBELL RIVER A,1021267,10/2/2022 3:00,2022,10.00,2,3:00,,,,,,,,,,,,,,,,,,,,,
-125.27,49.95,CAMPBELL RIVER A,1021267,10/2/2022 4:00,2022,10.00,2,4:00,,,,,,,,,,,,,,,,,,,,,
-125.27,49.95,CAMPBELL RIVER A,1021267,10/2/2022 5:00,2022,10.00,2,5:00,10.3,,9.1,,92,,,,32,,13,,24.1,,100.27,,,,,,NA
-125.27,49.95,CAMPBELL RIVER A,1021267,10/2/2022 6:00,2022,10.00,2,6:00,10.2,,9.6,,96,,,,27,,5,,48.3,,100.29,,,,,,NA
-125.27,49.95,CAMPBELL RIVER A,1021267,10/2/2022 7:00,2022,10.00,2,7:00,9.4,,9,,98,,,,27,,3,,48.3,,100.34,,,,,,Clear
-125.27,49.95,CAMPBELL RIVER A,1021267,10/2/2022 8:00,2022,10.00,2,8:00,14.5,,10.9,,79,,,,30,,5,,48.3,,100.39,,,,,,NA
-125.27,49.95,CAMPBELL RIVER A,1021267,10/2/2022 9:00,2022,10.00,2,9:00,17.3,,10.2,,63,,,,35,,8,,48.3,,100.41,,,,,,NA
-125.27,49.95,CAMPBELL RIVER A,1021267,10/2/2022 10:00,2022,10.00,2,10:00,19.8,,10.2,,54,,,,34,,10,,48.3,,100.39,,,,,,Clear
-125.27,49.95,CAMPBELL RIVER A,1021267,10/2/2022 11:00,2022,10.00,2,11:00,20.9,,11.6,,55,,,,7,,5,,48.3,,100.37,,,,,,NA
-125.27,49.95,CAMPBELL RIVER A,1021267,10/2/2022 12:00,2022,10.00,2,12:00,22.2,,11.8,,51,,,,7,,9,,48.3,,100.34,,,,,,NA
-125.27,49.95,CAMPBELL RIVER A,1021267,10/2/2022 13:00,2022,10.00,2,13:00,23.2,,11.3,,47,,,,9,,8,,48.3,,100.32,,25,,,,Clear
-125.27,49.95,CAMPBELL RIVER A,1021267,10/2/2022 14:00,2022,10.00,2,14:00,24.2,,11.2,,44,,,,10,,9,,48.3,,100.28,,26,,,,NA
-125.27,49.95,CAMPBELL RIVER A,1021267,10/2/2022 15:00,2022,10.00,2,15:00,25.2,,11,,40,,,,9,,5,,48.3,,100.25,,27,,,,NA
-125.27,49.95,CAMPBELL RIVER A,1021267,10/2/2022 16:00,2022,10.00,2,16:00,25,,11,,41,,,,7,,8,,48.3,,100.24,,27,,,,Mainly Clear
-125.27,49.95,CAMPBELL RIVER A,1021267,10/2/2022 17:00,2022,10.00,2,17:00,22.6,,11.8,,50,,,,11,,3,,48.3,,100.23,,25,,,,NA
-125.27,49.95,CAMPBELL RIVER A,1021267,10/2/2022 18:00,2022,10.00,2,18:00,17.2,,13.8,,80,,,,,,0,,48.3,,100.25,,,,,,NA
-125.27,49.95,CAMPBELL RIVER A,1021267,10/2/2022 19:00,2022,10.00,2,19:00,15.1,,13.4,,90,,,,32,,5,,24.1,,100.27,,,,,,Mainly Clear
-125.27,49.95,CAMPBELL RIVER A,1021267,10/2/2022 20:00,2022,10.00,2,20:00,12.3,,10.9,,91,,,,31,,8,,24.1,,100.32,,,,,,NA
-125.27,49.95,CAMPBELL RIVER A,1021267,10/2/2022 21:00,2022,10.00,2,21:00,,,,,,,,,,,,,,,,,,,,,
-125.27,49.95,CAMPBELL RIVER A,1021267,10/2/2022 22:00,2022,10.00,2,22:00,,,,,,,,,,,,,,,,,,,,,
-125.27,49.95,CAMPBELL RIVER A,1021267,10/2/2022 23:00,2022,10.00,2,23:00,,,,,,,,,,,,,,,,,,,,,
-125.27,49.95,CAMPBELL RIVER A,1021267,10/3/2022 0:00,2022,10.00,3,0:00,,,,,,,,,,,,,,,,,,,,,
-125.27,49.95,CAMPBELL RIVER A,1021267,10/3/2022 1:00,2022,10.00,3,1:00,,,,,,,,,,,,,,,,,,,,,
-125.27,49.95,CAMPBELL RIVER A,1021267,10/3/2022 2:00,2022,10.00,3,2:00,,,,,,,,,,,,,,,,,,,,,
-125.27,49.95,CAMPBELL RIVER A,1021267,10/3/2022 3:00,2022,10.00,3,3:00,,,,,,,,,,,,,,,,,,,,,
-125.27,49.95,CAMPBELL RIVER A,1021267,10/3/2022 4:00,2022,10.00,3,4:00,,,,,,,,,,,,,,,,,,,,,
-125.27,49.95,CAMPBELL RIVER A,1021267,10/3/2022 5:00,2022,10.00,3,5:00,8,,8,,100,,,,,,0,,24.1,,100.53,,,,,,NA
-125.27,49.95,CAMPBELL RIVER A,1021267,10/3/2022 6:00,2022,10.00,3,6:00,7.3,,7.3,,100,,,,30,,4,,48.3,,100.56,,,,,,NA
-125.27,49.95,CAMPBELL RIVER A,1021267,10/3/2022 7:00,2022,10.00,3,7:00,7.9,,7.9,,100,,,,30,,3,,48.3,,100.61,,,,,,Mainly Clear
-125.27,49.95,CAMPBELL RIVER A,1021267,10/3/2022 8:00,2022,10.00,3,8:00,11.9,,11,,94,,,,36,,3,,48.3,,100.63,,,,,,NA
-125.27,49.95,CAMPBELL RIVER A,1021267,10/3/2022 9:00,2022,10.00,3,9:00,17.1,,10.6,,65,,,,,,0,,48.3,,100.65,,,,,,NA
-125.27,49.95,CAMPBELL RIVER A,1021267,10/3/2022 10:00,2022,10.00,3,10:00,19.6,,12.1,,62,,,,10,,4,,48.3,,100.64,,,,,,Clear
-125.27,49.95,CAMPBELL RIVER A,1021267,10/3/2022 11:00,2022,10.00,3,11:00,20.2,,11.7,,58,,,,10,,8,,48.3,,100.62,,,,,,NA
-125.27,49.95,CAMPBELL RIVER A,1021267,10/3/2022 12:00,2022,10.00,3,12:00,21.6,,11.6,,53,,,,9,,7,,48.3,,100.59,,,,,,NA
-125.27,49.95,CAMPBELL RIVER A,1021267,10/3/2022 13:00,2022,10.00,3,13:00,22.3,,11,,48,,,,7,,7,,48.3,,100.53,,,,,,Mainly Clear
-125.27,49.95,CAMPBELL RIVER A,1021267,10/3/2022 14:00,2022,10.00,3,14:00,22.7,,11.3,,48,,,,7,,8,,48.3,,100.49,,25,,,,NA
-125.27,49.95,CAMPBELL RIVER A,1021267,10/3/2022 15:00,2022,10.00,3,15:00,23.3,,11,,45,,,,9,,8,,48.3,,100.45,,25,,,,NA
-125.27,49.95,CAMPBELL RIVER A,1021267,10/3/2022 16:00,2022,10.00,3,16:00,22.7,,9.9,,44,,,,6,,7,,48.3,,100.43,,,,,,Mainly Clear
-125.27,49.95,CAMPBELL RIVER A,1021267,10/3/2022 17:00,2022,10.00,3,17:00,19.8,,12.1,,61,,,,36,,3,,48.3,,100.39,,,,,,NA
-125.27,49.95,CAMPBELL RIVER A,1021267,10/3/2022 18:00,2022,10.00,3,18:00,15.2,,12.2,,82,,,,,,0,,48.3,,100.38,,,,,,NA
-125.27,49.95,CAMPBELL RIVER A,1021267,10/3/2022 19:00,2022,10.00,3,19:00,13.3,,12.2,,93,,,,29,,3,,24.1,,100.39,,,,,,Mainly Clear
-125.27,49.95,CAMPBELL RIVER A,1021267,10/3/2022 20:00,2022,10.00,3,20:00,12.2,,12.1,,99,,,,,,0,,48.3,,100.4,,,,,,NA
-125.27,49.95,CAMPBELL RIVER A,1021267,10/3/2022 21:00,2022,10.00,3,21:00,,,,,,,,,,,,,,,,,,,,,
-125.27,49.95,CAMPBELL RIVER A,1021267,10/3/2022 22:00,2022,10.00,3,22:00,,,,,,,,,,,,,,,,,,,,,
-125.27,49.95,CAMPBELL RIVER A,1021267,10/3/2022 23:00,2022,10.00,3,23:00,,,,,,,,,,,,,,,,,,,,,
-125.27,49.95,CAMPBELL RIVER A,1021267,10/4/2022 0:00,2022,10.00,4,0:00,,,,,,,,,,,,,,,,,,,,,
-125.27,49.95,CAMPBELL RIVER A,1021267,10/4/2022 1:00,2022,10.00,4,1:00,,,,,,,,,,,,,,,,,,,,,
-125.27,49.95,CAMPBELL RIVER A,1021267,10/4/2022 2:00,2022,10.00,4,2:00,,,,,,,,,,,,,,,,,,,,,
-125.27,49.95,CAMPBELL RIVER A,1021267,10/4/2022 3:00,2022,10.00,4,3:00,,,,,,,,,,,,,,,,,,,,,
-125.27,49.95,CAMPBELL RIVER A,1021267,10/4/2022 4:00,2022,10.00,4,4:00,,,,,,,,,,,,,,,,,,,,,
-125.27,49.95,CAMPBELL RIVER A,1021267,10/4/2022 5:00,2022,10.00,4,5:00,7.7,,7.7,,100,,,,27,,3,,24.1,,100.34,,,,,,NA
-125.27,49.95,CAMPBELL RIVER A,1021267,10/4/2022 6:00,2022,10.00,4,6:00,6.4,,6.4,,100,,,,29,,4,,40.2,,100.36,,,,,,NA
-125.27,49.95,CAMPBELL RIVER A,1021267,10/4/2022 7:00,2022,10.00,4,7:00,6.2,,6.2,,100,,,,29,,4,,48.3,,100.39,,,,,,Mostly Cloudy
-125.27,49.95,CAMPBELL RIVER A,1021267,10/4/2022 8:00,2022,10.00,4,8:00,10.3,,10.3,,100,,,,30,,4,,40.2,,100.38,,,,,,NA
-125.27,49.95,CAMPBELL RIVER A,1021267,10/4/2022 9:00,2022,10.00,4,9:00,14.3,,13,,92,,,,9,,3,,40.2,,100.4,,,,,,NA
-125.27,49.95,CAMPBELL RIVER A,1021267,10/4/2022 10:00,2022,10.00,4,10:00,15.3,,13.5,,89,,,,12,,5,,40.2,,100.39,,,,,,Mostly Cloudy
-125.27,49.95,CAMPBELL RIVER A,1021267,10/4/2022 11:00,2022,10.00,4,11:00,17.1,,13.3,,78,,,,12,,13,,40.2,,100.36,,,,,,NA
-125.27,49.95,CAMPBELL RIVER A,1021267,10/4/2022 12:00,2022,10.00,4,12:00,17.9,,13.2,,74,,,,11,,12,,40.2,,100.35,,,,,,NA
-125.27,49.95,CAMPBELL RIVER A,1021267,10/4/2022 13:00,2022,10.00,4,13:00,18,,13.4,,74,,,,10,,11,,48.3,,100.34,,,,,,Mostly Cloudy
-125.27,49.95,CAMPBELL RIVER A,1021267,10/4/2022 14:00,2022,10.00,4,14:00,18.3,,12.3,,68,,,,9,,16,,40.2,,100.29,,,,,,NA
-125.27,49.95,CAMPBELL RIVER A,1021267,10/4/2022 15:00,2022,10.00,4,15:00,18.9,,12.2,,65,,,,9,,15,,40.2,,100.27,,,,,,NA
-125.27,49.95,CAMPBELL RIVER A,1021267,10/4/2022 16:00,2022,10.00,4,16:00,17.4,,12.3,,72,,,,8,,8,,32.2,,100.26,,,,,,Mostly Cloudy
-125.27,49.95,CAMPBELL RIVER A,1021267,10/4/2022 17:00,2022,10.00,4,17:00,17.5,,12.6,,73,,,,8,,4,,32.2,,100.24,,,,,,NA
-125.27,49.95,CAMPBELL RIVER A,1021267,10/4/2022 18:00,2022,10.00,4,18:00,14.7,,12.7,,87,,,,35,,5,,32.2,,100.26,,,,,,NA
-125.27,49.95,CAMPBELL RIVER A,1021267,10/4/2022 19:00,2022,10.00,4,19:00,12.2,,11.9,,98,,,,29,,4,,24.1,,100.29,,,,,,Mostly Cloudy
-125.27,49.95,CAMPBELL RIVER A,1021267,10/4/2022 20:00,2022,10.00,4,20:00,11.9,,11.6,,98,,,,31,,4,,24.1,,100.33,,,,,,NA
-125.27,49.95,CAMPBELL RIVER A,1021267,10/4/2022 21:00,2022,10.00,4,21:00,,,,,,,,,,,,,,,,,,,,,
-125.27,49.95,CAMPBELL RIVER A,1021267,10/4/2022 22:00,2022,10.00,4,22:00,,,,,,,,,,,,,,,,,,,,,
-125.27,49.95,CAMPBELL RIVER A,1021267,10/4/2022 23:00,2022,10.00,4,23:00,,,,,,,,,,,,,,,,,,,,,
-125.27,49.95,CAMPBELL RIVER A,1021267,10/5/2022 0:00,2022,10.00,5,0:00,,,,,,,,,,,,,,,,,,,,,
-125.27,49.95,CAMPBELL RIVER A,1021267,10/5/2022 1:00,2022,10.00,5,1:00,,,,,,,,,,,,,,,,,,,,,
-125.27,49.95,CAMPBELL RIVER A,1021267,10/5/2022 2:00,2022,10.00,5,2:00,,,,,,,,,,,,,,,,,,,,,
-125.27,49.95,CAMPBELL RIVER A,1021267,10/5/2022 3:00,2022,10.00,5,3:00,,,,,,,,,,,,,,,,,,,,,
-125.27,49.95,CAMPBELL RIVER A,1021267,10/5/2022 4:00,2022,10.00,5,4:00,,,,,,,,,,,,,,,,,,,,,
-125.27,49.95,CAMPBELL RIVER A,1021267,10/5/2022 5:00,2022,10.00,5,5:00,12.3,,12.3,,100,,,,27,,4,,8.1,,100.83,,,,,,Fog
-125.27,49.95,CAMPBELL RIVER A,1021267,10/5/2022 6:00,2022,10.00,5,6:00,13,,13,,100,,,,27,,3,,8.1,,100.87,,,,,,Fog
-125.27,49.95,CAMPBELL RIVER A,1021267,10/5/2022 7:00,2022,10.00,5,7:00,13.3,,13.3,,100,,,,28,,5,,8.1,,100.93,,,,,,Fog
-125.27,49.95,CAMPBELL RIVER A,1021267,10/5/2022 8:00,2022,10.00,5,8:00,14.4,,13.8,,96,,,,30,,9,,8.1,,101,,,,,,Fog
-125.27,49.95,CAMPBELL RIVER A,1021267,10/5/2022 9:00,2022,10.00,5,9:00,15,,13.4,,90,,,,36,,7,,12.9,,101.07,,,,,,NA
-125.27,49.95,CAMPBELL RIVER A,1021267,10/5/2022 10:00,2022,10.00,5,10:00,16.1,,13.4,,84,,,,35,,7,,16.1,,101.11,,,,,,Mostly Cloudy
-125.27,49.95,CAMPBELL RIVER A,1021267,10/5/2022 11:00,2022,10.00,5,11:00,17.5,,13.4,,77,,,,23,,3,,19.3,,101.11,,,,,,NA
-125.27,49.95,CAMPBELL RIVER A,1021267,10/5/2022 12:00,2022,10.00,5,12:00,19,,12.3,,65,,,,13,,10,,32.2,,101.07,,,,,,NA
-125.27,49.95,CAMPBELL RIVER A,1021267,10/5/2022 13:00,2022,10.00,5,13:00,19.4,,12.4,,64,,,,6,,8,,48.3,,101.04,,,,,,Mostly Cloudy
-125.27,49.95,CAMPBELL RIVER A,1021267,10/5/2022 14:00,2022,10.00,5,14:00,20.2,,12.3,,60,,,,12,,10,,48.3,,101.02,,,,,,NA
-125.27,49.95,CAMPBELL RIVER A,1021267,10/5/2022 15:00,2022,10.00,5,15:00,20.9,,11.5,,54,,,,1,,3,,48.3,,100.96,,,,,,NA
-125.27,49.95,CAMPBELL RIVER A,1021267,10/5/2022 16:00,2022,10.00,5,16:00,22.3,,12,,51,,,,,,0,,48.3,,100.91,,25,,,,Mainly Clear
-125.27,49.95,CAMPBELL RIVER A,1021267,10/5/2022 17:00,2022,10.00,5,17:00,19.2,,13,,67,,,,13,,4,,48.3,,100.89,,,,,,NA
-125.27,49.95,CAMPBELL RIVER A,1021267,10/5/2022 18:00,2022,10.00,5,18:00,15.5,,14.1,,92,,,,30,,4,,48.3,,100.88,,,,,,NA
-125.27,49.95,CAMPBELL RIVER A,1021267,10/5/2022 19:00,2022,10.00,5,19:00,14.1,,13.6,,96,,,,30,,6,,48.3,,100.9,,,,,,Mainly Clear
-125.27,49.95,CAMPBELL RIVER A,1021267,10/5/2022 20:00,2022,10.00,5,20:00,12.3,,12.3,,100,,,,30,,5,,24.1,,100.92,,,,,,NA
-125.27,49.95,CAMPBELL RIVER A,1021267,10/5/2022 21:00,2022,10.00,5,21:00,,,,,,,,,,,,,,,,,,,,,
-125.27,49.95,CAMPBELL RIVER A,1021267,10/5/2022 22:00,2022,10.00,5,22:00,,,,,,,,,,,,,,,,,,,,,
-125.27,49.95,CAMPBELL RIVER A,1021267,10/5/2022 23:00,2022,10.00,5,23:00,,,,,,,,,,,,,,,,,,,,,
-125.27,49.95,CAMPBELL RIVER A,1021267,10/6/2022 0:00,2022,10.00,6,0:00,,,,,,,,,,,,,,,,,,,,,
-125.27,49.95,CAMPBELL RIVER A,1021267,10/6/2022 1:00,2022,10.00,6,1:00,,,,,,,,,,,,,,,,,,,,,
-125.27,49.95,CAMPBELL RIVER A,1021267,10/6/2022 2:00,2022,10.00,6,2:00,,,,,,,,,,,,,,,,,,,,,
-125.27,49.95,CAMPBELL RIVER A,1021267,10/6/2022 3:00,2022,10.00,6,3:00,,,,,,,,,,,,,,,,,,,,,
-125.27,49.95,CAMPBELL RIVER A,1021267,10/6/2022 4:00,2022,10.00,6,4:00,,,,,,,,,,,,,,,,,,,,,
-125.27,49.95,CAMPBELL RIVER A,1021267,10/6/2022 5:00,2022,10.00,6,5:00,12.1,,11.5,,96,,,,30,,12,,24.1,,100.97,,,,,,NA
-125.27,49.95,CAMPBELL RIVER A,1021267,10/6/2022 6:00,2022,10.00,6,6:00,8.3,,8.3,,100,,,,27,,5,,48.3,,100.97,,,,,,NA
-125.27,49.95,CAMPBELL RIVER A,1021267,10/6/2022 7:00,2022,10.00,6,7:00,8.2,,8.2,,100,,,,29,,7,,48.3,,100.98,,,,,,Mainly Clear
-125.27,49.95,CAMPBELL RIVER A,1021267,10/6/2022 8:00,2022,10.00,6,8:00,11.9,,11.4,,97,,,,36,,3,,48.3,,101.01,,,,,,NA
-125.27,49.95,CAMPBELL RIVER A,1021267,10/6/2022 9:00,2022,10.00,6,9:00,17.6,,12.4,,72,,,,34,,7,,32.2,,101,,,,,,NA
-125.27,49.95,CAMPBELL RIVER A,1021267,10/6/2022 10:00,2022,10.00,6,10:00,20.3,,11.8,,57,,,,31,,9,,40.2,,100.97,,,,,,Mainly Clear
-125.27,49.95,CAMPBELL RIVER A,1021267,10/6/2022 11:00,2022,10.00,6,11:00,22.1,,13.3,,57,,,,9,,7,,48.3,,100.93,,25,,,,NA
-125.27,49.95,CAMPBELL RIVER A,1021267,10/6/2022 12:00,2022,10.00,6,12:00,22.6,,13.3,,55,,,,10,,9,,48.3,,100.9,,26,,,,NA
-125.27,49.95,CAMPBELL RIVER A,1021267,10/6/2022 13:00,2022,10.00,6,13:00,23.7,,12.4,,49,,,,7,,5,,48.3,,100.85,,26,,,,Mostly Cloudy
-125.27,49.95,CAMPBELL RIVER A,1021267,10/6/2022 14:00,2022,10.00,6,14:00,24.4,,11.5,,44,,,,9,,7,,48.3,,100.81,,26,,,,NA
-125.27,49.95,CAMPBELL RIVER A,1021267,10/6/2022 15:00,2022,10.00,6,15:00,25.2,,11.4,,41,,,,8,,7,,48.3,,100.76,,27,,,,NA
-125.27,49.95,CAMPBELL RIVER A,1021267,10/6/2022 16:00,2022,10.00,6,16:00,24.9,,11.2,,42,,,,7,,7,,48.3,,100.73,,27,,,,Mostly Cloudy
-125.27,49.95,CAMPBELL RIVER A,1021267,10/6/2022 17:00,2022,10.00,6,17:00,19.6,,12.9,,65,,,,,,0,,48.3,,100.7,,,,,,NA
-125.27,49.95,CAMPBELL RIVER A,1021267,10/6/2022 18:00,2022,10.00,6,18:00,16.9,,13.7,,81,,,,32,,4,,48.3,,100.7,,,,,,NA
-125.27,49.95,CAMPBELL RIVER A,1021267,10/6/2022 19:00,2022,10.00,6,19:00,15.1,,12.8,,86,,,,36,,3,,24.1,,100.73,,,,,,Mostly Cloudy
-125.27,49.95,CAMPBELL RIVER A,1021267,10/6/2022 20:00,2022,10.00,6,20:00,13.4,,12.7,,95,,,,30,,4,,24.1,,100.75,,,,,,NA
-125.27,49.95,CAMPBELL RIVER A,1021267,10/6/2022 21:00,2022,10.00,6,21:00,,,,,,,,,,,,,,,,,,,,,
-125.27,49.95,CAMPBELL RIVER A,1021267,10/6/2022 22:00,2022,10.00,6,22:00,,,,,,,,,,,,,,,,,,,,,
-125.27,49.95,CAMPBELL RIVER A,1021267,10/6/2022 23:00,2022,10.00,6,23:00,,,,,,,,,,,,,,,,,,,,,
-125.27,49.95,CAMPBELL RIVER A,1021267,10/7/2022 0:00,2022,10.00,7,0:00,,,,,,,,,,,,,,,,,,,,,
-125.27,49.95,CAMPBELL RIVER A,1021267,10/7/2022 1:00,2022,10.00,7,1:00,,,,,,,,,,,,,,,,,,,,,
-125.27,49.95,CAMPBELL RIVER A,1021267,10/7/2022 2:00,2022,10.00,7,2:00,,,,,,,,,,,,,,,,,,,,,
-125.27,49.95,CAMPBELL RIVER A,1021267,10/7/2022 3:00,2022,10.00,7,3:00,,,,,,,,,,,,,,,,,,,,,
-125.27,49.95,CAMPBELL RIVER A,1021267,10/7/2022 4:00,2022,10.00,7,4:00,,,,,,,,,,,,,,,,,,,,,
-125.27,49.95,CAMPBELL RIVER A,1021267,10/7/2022 5:00,2022,10.00,7,5:00,8.7,,8.7,,100,,,,31,,4,,16.1,,100.96,,,,,,NA
-125.27,49.95,CAMPBELL RIVER A,1021267,10/7/2022 6:00,2022,10.00,7,6:00,7.9,,7.9,,100,,,,24,,3,,19.3,,100.99,,,,,,NA
-125.27,49.95,CAMPBELL RIVER A,1021267,10/7/2022 7:00,2022,10.00,7,7:00,7.9,,7.9,,100,,,,36,,3,,48.3,,101.04,,,,,,Mostly Cloudy
-125.27,49.95,CAMPBELL RIVER A,1021267,10/7/2022 8:00,2022,10.00,7,8:00,11.1,,10.9,,99,,,,31,,5,,40.2,,101.06,,,,,,NA
-125.27,49.95,CAMPBELL RIVER A,1021267,10/7/2022 9:00,2022,10.00,7,9:00,17.8,,11.6,,67,,,,30,,7,,40.2,,101.09,,,,,,NA
-125.27,49.95,CAMPBELL RIVER A,1021267,10/7/2022 10:00,2022,10.00,7,10:00,21.4,,10,,48,,,,34,,5,,32.2,,101.08,,,,,,Mainly Clear
-125.27,49.95,CAMPBELL RIVER A,1021267,10/7/2022 11:00,2022,10.00,7,11:00,22.7,,12.4,,52,,,,7,,8,,48.3,,101.08,,25,,,,NA
-125.27,49.95,CAMPBELL RIVER A,1021267,10/7/2022 12:00,2022,10.00,7,12:00,23.2,,11.2,,46,,,,10,,10,,48.3,,101.04,,25,,,,NA
-125.27,49.95,CAMPBELL RIVER A,1021267,10/7/2022 13:00,2022,10.00,7,13:00,24.2,,10,,40,,,,6,,9,,40.2,,100.98,,25,,,,Clear
-125.27,49.95,CAMPBELL RIVER A,1021267,10/7/2022 14:00,2022,10.00,7,14:00,25,,10,,38,,,,6,,11,,40.2,,100.93,,26,,,,NA
-125.27,49.95,CAMPBELL RIVER A,1021267,10/7/2022 15:00,2022,10.00,7,15:00,25.4,,10.2,,38,,,,6,,9,,48.3,,100.9,,27,,,,NA
-125.27,49.95,CAMPBELL RIVER A,1021267,10/7/2022 16:00,2022,10.00,7,16:00,25.1,,10.2,,39,,,,7,,5,,48.3,,100.89,,26,,,,Clear
-125.27,49.95,CAMPBELL RIVER A,1021267,10/7/2022 17:00,2022,10.00,7,17:00,19,,12.4,,66,,,,,,0,,48.3,,100.86,,,,,,NA
-125.27,49.95,CAMPBELL RIVER A,1021267,10/7/2022 18:00,2022,10.00,7,18:00,16.8,,13.2,,79,,,,31,,6,,48.3,,100.88,,,,,,NA
-125.27,49.95,CAMPBELL RIVER A,1021267,10/7/2022 19:00,2022,10.00,7,19:00,14.1,,13,,93,,,,36,,3,,24.1,,100.92,,,,,,Mainly Clear
-125.27,49.95,CAMPBELL RIVER A,1021267,10/7/2022 20:00,2022,10.00,7,20:00,12.5,,11.9,,96,,,,28,,4,,24.1,,100.95,,,,,,NA
-125.27,49.95,CAMPBELL RIVER A,1021267,10/7/2022 21:00,2022,10.00,7,21:00,,,,,,,,,,,,,,,,,,,,,
-125.27,49.95,CAMPBELL RIVER A,1021267,10/7/2022 22:00,2022,10.00,7,22:00,,,,,,,,,,,,,,,,,,,,,
-125.27,49.95,CAMPBELL RIVER A,1021267,10/7/2022 23:00,2022,10.00,7,23:00,,,,,,,,,,,,,,,,,,,,,
-125.27,49.95,CAMPBELL RIVER A,1021267,10/8/2022 0:00,2022,10.00,8,0:00,,,,,,,,,,,,,,,,,,,,,
-125.27,49.95,CAMPBELL RIVER A,1021267,10/8/2022 1:00,2022,10.00,8,1:00,,,,,,,,,,,,,,,,,,,,,
-125.27,49.95,CAMPBELL RIVER A,1021267,10/8/2022 2:00,2022,10.00,8,2:00,,,,,,,,,,,,,,,,,,,,,
-125.27,49.95,CAMPBELL RIVER A,1021267,10/8/2022 3:00,2022,10.00,8,3:00,,,,,,,,,,,,,,,,,,,,,
-125.27,49.95,CAMPBELL RIVER A,1021267,10/8/2022 4:00,2022,10.00,8,4:00,,,,,,,,,,,,,,,,,,,,,
-125.27,49.95,CAMPBELL RIVER A,1021267,10/8/2022 5:00,2022,10.00,8,5:00,11.6,,9.7,,89,,,,32,,14,,24.1,,101.06,,,,,,NA
-125.27,49.95,CAMPBELL RIVER A,1021267,10/8/2022 6:00,2022,10.00,8,6:00,10.8,,10.1,,95,,,,30,,10,,24.1,,101.05,,,,,,NA
-125.27,49.95,CAMPBELL RIVER A,1021267,10/8/2022 7:00,2022,10.00,8,7:00,11,,9.6,,91,,,,32,,11,,48.3,,101.07,,,,,,Clear
-125.27,49.95,CAMPBELL RIVER A,1021267,10/8/2022 8:00,2022,10.00,8,8:00,13.7,,10.8,,83,,,,31,,9,,48.3,,101.07,,,,,,NA
-125.27,49.95,CAMPBELL RIVER A,1021267,10/8/2022 9:00,2022,10.00,8,9:00,16.3,,10.4,,68,,,,32,,11,,48.3,,101.1,,,,,,NA
-125.27,49.95,CAMPBELL RIVER A,1021267,10/8/2022 10:00,2022,10.00,8,10:00,19.2,,10.9,,58,,,,31,,14,,48.3,,101.08,,,,,,Clear
-125.27,49.95,CAMPBELL RIVER A,1021267,10/8/2022 11:00,2022,10.00,8,11:00,20.7,,11.1,,54,,,,33,,16,,48.3,,101.03,,,,,,NA
-125.27,49.95,CAMPBELL RIVER A,1021267,10/8/2022 12:00,2022,10.00,8,12:00,22.8,,11.3,,48,,,,34,,12,,48.3,,100.97,,25,,,,NA
-125.27,49.95,CAMPBELL RIVER A,1021267,10/8/2022 13:00,2022,10.00,8,13:00,23.9,,11.4,,45,,,,36,,5,,48.3,,100.9,,26,,,,Mainly Clear
-125.27,49.95,CAMPBELL RIVER A,1021267,10/8/2022 14:00,2022,10.00,8,14:00,23.2,,12.2,,50,,,,8,,7,,48.3,,100.84,,26,,,,NA
-125.27,49.95,CAMPBELL RIVER A,1021267,10/8/2022 15:00,2022,10.00,8,15:00,23,,12.2,,50,,,,13,,9,,48.3,,100.79,,25,,,,NA
-125.27,49.95,CAMPBELL RIVER A,1021267,10/8/2022 16:00,2022,10.00,8,16:00,22.9,,11.6,,48,,,,2,,5,,48.3,,100.76,,25,,,,Mainly Clear
-125.27,49.95,CAMPBELL RIVER A,1021267,10/8/2022 17:00,2022,10.00,8,17:00,21.3,,11.1,,52,,,,30,,8,,48.3,,100.75,,,,,,NA
-125.27,49.95,CAMPBELL RIVER A,1021267,10/8/2022 18:00,2022,10.00,8,18:00,16.8,,10.2,,65,,,,30,,7,,48.3,,100.77,,,,,,NA
-125.27,49.95,CAMPBELL RIVER A,1021267,10/8/2022 19:00,2022,10.00,8,19:00,14.2,,9.6,,73,,,,32,,13,,24.1,,100.8,,,,,,Mainly Clear
-125.27,49.95,CAMPBELL RIVER A,1021267,10/8/2022 20:00,2022,10.00,8,20:00,14.7,,9.8,,72,,,,30,,13,,24.1,,100.81,,,,,,NA
-125.27,49.95,CAMPBELL RIVER A,1021267,10/8/2022 21:00,2022,10.00,8,21:00,,,,,,,,,,,,,,,,,,,,,
-125.27,49.95,CAMPBELL RIVER A,1021267,10/8/2022 22:00,2022,10.00,8,22:00,,,,,,,,,,,,,,,,,,,,,
-125.27,49.95,CAMPBELL RIVER A,1021267,10/8/2022 23:00,2022,10.00,8,23:00,,,,,,,,,,,,,,,,,,,,,
-125.27,49.95,CAMPBELL RIVER A,1021267,10/9/2022 0:00,2022,10.00,9,0:00,,,,,,,,,,,,,,,,,,,,,
-125.27,49.95,CAMPBELL RIVER A,1021267,10/9/2022 1:00,2022,10.00,9,1:00,,,,,,,,,,,,,,,,,,,,,
-125.27,49.95,CAMPBELL RIVER A,1021267,10/9/2022 2:00,2022,10.00,9,2:00,,,,,,,,,,,,,,,,,,,,,
-125.27,49.95,CAMPBELL RIVER A,1021267,10/9/2022 3:00,2022,10.00,9,3:00,,,,,,,,,,,,,,,,,,,,,
-125.27,49.95,CAMPBELL RIVER A,1021267,10/9/2022 4:00,2022,10.00,9,4:00,,,,,,,,,,,,,,,,,,,,,
-125.27,49.95,CAMPBELL RIVER A,1021267,10/9/2022 5:00,2022,10.00,9,5:00,7.3,,7.3,,100,,,,30,,4,,24.1,,100.9,,,,,,NA
-125.27,49.95,CAMPBELL RIVER A,1021267,10/9/2022 6:00,2022,10.00,9,6:00,8,,8,,100,,,,27,,8,,24.1,,100.92,,,,,,NA
-125.27,49.95,CAMPBELL RIVER A,1021267,10/9/2022 7:00,2022,10.00,9,7:00,8.3,,8.3,,100,,,,31,,8,,48.3,,100.95,,,,,,Mainly Clear
-125.27,49.95,CAMPBELL RIVER A,1021267,10/9/2022 8:00,2022,10.00,9,8:00,11.7,,10.4,,92,,,,33,,8,,48.3,,100.97,,,,,,NA
-125.27,49.95,CAMPBELL RIVER A,1021267,10/9/2022 9:00,2022,10.00,9,9:00,14.5,,10.4,,76,,,,31,,8,,48.3,,101,,,,,,NA
-125.27,49.95,CAMPBELL RIVER A,1021267,10/9/2022 10:00,2022,10.00,9,10:00,16.7,,9.8,,63,,,,32,,8,,48.3,,101,,,,,,Mainly Clear
-125.27,49.95,CAMPBELL RIVER A,1021267,10/9/2022 11:00,2022,10.00,9,11:00,19.4,,9.5,,52,,,,33,,4,,48.3,,100.94,,,,,,NA
-125.27,49.95,CAMPBELL RIVER A,1021267,10/9/2022 12:00,2022,10.00,9,12:00,19,,10.8,,58,,,,11,,8,,48.3,,100.89,,,,,,NA
-125.27,49.95,CAMPBELL RIVER A,1021267,10/9/2022 13:00,2022,10.00,9,13:00,21,,11.2,,53,,,,8,,7,,48.3,,100.83,,,,,,Mainly Clear
-125.27,49.95,CAMPBELL RIVER A,1021267,10/9/2022 14:00,2022,10.00,9,14:00,20.8,,10.8,,52,,,,8,,8,,48.3,,100.78,,,,,,NA
-125.27,49.95,CAMPBELL RIVER A,1021267,10/9/2022 15:00,2022,10.00,9,15:00,21.9,,11,,50,,,,12,,8,,48.3,,100.74,,,,,,NA
-125.27,49.95,CAMPBELL RIVER A,1021267,10/9/2022 16:00,2022,10.00,9,16:00,22.3,,11.4,,50,,,,15,,5,,48.3,,100.7,,,,,,Mostly Cloudy
-125.27,49.95,CAMPBELL RIVER A,1021267,10/9/2022 17:00,2022,10.00,9,17:00,18.6,,12,,65,,,,1,,3,,48.3,,100.67,,,,,,NA
-125.27,49.95,CAMPBELL RIVER A,1021267,10/9/2022 18:00,2022,10.00,9,18:00,15.1,,12.4,,84,,,,31,,5,,48.3,,100.65,,,,,,NA
-125.27,49.95,CAMPBELL RIVER A,1021267,10/9/2022 19:00,2022,10.00,9,19:00,12.9,,9.6,,80,,,,31,,10,,24.1,,100.65,,,,,,Mostly Cloudy
-125.27,49.95,CAMPBELL RIVER A,1021267,10/9/2022 20:00,2022,10.00,9,20:00,14.8,,9.2,,69,,,,30,,16,,24.1,,100.66,,,,,,NA
-125.27,49.95,CAMPBELL RIVER A,1021267,10/9/2022 21:00,2022,10.00,9,21:00,,,,,,,,,,,,,,,,,,,,,
-125.27,49.95,CAMPBELL RIVER A,1021267,10/9/2022 22:00,2022,10.00,9,22:00,,,,,,,,,,,,,,,,,,,,,
-125.27,49.95,CAMPBELL RIVER A,1021267,10/9/2022 23:00,2022,10.00,9,23:00,,,,,,,,,,,,,,,,,,,,,
-125.27,49.95,CAMPBELL RIVER A,1021267,10/10/2022 0:00,2022,10.00,10,0:00,,,,,,,,,,,,,,,,,,,,,
-125.27,49.95,CAMPBELL RIVER A,1021267,10/10/2022 1:00,2022,10.00,10,1:00,,,,,,,,,,,,,,,,,,,,,
-125.27,49.95,CAMPBELL RIVER A,1021267,10/10/2022 2:00,2022,10.00,10,2:00,,,,,,,,,,,,,,,,,,,,,
-125.27,49.95,CAMPBELL RIVER A,1021267,10/10/2022 3:00,2022,10.00,10,3:00,,,,,,,,,,,,,,,,,,,,,
-125.27,49.95,CAMPBELL RIVER A,1021267,10/10/2022 4:00,2022,10.00,10,4:00,,,,,,,,,,,,,,,,,,,,,
-125.27,49.95,CAMPBELL RIVER A,1021267,10/10/2022 5:00,2022,10.00,10,5:00,12,,11.2,,95,,,,28,,7,,24.1,,100.47,,,,,,Rain
-125.27,49.95,CAMPBELL RIVER A,1021267,10/10/2022 6:00,2022,10.00,10,6:00,11.5,,11.5,,100,,,,26,,5,,24.1,,100.38,,,,,,Rain
-125.27,49.95,CAMPBELL RIVER A,1021267,10/10/2022 7:00,2022,10.00,10,7:00,11.1,,11.1,,100,,,,32,,3,,32.2,,100.34,,,,,,Mostly Cloudy
-125.27,49.95,CAMPBELL RIVER A,1021267,10/10/2022 8:00,2022,10.00,10,8:00,13,,13,,100,,,,30,,6,,40.2,,100.37,,,,,,NA
-125.27,49.95,CAMPBELL RIVER A,1021267,10/10/2022 9:00,2022,10.00,10,9:00,16.4,,14.4,,88,,,,28,,3,,40.2,,100.42,,,,,,NA
-125.27,49.95,CAMPBELL RIVER A,1021267,10/10/2022 10:00,2022,10.00,10,10:00,18,,13.7,,76,,,,33,,7,,32.2,,100.47,,,,,,Mostly Cloudy
-125.27,49.95,CAMPBELL RIVER A,1021267,10/10/2022 11:00,2022,10.00,10,11:00,18.1,,13,,72,,,,5,,11,,32.2,,100.42,,,,,,NA
-125.27,49.95,CAMPBELL RIVER A,1021267,10/10/2022 12:00,2022,10.00,10,12:00,18.9,,11.4,,61,,,,36,,9,,40.2,,100.35,,,,,,NA
-125.27,49.95,CAMPBELL RIVER A,1021267,10/10/2022 13:00,2022,10.00,10,13:00,19.5,,9.4,,52,,,,34,,22,,48.3,,100.31,,,,,,Mostly Cloudy
-125.27,49.95,CAMPBELL RIVER A,1021267,10/10/2022 14:00,2022,10.00,10,14:00,17.9,,4.7,,41,,,,34,,32,,48.3,,100.36,,,,,,NA
-125.27,49.95,CAMPBELL RIVER A,1021267,10/10/2022 15:00,2022,10.00,10,15:00,16.4,,0.8,,34,,,,33,,22,,48.3,,100.39,,,,,,NA
-125.27,49.95,CAMPBELL RIVER A,1021267,10/10/2022 16:00,2022,10.00,10,16:00,17.3,,0.9,,33,,,,32,,36,,48.3,,100.33,,,,,,Mainly Clear
-125.27,49.95,CAMPBELL RIVER A,1021267,10/10/2022 17:00,2022,10.00,10,17:00,15.1,,1.6,,40,,,,29,,18,,48.3,,100.36,,,,,,NA
-125.27,49.95,CAMPBELL RIVER A,1021267,10/10/2022 18:00,2022,10.00,10,18:00,13.1,,1.3,,45,,,,32,,19,,48.3,,100.41,,,,,,NA
-125.27,49.95,CAMPBELL RIVER A,1021267,10/10/2022 19:00,2022,10.00,10,19:00,12.6,,2.4,,50,,,,31,,20,,24.1,,100.43,,,,,,Clear
-125.27,49.95,CAMPBELL RIVER A,1021267,10/10/2022 20:00,2022,10.00,10,20:00,12.3,,2.4,,51,,,,31,,22,,24.1,,100.49,,,,,,NA
-125.27,49.95,CAMPBELL RIVER A,1021267,10/10/2022 21:00,2022,10.00,10,21:00,,,,,,,,,,,,,,,,,,,,,
-125.27,49.95,CAMPBELL RIVER A,1021267,10/10/2022 22:00,2022,10.00,10,22:00,,,,,,,,,,,,,,,,,,,,,
-125.27,49.95,CAMPBELL RIVER A,1021267,10/10/2022 23:00,2022,10.00,10,23:00,,,,,,,,,,,,,,,,,,,,,
-125.27,49.95,CAMPBELL RIVER A,1021267,10/11/2022 0:00,2022,10.00,11,0:00,,,,,,,,,,,,,,,,,,,,,
-125.27,49.95,CAMPBELL RIVER A,1021267,10/11/2022 1:00,2022,10.00,11,1:00,,,,,,,,,,,,,,,,,,,,,
-125.27,49.95,CAMPBELL RIVER A,1021267,10/11/2022 2:00,2022,10.00,11,2:00,,,,,,,,,,,,,,,,,,,,,
-125.27,49.95,CAMPBELL RIVER A,1021267,10/11/2022 3:00,2022,10.00,11,3:00,,,,,,,,,,,,,,,,,,,,,
-125.27,49.95,CAMPBELL RIVER A,1021267,10/11/2022 4:00,2022,10.00,11,4:00,,,,,,,,,,,,,,,,,,,,,
-125.27,49.95,CAMPBELL RIVER A,1021267,10/11/2022 5:00,2022,10.00,11,5:00,10,,3.5,,64,,,,30,,16,,24.1,,100.89,,,,,,NA
-125.27,49.95,CAMPBELL RIVER A,1021267,10/11/2022 6:00,2022,10.00,11,6:00,9.3,,3,,65,,,,27,,10,,24.1,,100.94,,,,,,NA
-125.27,49.95,CAMPBELL RIVER A,1021267,10/11/2022 7:00,2022,10.00,11,7:00,6.7,,3.6,,81,,,,34,,3,,48.3,,100.98,,,,,,Mainly Clear
-125.27,49.95,CAMPBELL RIVER A,1021267,10/11/2022 8:00,2022,10.00,11,8:00,10.4,,3.2,,61,,,,,,0,,48.3,,101.03,,,,,,NA
-125.27,49.95,CAMPBELL RIVER A,1021267,10/11/2022 9:00,2022,10.00,11,9:00,12.4,,3.4,,54,,,,35,,3,,48.3,,101.08,,,,,,NA
-125.27,49.95,CAMPBELL RIVER A,1021267,10/11/2022 10:00,2022,10.00,11,10:00,13.7,,3.4,,49,,,,2,,5,,48.3,,101.12,,,,,,Clear
-125.27,49.95,CAMPBELL RIVER A,1021267,10/11/2022 11:00,2022,10.00,11,11:00,15.2,,4.1,,47,,,,5,,9,,48.3,,101.12,,,,,,NA
-125.27,49.95,CAMPBELL RIVER A,1021267,10/11/2022 12:00,2022,10.00,11,12:00,16.2,,4,,44,,,,,,0,,48.3,,101.1,,,,,,NA
-125.27,49.95,CAMPBELL RIVER A,1021267,10/11/2022 13:00,2022,10.00,11,13:00,17,,4.2,,42,,,,13,,5,,48.3,,101.07,,,,,,Clear
-125.27,49.95,CAMPBELL RIVER A,1021267,10/11/2022 14:00,2022,10.00,11,14:00,17.3,,4.1,,41,,,,6,,8,,48.3,,101.04,,,,,,NA
-125.27,49.95,CAMPBELL RIVER A,1021267,10/11/2022 15:00,2022,10.00,11,15:00,17.9,,4.4,,40,,,,11,,9,,48.3,,101.01,,,,,,NA
-125.27,49.95,CAMPBELL RIVER A,1021267,10/11/2022 16:00,2022,10.00,11,16:00,17.1,,4.5,,43,,,,4,,5,,48.3,,101.04,,,,,,Clear
-125.27,49.95,CAMPBELL RIVER A,1021267,10/11/2022 17:00,2022,10.00,11,17:00,13.9,,5,,55,,,,,,0,,40.2,,101.02,,,,,,NA
-125.27,49.95,CAMPBELL RIVER A,1021267,10/11/2022 18:00,2022,10.00,11,18:00,10,,6.2,,77,,,,30,,3,,48.3,,101,,,,,,NA
-125.27,49.95,CAMPBELL RIVER A,1021267,10/11/2022 19:00,2022,10.00,11,19:00,8.3,,5.3,,81,,,,30,,5,,32.2,,101.02,,,,,,Clear
-125.27,49.95,CAMPBELL RIVER A,1021267,10/11/2022 20:00,2022,10.00,11,20:00,8.3,,5,,79,,,,34,,6,,32.2,,101.03,,,,,,NA
-125.27,49.95,CAMPBELL RIVER A,1021267,10/11/2022 21:00,2022,10.00,11,21:00,,,,,,,,,,,,,,,,,,,,,
-125.27,49.95,CAMPBELL RIVER A,1021267,10/11/2022 22:00,2022,10.00,11,22:00,,,,,,,,,,,,,,,,,,,,,
-125.27,49.95,CAMPBELL RIVER A,1021267,10/11/2022 23:00,2022,10.00,11,23:00,,,,,,,,,,,,,,,,,,,,,
-125.27,49.95,CAMPBELL RIVER A,1021267,10/12/2022 0:00,2022,10.00,12,0:00,,,,,,,,,,,,,,,,,,,,,
-125.27,49.95,CAMPBELL RIVER A,1021267,10/12/2022 1:00,2022,10.00,12,1:00,,,,,,,,,,,,,,,,,,,,,
-125.27,49.95,CAMPBELL RIVER A,1021267,10/12/2022 2:00,2022,10.00,12,2:00,,,,,,,,,,,,,,,,,,,,,
-125.27,49.95,CAMPBELL RIVER A,1021267,10/12/2022 3:00,2022,10.00,12,3:00,,,,,,,,,,,,,,,,,,,,,
-125.27,49.95,CAMPBELL RIVER A,1021267,10/12/2022 4:00,2022,10.00,12,4:00,,,,,,,,,,,,,,,,,,,,,
-125.27,49.95,CAMPBELL RIVER A,1021267,10/12/2022 5:00,2022,10.00,12,5:00,4.5,,4.5,,100,,,,28,,5,,24.1,,101.27,,,,,,NA
-125.27,49.95,CAMPBELL RIVER A,1021267,10/12/2022 6:00,2022,10.00,12,6:00,5.1,,5.1,,100,,,,31,,9,,24.1,,101.28,,,,,,NA
-125.27,49.95,CAMPBELL RIVER A,1021267,10/12/2022 7:00,2022,10.00,12,7:00,4.7,,4.7,,100,,,,31,,7,,48.3,,101.29,,,,,,Mostly Cloudy
-125.27,49.95,CAMPBELL RIVER A,1021267,10/12/2022 8:00,2022,10.00,12,8:00,7.7,,7.2,,96,,,,36,,3,,48.3,,101.31,,,,,,NA
-125.27,49.95,CAMPBELL RIVER A,1021267,10/12/2022 9:00,2022,10.00,12,9:00,12.1,,7.3,,72,,,,35,,4,,48.3,,101.32,,,,,,NA
-125.27,49.95,CAMPBELL RIVER A,1021267,10/12/2022 10:00,2022,10.00,12,10:00,14.4,,7.5,,63,,,,13,,5,,48.3,,101.34,,,,,,Mainly Clear
-125.27,49.95,CAMPBELL RIVER A,1021267,10/12/2022 11:00,2022,10.00,12,11:00,15.4,,7.8,,60,,,,,,0,,48.3,,101.3,,,,,,NA
-125.27,49.95,CAMPBELL RIVER A,1021267,10/12/2022 12:00,2022,10.00,12,12:00,16.5,,7.7,,55,,,,5,,9,,48.3,,101.28,,,,,,NA
-125.27,49.95,CAMPBELL RIVER A,1021267,10/12/2022 13:00,2022,10.00,12,13:00,17.4,,7.8,,53,,,,4,,7,,48.3,,101.24,,,,,,Clear
-125.27,49.95,CAMPBELL RIVER A,1021267,10/12/2022 14:00,2022,10.00,12,14:00,18.3,,7.8,,50,,,,10,,8,,48.3,,101.18,,,,,,NA
-125.27,49.95,CAMPBELL RIVER A,1021267,10/12/2022 15:00,2022,10.00,12,15:00,19.3,,8.1,,48,,,,6,,6,,48.3,,101.14,,,,,,NA
-125.27,49.95,CAMPBELL RIVER A,1021267,10/12/2022 16:00,2022,10.00,12,16:00,19.2,,8.1,,48,,,,6,,3,,48.3,,101.1,,,,,,Clear
-125.27,49.95,CAMPBELL RIVER A,1021267,10/12/2022 17:00,2022,10.00,12,17:00,14.8,,8.7,,66,,,,15,,4,,48.3,,101.07,,,,,,NA
-125.27,49.95,CAMPBELL RIVER A,1021267,10/12/2022 18:00,2022,10.00,12,18:00,12.1,,9.8,,86,,,,28,,3,,48.3,,101.06,,,,,,NA
-125.27,49.95,CAMPBELL RIVER A,1021267,10/12/2022 19:00,2022,10.00,12,19:00,9.8,,9.2,,96,,,,29,,4,,24.1,,101.04,,,,,,Mainly Clear
-125.27,49.95,CAMPBELL RIVER A,1021267,10/12/2022 20:00,2022,10.00,12,20:00,8.6,,8.5,,99,,,,36,,3,,24.1,,101.06,,,,,,NA
-125.27,49.95,CAMPBELL RIVER A,1021267,10/12/2022 21:00,2022,10.00,12,21:00,,,,,,,,,,,,,,,,,,,,,
-125.27,49.95,CAMPBELL RIVER A,1021267,10/12/2022 22:00,2022,10.00,12,22:00,,,,,,,,,,,,,,,,,,,,,
-125.27,49.95,CAMPBELL RIVER A,1021267,10/12/2022 23:00,2022,10.00,12,23:00,,,,,,,,,,,,,,,,,,,,,
-125.27,49.95,CAMPBELL RIVER A,1021267,10/13/2022 0:00,2022,10.00,13,0:00,,,,,,,,,,,,,,,,,,,,,
-125.27,49.95,CAMPBELL RIVER A,1021267,10/13/2022 1:00,2022,10.00,13,1:00,,,,,,,,,,,,,,,,,,,,,
-125.27,49.95,CAMPBELL RIVER A,1021267,10/13/2022 2:00,2022,10.00,13,2:00,,,,,,,,,,,,,,,,,,,,,
-125.27,49.95,CAMPBELL RIVER A,1021267,10/13/2022 3:00,2022,10.00,13,3:00,,,,,,,,,,,,,,,,,,,,,
-125.27,49.95,CAMPBELL RIVER A,1021267,10/13/2022 4:00,2022,10.00,13,4:00,,,,,,,,,,,,,,,,,,,,,
-125.27,49.95,CAMPBELL RIVER A,1021267,10/13/2022 5:00,2022,10.00,13,5:00,4.3,,4.3,,100,,,,,,0,,24.1,,101.02,,,,,,NA
-125.27,49.95,CAMPBELL RIVER A,1021267,10/13/2022 6:00,2022,10.00,13,6:00,2.7,,2.7,,100,,,,36,,3,,24.1,,101.05,,,,,,NA
-125.27,49.95,CAMPBELL RIVER A,1021267,10/13/2022 7:00,2022,10.00,13,7:00,3.1,,3.1,,100,,,,30,,7,,19.3,,101.07,,,,,,Clear
-125.27,49.95,CAMPBELL RIVER A,1021267,10/13/2022 8:00,2022,10.00,13,8:00,6.2,,6.2,,100,,,,36,,3,,19.3,,101.05,,,,,,NA
-125.27,49.95,CAMPBELL RIVER A,1021267,10/13/2022 9:00,2022,10.00,13,9:00,13.1,,8.2,,72,,,,,,0,,19.3,,101.05,,,,,,NA
-125.27,49.95,CAMPBELL RIVER A,1021267,10/13/2022 10:00,2022,10.00,13,10:00,16.9,,7.3,,53,,,,,,0,,24.1,,101.04,,,,,,Mainly Clear
-125.27,49.95,CAMPBELL RIVER A,1021267,10/13/2022 11:00,2022,10.00,13,11:00,18.9,,9.7,,55,,,,12,,4,,19.3,,101.03,,,,,,NA
-125.27,49.95,CAMPBELL RIVER A,1021267,10/13/2022 12:00,2022,10.00,13,12:00,21.4,,9.2,,45,,,,7,,6,,19.3,,100.99,,,,,,NA
-125.27,49.95,CAMPBELL RIVER A,1021267,10/13/2022 13:00,2022,10.00,13,13:00,22,,10,,46,,,,12,,7,,24.1,,100.91,,,,,,Mostly Cloudy
-125.27,49.95,CAMPBELL RIVER A,1021267,10/13/2022 14:00,2022,10.00,13,14:00,22.5,,9.1,,42,,,,7,,7,,24.1,,100.83,,,,,,NA
-125.27,49.95,CAMPBELL RIVER A,1021267,10/13/2022 15:00,2022,10.00,13,15:00,23.1,,9.3,,41,,,,11,,7,,32.2,,100.77,,,,,,NA
-125.27,49.95,CAMPBELL RIVER A,1021267,10/13/2022 16:00,2022,10.00,13,16:00,23.1,,10,,43,,,,14,,4,,32.2,,100.71,,,,,,Mostly Cloudy
-125.27,49.95,CAMPBELL RIVER A,1021267,10/13/2022 17:00,2022,10.00,13,17:00,16.1,,11.1,,72,,,,,,0,,48.3,,100.67,,,,,,NA
-125.27,49.95,CAMPBELL RIVER A,1021267,10/13/2022 18:00,2022,10.00,13,18:00,13.5,,11.3,,87,,,,31,,5,,24.1,,100.66,,,,,,NA
-125.27,49.95,CAMPBELL RIVER A,1021267,10/13/2022 19:00,2022,10.00,13,19:00,11.4,,9.8,,90,,,,31,,7,,24.1,,100.67,,,,,,Mostly Cloudy
-125.27,49.95,CAMPBELL RIVER A,1021267,10/13/2022 20:00,2022,10.00,13,20:00,10.7,,10.2,,97,,,,32,,4,,24.1,,100.66,,,,,,NA
-125.27,49.95,CAMPBELL RIVER A,1021267,10/13/2022 21:00,2022,10.00,13,21:00,,,,,,,,,,,,,,,,,,,,,
-125.27,49.95,CAMPBELL RIVER A,1021267,10/13/2022 22:00,2022,10.00,13,22:00,,,,,,,,,,,,,,,,,,,,,
-125.27,49.95,CAMPBELL RIVER A,1021267,10/13/2022 23:00,2022,10.00,13,23:00,,,,,,,,,,,,,,,,,,,,,
-125.27,49.95,CAMPBELL RIVER A,1021267,10/14/2022 0:00,2022,10.00,14,0:00,,,,,,,,,,,,,,,,,,,,,
-125.27,49.95,CAMPBELL RIVER A,1021267,10/14/2022 1:00,2022,10.00,14,1:00,,,,,,,,,,,,,,,,,,,,,
-125.27,49.95,CAMPBELL RIVER A,1021267,10/14/2022 2:00,2022,10.00,14,2:00,,,,,,,,,,,,,,,,,,,,,
-125.27,49.95,CAMPBELL RIVER A,1021267,10/14/2022 3:00,2022,10.00,14,3:00,,,,,,,,,,,,,,,,,,,,,
-125.27,49.95,CAMPBELL RIVER A,1021267,10/14/2022 4:00,2022,10.00,14,4:00,,,,,,,,,,,,,,,,,,,,,
-125.27,49.95,CAMPBELL RIVER A,1021267,10/14/2022 5:00,2022,10.00,14,5:00,7.2,,7.2,,100,,,,24,,3,,24.1,,100.55,,,,,,NA
-125.27,49.95,CAMPBELL RIVER A,1021267,10/14/2022 6:00,2022,10.00,14,6:00,7.7,,7.5,,99,,,,30,,6,,24.1,,100.61,,,,,,NA
-125.27,49.95,CAMPBELL RIVER A,1021267,10/14/2022 7:00,2022,10.00,14,7:00,6,,5.9,,100,,,,27,,3,,48.3,,100.64,,,,,,Mainly Clear
-125.27,49.95,CAMPBELL RIVER A,1021267,10/14/2022 8:00,2022,10.00,14,8:00,11.6,,8.8,,83,,,,29,,8,,48.3,,100.63,,,,,,NA
-125.27,49.95,CAMPBELL RIVER A,1021267,10/14/2022 9:00,2022,10.00,14,9:00,14.8,,8.2,,64,,,,30,,6,,48.3,,100.61,,,,,,NA
-125.27,49.95,CAMPBELL RIVER A,1021267,10/14/2022 10:00,2022,10.00,14,10:00,17,,7.8,,54,,,,33,,8,,48.3,,100.59,,,,,,Mostly Cloudy
-125.27,49.95,CAMPBELL RIVER A,1021267,10/14/2022 11:00,2022,10.00,14,11:00,19,,7.6,,47,,,,36,,8,,48.3,,100.53,,,,,,NA
-125.27,49.95,CAMPBELL RIVER A,1021267,10/14/2022 12:00,2022,10.00,14,12:00,20.3,,8.3,,46,,,,36,,3,,48.3,,100.5,,,,,,NA
-125.27,49.95,CAMPBELL RIVER A,1021267,10/14/2022 13:00,2022,10.00,14,13:00,21.8,,9,,43,,,,9,,7,,48.3,,100.43,,,,,,Mainly Clear
-125.27,49.95,CAMPBELL RIVER A,1021267,10/14/2022 14:00,2022,10.00,14,14:00,23.2,,9.2,,40,,,,2,,6,,48.3,,100.36,,,,,,NA
-125.27,49.95,CAMPBELL RIVER A,1021267,10/14/2022 15:00,2022,10.00,14,15:00,21.8,,9.8,,46,,,,12,,10,,48.3,,100.33,,,,,,NA
-125.27,49.95,CAMPBELL RIVER A,1021267,10/14/2022 16:00,2022,10.00,14,16:00,21.7,,10.2,,48,,,,15,,7,,48.3,,100.31,,,,,,Mainly Clear
-125.27,49.95,CAMPBELL RIVER A,1021267,10/14/2022 17:00,2022,10.00,14,17:00,17.7,,10.6,,63,,,,15,,4,,48.3,,100.29,,,,,,NA
-125.27,49.95,CAMPBELL RIVER A,1021267,10/14/2022 18:00,2022,10.00,14,18:00,14.7,,10.8,,77,,,,,,0,,24.1,,100.31,,,,,,NA
-125.27,49.95,CAMPBELL RIVER A,1021267,10/14/2022 19:00,2022,10.00,14,19:00,12.1,,11.2,,95,,,,31,,6,,24.1,,100.32,,,,,,Clear
-125.27,49.95,CAMPBELL RIVER A,1021267,10/14/2022 20:00,2022,10.00,14,20:00,11.1,,10.6,,97,,,,30,,3,,24.1,,100.37,,,,,,NA
-125.27,49.95,CAMPBELL RIVER A,1021267,10/14/2022 21:00,2022,10.00,14,21:00,,,,,,,,,,,,,,,,,,,,,
-125.27,49.95,CAMPBELL RIVER A,1021267,10/14/2022 22:00,2022,10.00,14,22:00,,,,,,,,,,,,,,,,,,,,,
-125.27,49.95,CAMPBELL RIVER A,1021267,10/14/2022 23:00,2022,10.00,14,23:00,,,,,,,,,,,,,,,,,,,,,
-125.27,49.95,CAMPBELL RIVER A,1021267,10/15/2022 0:00,2022,10.00,15,0:00,,,,,,,,,,,,,,,,,,,,,
-125.27,49.95,CAMPBELL RIVER A,1021267,10/15/2022 1:00,2022,10.00,15,1:00,,,,,,,,,,,,,,,,,,,,,
-125.27,49.95,CAMPBELL RIVER A,1021267,10/15/2022 2:00,2022,10.00,15,2:00,,,,,,,,,,,,,,,,,,,,,
-125.27,49.95,CAMPBELL RIVER A,1021267,10/15/2022 3:00,2022,10.00,15,3:00,,,,,,,,,,,,,,,,,,,,,
-125.27,49.95,CAMPBELL RIVER A,1021267,10/15/2022 4:00,2022,10.00,15,4:00,,,,,,,,,,,,,,,,,,,,,
-125.27,49.95,CAMPBELL RIVER A,1021267,10/15/2022 5:00,2022,10.00,15,5:00,6.9,,6.9,,100,,,,32,,4,,24.1,,100.43,,,,,,NA
-125.27,49.95,CAMPBELL RIVER A,1021267,10/15/2022 6:00,2022,10.00,15,6:00,6,,6,,100,,,,30,,4,,32.2,,100.42,,,,,,NA
-125.27,49.95,CAMPBELL RIVER A,1021267,10/15/2022 7:00,2022,10.00,15,7:00,6.4,,6.4,,100,,,,30,,3,,48.3,,100.42,,,,,,Mostly Cloudy
-125.27,49.95,CAMPBELL RIVER A,1021267,10/15/2022 8:00,2022,10.00,15,8:00,9,,9,,100,,,,30,,7,,48.3,,100.41,,,,,,NA
-125.27,49.95,CAMPBELL RIVER A,1021267,10/15/2022 9:00,2022,10.00,15,9:00,14.4,,11.8,,84,,,,,,0,,16.1,,100.44,,,,,,NA
-125.27,49.95,CAMPBELL RIVER A,1021267,10/15/2022 10:00,2022,10.00,15,10:00,17.7,,10.8,,63,,,,10,,5,,19.3,,100.45,,,,,,Clear
-125.27,49.95,CAMPBELL RIVER A,1021267,10/15/2022 11:00,2022,10.00,15,11:00,19.9,,10.1,,53,,,,10,,4,,24.1,,100.43,,,,,,NA
-125.27,49.95,CAMPBELL RIVER A,1021267,10/15/2022 12:00,2022,10.00,15,12:00,21,,11.4,,54,,,,9,,9,,32.2,,100.39,,,,,,NA
-125.27,49.95,CAMPBELL RIVER A,1021267,10/15/2022 13:00,2022,10.00,15,13:00,21.9,,8.5,,42,,,,8,,8,,24.1,,100.31,,,,,,Mainly Clear
-125.27,49.95,CAMPBELL RIVER A,1021267,10/15/2022 14:00,2022,10.00,15,14:00,22.4,,7.9,,39,,,,9,,8,,24.1,,100.26,,,,,,NA
-125.27,49.95,CAMPBELL RIVER A,1021267,10/15/2022 15:00,2022,10.00,15,15:00,22.8,,7.2,,36,,,,12,,9,,32.2,,100.23,,,,,,NA
-125.27,49.95,CAMPBELL RIVER A,1021267,10/15/2022 16:00,2022,10.00,15,16:00,21.4,,8.8,,44,,,,14,,4,,32.2,,100.21,,,,,,Mainly Clear
-125.27,49.95,CAMPBELL RIVER A,1021267,10/15/2022 17:00,2022,10.00,15,17:00,15.1,,9.4,,69,,,,16,,3,,32.2,,100.19,,,,,,NA
-125.27,49.95,CAMPBELL RIVER A,1021267,10/15/2022 18:00,2022,10.00,15,18:00,13.8,,9.8,,77,,,,36,,3,,24.1,,100.17,,,,,,NA
-125.27,49.95,CAMPBELL RIVER A,1021267,10/15/2022 19:00,2022,10.00,15,19:00,11.1,,9.9,,93,,,,28,,4,,24.1,,100.19,,,,,,Mainly Clear
-125.27,49.95,CAMPBELL RIVER A,1021267,10/15/2022 20:00,2022,10.00,15,20:00,9.4,,8.9,,96,,,,31,,4,,24.1,,100.19,,,,,,NA
-125.27,49.95,CAMPBELL RIVER A,1021267,10/15/2022 21:00,2022,10.00,15,21:00,,,,,,,,,,,,,,,,,,,,,
-125.27,49.95,CAMPBELL RIVER A,1021267,10/15/2022 22:00,2022,10.00,15,22:00,,,,,,,,,,,,,,,,,,,,,
-125.27,49.95,CAMPBELL RIVER A,1021267,10/15/2022 23:00,2022,10.00,15,23:00,,,,,,,,,,,,,,,,,,,,,
-125.27,49.95,CAMPBELL RIVER A,1021267,10/16/2022 0:00,2022,10.00,16,0:00,,,,,,,,,,,,,,,,,,,,,
-125.27,49.95,CAMPBELL RIVER A,1021267,10/16/2022 1:00,2022,10.00,16,1:00,,,,,,,,,,,,,,,,,,,,,
-125.27,49.95,CAMPBELL RIVER A,1021267,10/16/2022 2:00,2022,10.00,16,2:00,,,,,,,,,,,,,,,,,,,,,
-125.27,49.95,CAMPBELL RIVER A,1021267,10/16/2022 3:00,2022,10.00,16,3:00,,,,,,,,,,,,,,,,,,,,,
-125.27,49.95,CAMPBELL RIVER A,1021267,10/16/2022 4:00,2022,10.00,16,4:00,,,,,,,,,,,,,,,,,,,,,
-125.27,49.95,CAMPBELL RIVER A,1021267,10/16/2022 5:00,2022,10.00,16,5:00,4,,4,,100,,,,29,,6,,24.1,,100.22,,,,,,NA
-125.27,49.95,CAMPBELL RIVER A,1021267,10/16/2022 6:00,2022,10.00,16,6:00,3.5,,3.5,,100,,,,28,,4,,24.1,,100.22,,,,,,NA
-125.27,49.95,CAMPBELL RIVER A,1021267,10/16/2022 7:00,2022,10.00,16,7:00,3.2,,3.2,,100,,,,30,,7,,24.1,,100.24,,,,,,Mainly Clear
-125.27,49.95,CAMPBELL RIVER A,1021267,10/16/2022 8:00,2022,10.00,16,8:00,5.9,,5.9,,100,,,,31,,6,,32.2,,100.27,,,,,,NA
-125.27,49.95,CAMPBELL RIVER A,1021267,10/16/2022 9:00,2022,10.00,16,9:00,11.1,,9.2,,88,,,,32,,4,,24.1,,100.29,,,,,,NA
-125.27,49.95,CAMPBELL RIVER A,1021267,10/16/2022 10:00,2022,10.00,16,10:00,17.1,,7.8,,54,,,,,,0,,24.1,,100.3,,,,,,Clear
-125.27,49.95,CAMPBELL RIVER A,1021267,10/16/2022 11:00,2022,10.00,16,11:00,19.2,,7.4,,46,,,,12,,8,,24.1,,100.27,,,,,,NA
-125.27,49.95,CAMPBELL RIVER A,1021267,10/16/2022 12:00,2022,10.00,16,12:00,19.9,,7.1,,43,,,,9,,9,,24.1,,100.24,,,,,,NA
-125.27,49.95,CAMPBELL RIVER A,1021267,10/16/2022 13:00,2022,10.00,16,13:00,20.4,,7,,41,,,,8,,8,,24.1,,100.19,,,,,,Clear
-125.27,49.95,CAMPBELL RIVER A,1021267,10/16/2022 14:00,2022,10.00,16,14:00,19.9,,6.6,,42,,,,4,,9,,24.1,,100.16,,,,,,NA
-125.27,49.95,CAMPBELL RIVER A,1021267,10/16/2022 15:00,2022,10.00,16,15:00,19.8,,7.1,,43,,,,7,,9,,24.1,,100.12,,,,,,NA
-125.27,49.95,CAMPBELL RIVER A,1021267,10/16/2022 16:00,2022,10.00,16,16:00,19,,8.2,,49,,,,17,,4,,24.1,,100.09,,,,,,Clear
-125.27,49.95,CAMPBELL RIVER A,1021267,10/16/2022 17:00,2022,10.00,16,17:00,14.8,,7.9,,63,,,,27,,5,,24.1,,100.07,,,,,,NA
-125.27,49.95,CAMPBELL RIVER A,1021267,10/16/2022 18:00,2022,10.00,16,18:00,11.4,,9.1,,85,,,,25,,5,,24.1,,100.08,,,,,,NA
-125.27,49.95,CAMPBELL RIVER A,1021267,10/16/2022 19:00,2022,10.00,16,19:00,9,,6.5,,84,,,,31,,8,,24.1,,100.1,,,,,,Clear
-125.27,49.95,CAMPBELL RIVER A,1021267,10/16/2022 20:00,2022,10.00,16,20:00,8.6,,7.7,,94,,,,28,,5,,24.1,,100.1,,,,,,NA
-125.27,49.95,CAMPBELL RIVER A,1021267,10/16/2022 21:00,2022,10.00,16,21:00,,,,,,,,,,,,,,,,,,,,,
-125.27,49.95,CAMPBELL RIVER A,1021267,10/16/2022 22:00,2022,10.00,16,22:00,,,,,,,,,,,,,,,,,,,,,
-125.27,49.95,CAMPBELL RIVER A,1021267,10/16/2022 23:00,2022,10.00,16,23:00,,,,,,,,,,,,,,,,,,,,,
-125.27,49.95,CAMPBELL RIVER A,1021267,10/17/2022 0:00,2022,10.00,17,0:00,,,,,,,,,,,,,,,,,,,,,
-125.27,49.95,CAMPBELL RIVER A,1021267,10/17/2022 1:00,2022,10.00,17,1:00,,,,,,,,,,,,,,,,,,,,,
-125.27,49.95,CAMPBELL RIVER A,1021267,10/17/2022 2:00,2022,10.00,17,2:00,,,,,,,,,,,,,,,,,,,,,
-125.27,49.95,CAMPBELL RIVER A,1021267,10/17/2022 3:00,2022,10.00,17,3:00,,,,,,,,,,,,,,,,,,,,,
-125.27,49.95,CAMPBELL RIVER A,1021267,10/17/2022 4:00,2022,10.00,17,4:00,,,,,,,,,,,,,,,,,,,,,
-125.27,49.95,CAMPBELL RIVER A,1021267,10/17/2022 5:00,2022,10.00,17,5:00,2.5,,2.5,,100,,,,31,,6,,24.1,,100.42,,,,,,NA
-125.27,49.95,CAMPBELL RIVER A,1021267,10/17/2022 6:00,2022,10.00,17,6:00,2.6,,2.6,,100,,,,,,0,,16.1,,100.48,,,,,,NA
-125.27,49.95,CAMPBELL RIVER A,1021267,10/17/2022 7:00,2022,10.00,17,7:00,5.5,,5.5,,100,,,,30,,5,,8.1,,100.54,,,,,,"Fog,Smoke"
-125.27,49.95,CAMPBELL RIVER A,1021267,10/17/2022 8:00,2022,10.00,17,8:00,6.2,,6.2,,100,,,,32,,7,,0.4,,100.61,,,,,,Fog
-125.27,49.95,CAMPBELL RIVER A,1021267,10/17/2022 9:00,2022,10.00,17,9:00,11.1,,11.1,,100,,,,29,,5,,3.2,,100.64,,,,,,Fog
-125.27,49.95,CAMPBELL RIVER A,1021267,10/17/2022 10:00,2022,10.00,17,10:00,12.4,,11.5,,94,,,,,,0,,8.1,,100.66,,,,,,Fog
-125.27,49.95,CAMPBELL RIVER A,1021267,10/17/2022 11:00,2022,10.00,17,11:00,13.3,,11.5,,89,,,,11,,4,,9.7,,100.65,,,,,,Fog
-125.27,49.95,CAMPBELL RIVER A,1021267,10/17/2022 12:00,2022,10.00,17,12:00,15.1,,11.8,,80,,,,2,,7,,12.9,,100.63,,,,,,NA
-125.27,49.95,CAMPBELL RIVER A,1021267,10/17/2022 13:00,2022,10.00,17,13:00,15,,11,,77,,,,10,,13,,19.3,,100.63,,,,,,Mainly Clear
-125.27,49.95,CAMPBELL RIVER A,1021267,10/17/2022 14:00,2022,10.00,17,14:00,15.6,,11.1,,74,,,,11,,6,,19.3,,100.6,,,,,,NA
-125.27,49.95,CAMPBELL RIVER A,1021267,10/17/2022 15:00,2022,10.00,17,15:00,14.4,,11.1,,81,,,,6,,7,,19.3,,100.59,,,,,,NA
-125.27,49.95,CAMPBELL RIVER A,1021267,10/17/2022 16:00,2022,10.00,17,16:00,14.2,,11.2,,82,,,,31,,3,,19.3,,100.6,,,,,,Mostly Cloudy
-125.27,49.95,CAMPBELL RIVER A,1021267,10/17/2022 17:00,2022,10.00,17,17:00,14.5,,11.2,,81,,,,36,,3,,19.3,,100.58,,,,,,NA
-125.27,49.95,CAMPBELL RIVER A,1021267,10/17/2022 18:00,2022,10.00,17,18:00,10.9,,10.1,,95,,,,,,0,,19.3,,100.63,,,,,,NA
-125.27,49.95,CAMPBELL RIVER A,1021267,10/17/2022 19:00,2022,10.00,17,19:00,10.4,,10.4,,100,,,,24,,5,,16.1,,100.64,,,,,,Mostly Cloudy
-125.27,49.95,CAMPBELL RIVER A,1021267,10/17/2022 20:00,2022,10.00,17,20:00,9.2,,9.2,,100,,,,32,,7,,16.1,,100.67,,,,,,NA
-125.27,49.95,CAMPBELL RIVER A,1021267,10/17/2022 21:00,2022,10.00,17,21:00,,,,,,,,,,,,,,,,,,,,,
-125.27,49.95,CAMPBELL RIVER A,1021267,10/17/2022 22:00,2022,10.00,17,22:00,,,,,,,,,,,,,,,,,,,,,
-125.27,49.95,CAMPBELL RIVER A,1021267,10/17/2022 23:00,2022,10.00,17,23:00,,,,,,,,,,,,,,,,,,,,,
-125.27,49.95,CAMPBELL RIVER A,1021267,10/18/2022 0:00,2022,10.00,18,0:00,,,,,,,,,,,,,,,,,,,,,
-125.27,49.95,CAMPBELL RIVER A,1021267,10/18/2022 1:00,2022,10.00,18,1:00,,,,,,,,,,,,,,,,,,,,,
-125.27,49.95,CAMPBELL RIVER A,1021267,10/18/2022 2:00,2022,10.00,18,2:00,,,,,,,,,,,,,,,,,,,,,
-125.27,49.95,CAMPBELL RIVER A,1021267,10/18/2022 3:00,2022,10.00,18,3:00,,,,,,,,,,,,,,,,,,,,,
-125.27,49.95,CAMPBELL RIVER A,1021267,10/18/2022 4:00,2022,10.00,18,4:00,,,,,,,,,,,,,,,,,,,,,
-125.27,49.95,CAMPBELL RIVER A,1021267,10/18/2022 5:00,2022,10.00,18,5:00,5.6,,5.6,,100,,,,29,,4,,3.2,,100.92,,,,,,"Fog,Smoke"
-125.27,49.95,CAMPBELL RIVER A,1021267,10/18/2022 6:00,2022,10.00,18,6:00,6.3,,6.3,,100,,,,30,,4,,4.8,,100.97,,,,,,"Fog,Smoke"
-125.27,49.95,CAMPBELL RIVER A,1021267,10/18/2022 7:00,2022,10.00,18,7:00,7.9,,7.9,,100,,,,30,,4,,9.7,,101.03,,,,,,Fog
-125.27,49.95,CAMPBELL RIVER A,1021267,10/18/2022 8:00,2022,10.00,18,8:00,9.3,,9.3,,100,,,,25,,5,,12.9,,101.09,,,,,,NA
-125.27,49.95,CAMPBELL RIVER A,1021267,10/18/2022 9:00,2022,10.00,18,9:00,11.5,,11.2,,98,,,,32,,4,,12.9,,101.15,,,,,,NA
-125.27,49.95,CAMPBELL RIVER A,1021267,10/18/2022 10:00,2022,10.00,18,10:00,13.2,,11.6,,90,,,,8,,4,,12.9,,101.17,,,,,,Mostly Cloudy
-125.27,49.95,CAMPBELL RIVER A,1021267,10/18/2022 11:00,2022,10.00,18,11:00,13.9,,11.5,,85,,,,31,,3,,12.9,,101.15,,,,,,NA
-125.27,49.95,CAMPBELL RIVER A,1021267,10/18/2022 12:00,2022,10.00,18,12:00,15.2,,10.8,,75,,,,36,,3,,19.3,,101.13,,,,,,NA
-125.27,49.95,CAMPBELL RIVER A,1021267,10/18/2022 13:00,2022,10.00,18,13:00,16.9,,11,,68,,,,4,,4,,32.2,,101.11,,,,,,Mainly Clear
-125.27,49.95,CAMPBELL RIVER A,1021267,10/18/2022 14:00,2022,10.00,18,14:00,17.1,,10.9,,67,,,,10,,8,,40.2,,101.12,,,,,,NA
-125.27,49.95,CAMPBELL RIVER A,1021267,10/18/2022 15:00,2022,10.00,18,15:00,16.9,,10.9,,67,,,,8,,7,,32.2,,101.09,,,,,,NA
-125.27,49.95,CAMPBELL RIVER A,1021267,10/18/2022 16:00,2022,10.00,18,16:00,16.3,,10.7,,69,,,,13,,4,,32.2,,101.09,,,,,,Mainly Clear
-125.27,49.95,CAMPBELL RIVER A,1021267,10/18/2022 17:00,2022,10.00,18,17:00,12.5,,11,,90,,,,34,,3,,32.2,,101.1,,,,,,NA
-125.27,49.95,CAMPBELL RIVER A,1021267,10/18/2022 18:00,2022,10.00,18,18:00,11,,10.9,,99,,,,27,,3,,24.1,,101.07,,,,,,NA
-125.27,49.95,CAMPBELL RIVER A,1021267,10/18/2022 19:00,2022,10.00,18,19:00,8.9,,8.9,,100,,,,36,,3,,24.1,,101.12,,,,,,Mainly Clear
-125.27,49.95,CAMPBELL RIVER A,1021267,10/18/2022 20:00,2022,10.00,18,20:00,8.6,,8.6,,100,,,,29,,4,,24.1,,101.14,,,,,,NA
-125.27,49.95,CAMPBELL RIVER A,1021267,10/18/2022 21:00,2022,10.00,18,21:00,,,,,,,,,,,,,,,,,,,,,
-125.27,49.95,CAMPBELL RIVER A,1021267,10/18/2022 22:00,2022,10.00,18,22:00,,,,,,,,,,,,,,,,,,,,,
-125.27,49.95,CAMPBELL RIVER A,1021267,10/18/2022 23:00,2022,10.00,18,23:00,,,,,,,,,,,,,,,,,,,,,
-125.27,49.95,CAMPBELL RIVER A,1021267,10/19/2022 0:00,2022,10.00,19,0:00,,,,,,,,,,,,,,,,,,,,,
-125.27,49.95,CAMPBELL RIVER A,1021267,10/19/2022 1:00,2022,10.00,19,1:00,,,,,,,,,,,,,,,,,,,,,
-125.27,49.95,CAMPBELL RIVER A,1021267,10/19/2022 2:00,2022,10.00,19,2:00,,,,,,,,,,,,,,,,,,,,,
-125.27,49.95,CAMPBELL RIVER A,1021267,10/19/2022 3:00,2022,10.00,19,3:00,,,,,,,,,,,,,,,,,,,,,
-125.27,49.95,CAMPBELL RIVER A,1021267,10/19/2022 4:00,2022,10.00,19,4:00,,,,,,,,,,,,,,,,,,,,,
-125.27,49.95,CAMPBELL RIVER A,1021267,10/19/2022 5:00,2022,10.00,19,5:00,3.5,,3.5,,100,,,,36,,3,,24.1,,101.34,,,,,,NA
-125.27,49.95,CAMPBELL RIVER A,1021267,10/19/2022 6:00,2022,10.00,19,6:00,3,,3,,100,,,,29,,4,,24.1,,101.36,,,,,,NA
-125.27,49.95,CAMPBELL RIVER A,1021267,10/19/2022 7:00,2022,10.00,19,7:00,3,,3,,100,,,,28,,4,,48.3,,101.39,,,,,,Mainly Clear
-125.27,49.95,CAMPBELL RIVER A,1021267,10/19/2022 8:00,2022,10.00,19,8:00,6,,6,,100,,,,31,,7,,48.3,,101.47,,,,,,NA
-125.27,49.95,CAMPBELL RIVER A,1021267,10/19/2022 9:00,2022,10.00,19,9:00,12.6,,9.9,,83,,,,29,,4,,48.3,,101.45,,,,,,NA
-125.27,49.95,CAMPBELL RIVER A,1021267,10/19/2022 10:00,2022,10.00,19,10:00,14.8,,10.4,,74,,,,,,0,,48.3,,101.44,,,,,,Mainly Clear
-125.27,49.95,CAMPBELL RIVER A,1021267,10/19/2022 11:00,2022,10.00,19,11:00,16.8,,10.5,,66,,,,,,0,,40.2,,101.43,,,,,,NA
-125.27,49.95,CAMPBELL RIVER A,1021267,10/19/2022 12:00,2022,10.00,19,12:00,18.6,,10.8,,60,,,,9,,9,,40.2,,101.39,,,,,,NA
-125.27,49.95,CAMPBELL RIVER A,1021267,10/19/2022 13:00,2022,10.00,19,13:00,19.3,,10.9,,58,,,,8,,7,,40.2,,101.33,,,,,,Mainly Clear
-125.27,49.95,CAMPBELL RIVER A,1021267,10/19/2022 14:00,2022,10.00,19,14:00,19.7,,10.8,,56,,,,10,,4,,32.2,,101.28,,,,,,NA
-125.27,49.95,CAMPBELL RIVER A,1021267,10/19/2022 15:00,2022,10.00,19,15:00,19.5,,10.6,,56,,,,12,,5,,40.2,,101.21,,,,,,NA
-125.27,49.95,CAMPBELL RIVER A,1021267,10/19/2022 16:00,2022,10.00,19,16:00,19.4,,10.4,,56,,,,6,,3,,48.3,,101.19,,,,,,Mostly Cloudy
-125.27,49.95,CAMPBELL RIVER A,1021267,10/19/2022 17:00,2022,10.00,19,17:00,15.1,,11.7,,80,,,,30,,4,,40.2,,101.14,,,,,,NA
-125.27,49.95,CAMPBELL RIVER A,1021267,10/19/2022 18:00,2022,10.00,19,18:00,13.6,,12.2,,91,,,,31,,5,,24.1,,101.13,,,,,,NA
-125.27,49.95,CAMPBELL RIVER A,1021267,10/19/2022 19:00,2022,10.00,19,19:00,12.7,,12.2,,97,,,,32,,7,,24.1,,101.09,,,,,,Mostly Cloudy
-125.27,49.95,CAMPBELL RIVER A,1021267,10/19/2022 20:00,2022,10.00,19,20:00,13.2,,12.2,,94,,,,,,0,,24.1,,101.04,,,,,,NA
-125.27,49.95,CAMPBELL RIVER A,1021267,10/19/2022 21:00,2022,10.00,19,21:00,,,,,,,,,,,,,,,,,,,,,
-125.27,49.95,CAMPBELL RIVER A,1021267,10/19/2022 22:00,2022,10.00,19,22:00,,,,,,,,,,,,,,,,,,,,,
-125.27,49.95,CAMPBELL RIVER A,1021267,10/19/2022 23:00,2022,10.00,19,23:00,,,,,,,,,,,,,,,,,,,,,
-125.27,49.95,CAMPBELL RIVER A,1021267,10/20/2022 0:00,2022,10.00,20,0:00,,,,,,,,,,,,,,,,,,,,,
-125.27,49.95,CAMPBELL RIVER A,1021267,10/20/2022 1:00,2022,10.00,20,1:00,,,,,,,,,,,,,,,,,,,,,
-125.27,49.95,CAMPBELL RIVER A,1021267,10/20/2022 2:00,2022,10.00,20,2:00,,,,,,,,,,,,,,,,,,,,,
-125.27,49.95,CAMPBELL RIVER A,1021267,10/20/2022 3:00,2022,10.00,20,3:00,,,,,,,,,,,,,,,,,,,,,
-125.27,49.95,CAMPBELL RIVER A,1021267,10/20/2022 4:00,2022,10.00,20,4:00,,,,,,,,,,,,,,,,,,,,,
-125.27,49.95,CAMPBELL RIVER A,1021267,10/20/2022 5:00,2022,10.00,20,5:00,14.5,,11.1,,80,,,,29,,12,,24.1,,100.76,,,,,,NA
-125.27,49.95,CAMPBELL RIVER A,1021267,10/20/2022 6:00,2022,10.00,20,6:00,14.2,,8.5,,68,,,,29,,17,,24.1,,100.75,,,,,,NA
-125.27,49.95,CAMPBELL RIVER A,1021267,10/20/2022 7:00,2022,10.00,20,7:00,12.8,,8.6,,75,,,,27,,14,,48.3,,100.71,,,,,,Mainly Clear
-125.27,49.95,CAMPBELL RIVER A,1021267,10/20/2022 8:00,2022,10.00,20,8:00,13.7,,7.8,,67,,,,,,0,,48.3,,100.7,,,,,,NA
-125.27,49.95,CAMPBELL RIVER A,1021267,10/20/2022 9:00,2022,10.00,20,9:00,16,,6,,51,,,,32,,14,,48.3,,100.67,,,,,,NA
-125.27,49.95,CAMPBELL RIVER A,1021267,10/20/2022 10:00,2022,10.00,20,10:00,18.2,,1.7,,33,,,,32,,23,,48.3,,100.62,,,,,,Mainly Clear
-125.27,49.95,CAMPBELL RIVER A,1021267,10/20/2022 11:00,2022,10.00,20,11:00,18.8,,-0.5,,27,,,,29,,25,,48.3,,100.57,,,,,,NA
-125.27,49.95,CAMPBELL RIVER A,1021267,10/20/2022 12:00,2022,10.00,20,12:00,19.2,,-1,,25,,,,30,,24,,48.3,,100.45,,,,,,NA
-125.27,49.95,CAMPBELL RIVER A,1021267,10/20/2022 13:00,2022,10.00,20,13:00,19.2,,-4.2,,20,,,,33,,41,,48.3,,100.48,,,,,,Mainly Clear
-125.27,49.95,CAMPBELL RIVER A,1021267,10/20/2022 14:00,2022,10.00,20,14:00,18.2,,-5,,20,,,,34,,36,,48.3,,100.35,,,,,,NA
-125.27,49.95,CAMPBELL RIVER A,1021267,10/20/2022 15:00,2022,10.00,20,15:00,17.4,,-4.6,,22,,,,32,,27,,48.3,,100.32,,,,,,NA
-125.27,49.95,CAMPBELL RIVER A,1021267,10/20/2022 16:00,2022,10.00,20,16:00,16.4,,-5.2,,22,,,,32,,29,,48.3,,100.26,,,,,,Mostly Cloudy
-125.27,49.95,CAMPBELL RIVER A,1021267,10/20/2022 17:00,2022,10.00,20,17:00,14.4,,-7.8,,21,,,,31,,26,,48.3,,100.28,,,,,,NA
-125.27,49.95,CAMPBELL RIVER A,1021267,10/20/2022 18:00,2022,10.00,20,18:00,13,,-5.4,,27,,,,31,,27,,24.1,,100.28,,,,,,NA
-125.27,49.95,CAMPBELL RIVER A,1021267,10/20/2022 19:00,2022,10.00,20,19:00,12,,-3.8,,33,,,,31,,27,,24.1,,100.23,,,,,,Mostly Cloudy
-125.27,49.95,CAMPBELL RIVER A,1021267,10/20/2022 20:00,2022,10.00,20,20:00,10.8,,-3.1,,38,,,,30,,18,,24.1,,100.24,,,,,,NA
-125.27,49.95,CAMPBELL RIVER A,1021267,10/20/2022 21:00,2022,10.00,20,21:00,,,,,,,,,,,,,,,,,,,,,
-125.27,49.95,CAMPBELL RIVER A,1021267,10/20/2022 22:00,2022,10.00,20,22:00,,,,,,,,,,,,,,,,,,,,,
-125.27,49.95,CAMPBELL RIVER A,1021267,10/20/2022 23:00,2022,10.00,20,23:00,,,,,,,,,,,,,,,,,,,,,
-125.27,49.95,CAMPBELL RIVER A,1021267,10/21/2022 0:00,2022,10.00,21,0:00,,,,,,,,,,,,,,,,,,,,,
-125.27,49.95,CAMPBELL RIVER A,1021267,10/21/2022 1:00,2022,10.00,21,1:00,,,,,,,,,,,,,,,,,,,,,
-125.27,49.95,CAMPBELL RIVER A,1021267,10/21/2022 2:00,2022,10.00,21,2:00,,,,,,,,,,,,,,,,,,,,,
-125.27,49.95,CAMPBELL RIVER A,1021267,10/21/2022 3:00,2022,10.00,21,3:00,,,,,,,,,,,,,,,,,,,,,
-125.27,49.95,CAMPBELL RIVER A,1021267,10/21/2022 4:00,2022,10.00,21,4:00,,,,,,,,,,,,,,,,,,,,,
-125.27,49.95,CAMPBELL RIVER A,1021267,10/21/2022 5:00,2022,10.00,21,5:00,7.6,,1.2,,64,,,,15,,3,,24.1,,99.95,,,,,,NA
-125.27,49.95,CAMPBELL RIVER A,1021267,10/21/2022 6:00,2022,10.00,21,6:00,8,,0.6,,59,,,,22,,10,,24.1,,99.88,,,,,,NA
-125.27,49.95,CAMPBELL RIVER A,1021267,10/21/2022 7:00,2022,10.00,21,7:00,7,,1.2,,66,,,,14,,5,,40.2,,99.85,,,,,,Cloudy
-125.27,49.95,CAMPBELL RIVER A,1021267,10/21/2022 8:00,2022,10.00,21,8:00,6.7,,4.9,,88,,,,28,,3,,40.2,,99.8,,,,,,Rain
-125.27,49.95,CAMPBELL RIVER A,1021267,10/21/2022 9:00,2022,10.00,21,9:00,8.9,,5.1,,77,,,,33,,4,,48.3,,99.75,,,,,,NA
-125.27,49.95,CAMPBELL RIVER A,1021267,10/21/2022 10:00,2022,10.00,21,10:00,10.6,,2.1,,55,,,,10,,4,,48.3,,99.7,,,,,,Cloudy
-125.27,49.95,CAMPBELL RIVER A,1021267,10/21/2022 11:00,2022,10.00,21,11:00,11.6,,1.1,,49,,,,8,,3,,48.3,,99.63,,,,,,NA
-125.27,49.95,CAMPBELL RIVER A,1021267,10/21/2022 12:00,2022,10.00,21,12:00,11.5,,1,,48,,,,4,,6,,40.2,,99.57,,,,,,NA
-125.27,49.95,CAMPBELL RIVER A,1021267,10/21/2022 13:00,2022,10.00,21,13:00,11.6,,1.6,,50,,,,15,,6,,40.2,,99.52,,,,,,Cloudy
-125.27,49.95,CAMPBELL RIVER A,1021267,10/21/2022 14:00,2022,10.00,21,14:00,11.5,,2.1,,52,,,,5,,7,,40.2,,99.45,,,,,,NA
-125.27,49.95,CAMPBELL RIVER A,1021267,10/21/2022 15:00,2022,10.00,21,15:00,10.9,,2.7,,57,,,,9,,7,,40.2,,99.39,,,,,,NA
-125.27,49.95,CAMPBELL RIVER A,1021267,10/21/2022 16:00,2022,10.00,21,16:00,10.9,,3.1,,58,,,,18,,4,,48.3,,99.36,,,,,,Mostly Cloudy
-125.27,49.95,CAMPBELL RIVER A,1021267,10/21/2022 17:00,2022,10.00,21,17:00,8.1,,3.7,,74,,,,,,0,,48.3,,99.29,,,,,,NA
-125.27,49.95,CAMPBELL RIVER A,1021267,10/21/2022 18:00,2022,10.00,21,18:00,7.2,,4.8,,85,,,,30,,4,,24.1,,99.26,,,,,,NA
-125.27,49.95,CAMPBELL RIVER A,1021267,10/21/2022 19:00,2022,10.00,21,19:00,6.5,,4.3,,86,,,,31,,5,,24.1,,99.24,,,,,,Mostly Cloudy
-125.27,49.95,CAMPBELL RIVER A,1021267,10/21/2022 20:00,2022,10.00,21,20:00,6.5,,4.6,,88,,,,27,,7,,24.1,,99.22,,,,,,NA
-125.27,49.95,CAMPBELL RIVER A,1021267,10/21/2022 21:00,2022,10.00,21,21:00,,,,,,,,,,,,,,,,,,,,,
-125.27,49.95,CAMPBELL RIVER A,1021267,10/21/2022 22:00,2022,10.00,21,22:00,,,,,,,,,,,,,,,,,,,,,
-125.27,49.95,CAMPBELL RIVER A,1021267,10/21/2022 23:00,2022,10.00,21,23:00,,,,,,,,,,,,,,,,,,,,,
-125.27,49.95,CAMPBELL RIVER A,1021267,10/22/2022 0:00,2022,10.00,22,0:00,,,,,,,,,,,,,,,,,,,,,
-125.27,49.95,CAMPBELL RIVER A,1021267,10/22/2022 1:00,2022,10.00,22,1:00,,,,,,,,,,,,,,,,,,,,,
-125.27,49.95,CAMPBELL RIVER A,1021267,10/22/2022 2:00,2022,10.00,22,2:00,,,,,,,,,,,,,,,,,,,,,
-125.27,49.95,CAMPBELL RIVER A,1021267,10/22/2022 3:00,2022,10.00,22,3:00,,,,,,,,,,,,,,,,,,,,,
-125.27,49.95,CAMPBELL RIVER A,1021267,10/22/2022 4:00,2022,10.00,22,4:00,,,,,,,,,,,,,,,,,,,,,
-125.27,49.95,CAMPBELL RIVER A,1021267,10/22/2022 5:00,2022,10.00,22,5:00,5,,0.2,,71,,,,30,,8,,24.1,,99.3,,,,,,NA
-125.27,49.95,CAMPBELL RIVER A,1021267,10/22/2022 6:00,2022,10.00,22,6:00,4.6,,0.5,,75,,,,29,,10,,24.1,,99.33,,,,,,NA
-125.27,49.95,CAMPBELL RIVER A,1021267,10/22/2022 7:00,2022,10.00,22,7:00,2.2,,-0.8,,80,,,,28,,8,,48.3,,99.36,,,,,,Mainly Clear
-125.27,49.95,CAMPBELL RIVER A,1021267,10/22/2022 8:00,2022,10.00,22,8:00,5,,0.4,,72,,,,,,0,,48.3,,99.4,,,,,,NA
-125.27,49.95,CAMPBELL RIVER A,1021267,10/22/2022 9:00,2022,10.00,22,9:00,9.5,,1,,55,,,,31,,14,,48.3,,99.43,,,,,,NA
-125.27,49.95,CAMPBELL RIVER A,1021267,10/22/2022 10:00,2022,10.00,22,10:00,11.9,,1,,47,,,,31,,17,,48.3,,99.43,,,,,,Clear
-125.27,49.95,CAMPBELL RIVER A,1021267,10/22/2022 11:00,2022,10.00,22,11:00,13,,0.9,,43,,,,34,,16,,48.3,,99.44,,,,,,NA
-125.27,49.95,CAMPBELL RIVER A,1021267,10/22/2022 12:00,2022,10.00,22,12:00,13.5,,0.4,,40,,,,31,,15,,48.3,,99.44,,,,,,NA
-125.27,49.95,CAMPBELL RIVER A,1021267,10/22/2022 13:00,2022,10.00,22,13:00,13.3,,0.4,,41,,,,31,,8,,48.3,,99.44,,,,,,Mainly Clear
-125.27,49.95,CAMPBELL RIVER A,1021267,10/22/2022 14:00,2022,10.00,22,14:00,13.7,,1.4,,43,,,,1,,18,,48.3,,99.45,,,,,,NA
-125.27,49.95,CAMPBELL RIVER A,1021267,10/22/2022 15:00,2022,10.00,22,15:00,13.9,,-0.1,,38,,,,33,,24,,48.3,,99.48,,,,,,NA
-125.27,49.95,CAMPBELL RIVER A,1021267,10/22/2022 16:00,2022,10.00,22,16:00,12.9,,0,,41,,,,35,,20,,48.3,,99.53,,,,,,Mainly Clear
-125.27,49.95,CAMPBELL RIVER A,1021267,10/22/2022 17:00,2022,10.00,22,17:00,10.2,,0.1,,49,,,,33,,16,,48.3,,99.62,,,,,,NA
-125.27,49.95,CAMPBELL RIVER A,1021267,10/22/2022 18:00,2022,10.00,22,18:00,8.9,,0.1,,54,,,,30,,17,,24.1,,99.68,,,,,,NA
-125.27,49.95,CAMPBELL RIVER A,1021267,10/22/2022 19:00,2022,10.00,22,19:00,8.3,,0.2,,57,,,,30,,15,,24.1,,99.74,,,,,,Clear
-125.27,49.95,CAMPBELL RIVER A,1021267,10/22/2022 20:00,2022,10.00,22,20:00,7.8,,0.1,,58,,,,30,,15,,24.1,,99.83,,,,,,NA
-125.27,49.95,CAMPBELL RIVER A,1021267,10/22/2022 21:00,2022,10.00,22,21:00,,,,,,,,,,,,,,,,,,,,,
-125.27,49.95,CAMPBELL RIVER A,1021267,10/22/2022 22:00,2022,10.00,22,22:00,,,,,,,,,,,,,,,,,,,,,
-125.27,49.95,CAMPBELL RIVER A,1021267,10/22/2022 23:00,2022,10.00,22,23:00,,,,,,,,,,,,,,,,,,,,,
-125.27,49.95,CAMPBELL RIVER A,1021267,10/23/2022 0:00,2022,10.00,23,0:00,,,,,,,,,,,,,,,,,,,,,
-125.27,49.95,CAMPBELL RIVER A,1021267,10/23/2022 1:00,2022,10.00,23,1:00,,,,,,,,,,,,,,,,,,,,,
-125.27,49.95,CAMPBELL RIVER A,1021267,10/23/2022 2:00,2022,10.00,23,2:00,,,,,,,,,,,,,,,,,,,,,
-125.27,49.95,CAMPBELL RIVER A,1021267,10/23/2022 3:00,2022,10.00,23,3:00,,,,,,,,,,,,,,,,,,,,,
-125.27,49.95,CAMPBELL RIVER A,1021267,10/23/2022 4:00,2022,10.00,23,4:00,,,,,,,,,,,,,,,,,,,,,
-125.27,49.95,CAMPBELL RIVER A,1021267,10/23/2022 5:00,2022,10.00,23,5:00,-1.4,,-2.1,,95,,,,27,,3,,24.1,,100.38,,,,-2,,NA
-125.27,49.95,CAMPBELL RIVER A,1021267,10/23/2022 6:00,2022,10.00,23,6:00,-1,,-1.7,,95,,,,26,,4,,24.1,,100.41,,,,-2,,NA
-125.27,49.95,CAMPBELL RIVER A,1021267,10/23/2022 7:00,2022,10.00,23,7:00,-2.5,,-3.2,,95,,,,31,,5,,48.3,,100.46,,,,-4,,Mostly Cloudy
-125.27,49.95,CAMPBELL RIVER A,1021267,10/23/2022 8:00,2022,10.00,23,8:00,0.3,,-0.6,,94,,,,,,0,,48.3,,100.5,,,,,,NA
-125.27,49.95,CAMPBELL RIVER A,1021267,10/23/2022 9:00,2022,10.00,23,9:00,3.1,,1.1,,87,,,,32,,5,,48.3,,100.59,,,,,,NA
-125.27,49.95,CAMPBELL RIVER A,1021267,10/23/2022 10:00,2022,10.00,23,10:00,6.1,,1.3,,71,,,,36,,3,,48.3,,100.65,,,,,,Cloudy
-125.27,49.95,CAMPBELL RIVER A,1021267,10/23/2022 11:00,2022,10.00,23,11:00,7.7,,2.6,,70,,,,11,,8,,48.3,,100.62,,,,,,NA
-125.27,49.95,CAMPBELL RIVER A,1021267,10/23/2022 12:00,2022,10.00,23,12:00,9.1,,3.6,,68,,,,13,,13,,48.3,,100.59,,,,,,NA
-125.27,49.95,CAMPBELL RIVER A,1021267,10/23/2022 13:00,2022,10.00,23,13:00,9.2,,4.7,,73,,,,11,,17,,32.2,,100.57,,,,,,Mostly Cloudy
-125.27,49.95,CAMPBELL RIVER A,1021267,10/23/2022 14:00,2022,10.00,23,14:00,9.3,,4.7,,73,,,,11,,11,,32.2,,100.6,,,,,,NA
-125.27,49.95,CAMPBELL RIVER A,1021267,10/23/2022 15:00,2022,10.00,23,15:00,9.7,,6,,78,,,,12,,17,,32.2,,100.54,,,,,,NA
-125.27,49.95,CAMPBELL RIVER A,1021267,10/23/2022 16:00,2022,10.00,23,16:00,9,,6.7,,85,,,,15,,9,,24.1,,100.52,,,,,,Rain
-125.27,49.95,CAMPBELL RIVER A,1021267,10/23/2022 17:00,2022,10.00,23,17:00,7.8,,7.4,,97,,,,13,,10,,16.1,,100.47,,,,,,Rain
-125.27,49.95,CAMPBELL RIVER A,1021267,10/23/2022 18:00,2022,10.00,23,18:00,7.9,,6,,88,,,,13,,17,,24.1,,100.36,,,,,,Rain
-125.27,49.95,CAMPBELL RIVER A,1021267,10/23/2022 19:00,2022,10.00,23,19:00,7.7,,5,,83,,,,12,,17,,24.1,,100.24,,,,,,Cloudy
-125.27,49.95,CAMPBELL RIVER A,1021267,10/23/2022 20:00,2022,10.00,23,20:00,7.4,,4.4,,82,,,,14,,22,,24.1,,100.23,,,,,,Rain
-125.27,49.95,CAMPBELL RIVER A,1021267,10/23/2022 21:00,2022,10.00,23,21:00,,,,,,,,,,,,,,,,,,,,,
-125.27,49.95,CAMPBELL RIVER A,1021267,10/23/2022 22:00,2022,10.00,23,22:00,,,,,,,,,,,,,,,,,,,,,
-125.27,49.95,CAMPBELL RIVER A,1021267,10/23/2022 23:00,2022,10.00,23,23:00,,,,,,,,,,,,,,,,,,,,,
-125.27,49.95,CAMPBELL RIVER A,1021267,10/24/2022 0:00,2022,10.00,24,0:00,,,,,,,,,,,,,,,,,,,,,
-125.27,49.95,CAMPBELL RIVER A,1021267,10/24/2022 1:00,2022,10.00,24,1:00,,,,,,,,,,,,,,,,,,,,,
-125.27,49.95,CAMPBELL RIVER A,1021267,10/24/2022 2:00,2022,10.00,24,2:00,,,,,,,,,,,,,,,,,,,,,
-125.27,49.95,CAMPBELL RIVER A,1021267,10/24/2022 3:00,2022,10.00,24,3:00,,,,,,,,,,,,,,,,,,,,,
-125.27,49.95,CAMPBELL RIVER A,1021267,10/24/2022 4:00,2022,10.00,24,4:00,,,,,,,,,,,,,,,,,,,,,
-125.27,49.95,CAMPBELL RIVER A,1021267,10/24/2022 5:00,2022,10.00,24,5:00,5.4,,5.4,,100,,,,25,,8,,24.1,,99.75,,,,,,NA
-125.27,49.95,CAMPBELL RIVER A,1021267,10/24/2022 6:00,2022,10.00,24,6:00,5.4,,5.4,,100,,,,26,,3,,24.1,,99.76,,,,,,NA
-125.27,49.95,CAMPBELL RIVER A,1021267,10/24/2022 7:00,2022,10.00,24,7:00,5.4,,5.4,,100,,,,,,0,,16.1,,99.77,,,,,,Cloudy
-125.27,49.95,CAMPBELL RIVER A,1021267,10/24/2022 8:00,2022,10.00,24,8:00,5.4,,5.4,,100,,,,24,,7,,16.1,,99.78,,,,,,NA
-125.27,49.95,CAMPBELL RIVER A,1021267,10/24/2022 9:00,2022,10.00,24,9:00,6.7,,6.6,,100,,,,36,,3,,8.1,,99.81,,,,,,Fog
-125.27,49.95,CAMPBELL RIVER A,1021267,10/24/2022 10:00,2022,10.00,24,10:00,8.1,,7.6,,97,,,,33,,5,,19.3,,99.85,,,,,,Mostly Cloudy
-125.27,49.95,CAMPBELL RIVER A,1021267,10/24/2022 11:00,2022,10.00,24,11:00,9.2,,7.3,,88,,,,2,,5,,16.1,,99.89,,,,,,NA
-125.27,49.95,CAMPBELL RIVER A,1021267,10/24/2022 12:00,2022,10.00,24,12:00,9.3,,7.8,,90,,,,2,,8,,16.1,,99.94,,,,,,NA
-125.27,49.95,CAMPBELL RIVER A,1021267,10/24/2022 13:00,2022,10.00,24,13:00,9.9,,7.3,,84,,,,9,,5,,16.1,,99.98,,,,,,Mostly Cloudy
-125.27,49.95,CAMPBELL RIVER A,1021267,10/24/2022 14:00,2022,10.00,24,14:00,9.2,,8.7,,96,,,,9,,8,,16.1,,100.04,,,,,,Rain
-125.27,49.95,CAMPBELL RIVER A,1021267,10/24/2022 15:00,2022,10.00,24,15:00,8.9,,8.4,,97,,,,7,,4,,11.3,,100.12,,,,,,Heavy Rain Showers
-125.27,49.95,CAMPBELL RIVER A,1021267,10/24/2022 16:00,2022,10.00,24,16:00,9.3,,8.7,,95,,,,23,,5,,32.2,,100.17,,,,,,Mostly Cloudy
-125.27,49.95,CAMPBELL RIVER A,1021267,10/24/2022 17:00,2022,10.00,24,17:00,7.3,,6.7,,96,,,,26,,3,,32.2,,100.22,,,,,,NA
-125.27,49.95,CAMPBELL RIVER A,1021267,10/24/2022 18:00,2022,10.00,24,18:00,4.8,,4.8,,100,,,,32,,7,,24.1,,100.32,,,,,,NA
-125.27,49.95,CAMPBELL RIVER A,1021267,10/24/2022 19:00,2022,10.00,24,19:00,3.9,,3.9,,100,,,,27,,3,,24.1,,100.37,,,,,,Mainly Clear
-125.27,49.95,CAMPBELL RIVER A,1021267,10/24/2022 20:00,2022,10.00,24,20:00,2.4,,2.4,,100,,,,,,0,,24.1,,100.43,,,,,,NA
-125.27,49.95,CAMPBELL RIVER A,1021267,10/24/2022 21:00,2022,10.00,24,21:00,,,,,,,,,,,,,,,,,,,,,
-125.27,49.95,CAMPBELL RIVER A,1021267,10/24/2022 22:00,2022,10.00,24,22:00,,,,,,,,,,,,,,,,,,,,,
-125.27,49.95,CAMPBELL RIVER A,1021267,10/24/2022 23:00,2022,10.00,24,23:00,,,,,,,,,,,,,,,,,,,,,
-125.27,49.95,CAMPBELL RIVER A,1021267,10/25/2022 0:00,2022,10.00,25,0:00,,,,,,,,,,,,,,,,,,,,,
-125.27,49.95,CAMPBELL RIVER A,1021267,10/25/2022 1:00,2022,10.00,25,1:00,,,,,,,,,,,,,,,,,,,,,
-125.27,49.95,CAMPBELL RIVER A,1021267,10/25/2022 2:00,2022,10.00,25,2:00,,,,,,,,,,,,,,,,,,,,,
-125.27,49.95,CAMPBELL RIVER A,1021267,10/25/2022 3:00,2022,10.00,25,3:00,,,,,,,,,,,,,,,,,,,,,
-125.27,49.95,CAMPBELL RIVER A,1021267,10/25/2022 4:00,2022,10.00,25,4:00,,,,,,,,,,,,,,,,,,,,,
-125.27,49.95,CAMPBELL RIVER A,1021267,10/25/2022 5:00,2022,10.00,25,5:00,2.1,,2.1,,100,,,,31,,5,,24.1,,100.44,,,,,,NA
-125.27,49.95,CAMPBELL RIVER A,1021267,10/25/2022 6:00,2022,10.00,25,6:00,2.9,,2.9,,100,,,,32,,5,,16.1,,100.34,,,,,,NA
-125.27,49.95,CAMPBELL RIVER A,1021267,10/25/2022 7:00,2022,10.00,25,7:00,2.8,,2.8,,100,,,,,,0,,24.1,,100.22,,,,,,Cloudy
-125.27,49.95,CAMPBELL RIVER A,1021267,10/25/2022 8:00,2022,10.00,25,8:00,6.4,,6.2,,98,,,,14,,22,,32.2,,100.11,,,,,,NA
-125.27,49.95,CAMPBELL RIVER A,1021267,10/25/2022 9:00,2022,10.00,25,9:00,7.2,,6,,92,,,,13,,23,,32.2,,100,,,,,,NA
-125.27,49.95,CAMPBELL RIVER A,1021267,10/25/2022 10:00,2022,10.00,25,10:00,7.6,,6.7,,94,,,,14,,20,,16.1,,99.9,,,,,,Rain
-125.27,49.95,CAMPBELL RIVER A,1021267,10/25/2022 11:00,2022,10.00,25,11:00,7.4,,7,,97,,,,14,,23,,12.9,,99.84,,,,,,Rain
-125.27,49.95,CAMPBELL RIVER A,1021267,10/25/2022 12:00,2022,10.00,25,12:00,7.6,,7.3,,98,,,,15,,17,,12.9,,99.74,,,,,,Rain
-125.27,49.95,CAMPBELL RIVER A,1021267,10/25/2022 13:00,2022,10.00,25,13:00,7.6,,6.7,,94,,,,14,,20,,24.1,,99.66,,,,,,Mostly Cloudy
-125.27,49.95,CAMPBELL RIVER A,1021267,10/25/2022 14:00,2022,10.00,25,14:00,8.2,,6.3,,88,,,,15,,12,,24.1,,99.62,,,,,,NA
-125.27,49.95,CAMPBELL RIVER A,1021267,10/25/2022 15:00,2022,10.00,25,15:00,8.7,,5.5,,80,,,,17,,4,,32.2,,99.57,,,,,,NA
-125.27,49.95,CAMPBELL RIVER A,1021267,10/25/2022 16:00,2022,10.00,25,16:00,8.7,,5.4,,80,,,,35,,8,,24.1,,99.56,,,,,,Mostly Cloudy
-125.27,49.95,CAMPBELL RIVER A,1021267,10/25/2022 17:00,2022,10.00,25,17:00,6.9,,6.4,,96,,,,1,,10,,12.9,,99.58,,,,,,NA
-125.27,49.95,CAMPBELL RIVER A,1021267,10/25/2022 18:00,2022,10.00,25,18:00,6.4,,6.3,,100,,,,33,,12,,4.8,,99.65,,,,,,"Rain,Fog"
-125.27,49.95,CAMPBELL RIVER A,1021267,10/25/2022 19:00,2022,10.00,25,19:00,5.2,,5.2,,100,,,,29,,5,,8.1,,99.67,,,,,,Fog
-125.27,49.95,CAMPBELL RIVER A,1021267,10/25/2022 20:00,2022,10.00,25,20:00,4.1,,4.1,,100,,,,30,,8,,9.7,,99.67,,,,,,Fog
-125.27,49.95,CAMPBELL RIVER A,1021267,10/25/2022 21:00,2022,10.00,25,21:00,,,,,,,,,,,,,,,,,,,,,
-125.27,49.95,CAMPBELL RIVER A,1021267,10/25/2022 22:00,2022,10.00,25,22:00,,,,,,,,,,,,,,,,,,,,,
-125.27,49.95,CAMPBELL RIVER A,1021267,10/25/2022 23:00,2022,10.00,25,23:00,,,,,,,,,,,,,,,,,,,,,
-125.27,49.95,CAMPBELL RIVER A,1021267,10/26/2022 0:00,2022,10.00,26,0:00,,,,,,,,,,,,,,,,,,,,,
-125.27,49.95,CAMPBELL RIVER A,1021267,10/26/2022 1:00,2022,10.00,26,1:00,,,,,,,,,,,,,,,,,,,,,
-125.27,49.95,CAMPBELL RIVER A,1021267,10/26/2022 2:00,2022,10.00,26,2:00,,,,,,,,,,,,,,,,,,,,,
-125.27,49.95,CAMPBELL RIVER A,1021267,10/26/2022 3:00,2022,10.00,26,3:00,,,,,,,,,,,,,,,,,,,,,
-125.27,49.95,CAMPBELL RIVER A,1021267,10/26/2022 4:00,2022,10.00,26,4:00,,,,,,,,,,,,,,,,,,,,,
-125.27,49.95,CAMPBELL RIVER A,1021267,10/26/2022 5:00,2022,10.00,26,5:00,-0.4,,-0.8,,96,,,,29,,5,,24.1,,100.14,,,,-2,,NA
-125.27,49.95,CAMPBELL RIVER A,1021267,10/26/2022 6:00,2022,10.00,26,6:00,-1.3,,-1.3,,100,,,,22,,4,,24.1,,100.2,,,,-3,,NA
-125.27,49.95,CAMPBELL RIVER A,1021267,10/26/2022 7:00,2022,10.00,26,7:00,-0.6,,-0.6,,100,,,,27,,3,,48.3,,100.21,,,,-2,,Mostly Cloudy
-125.27,49.95,CAMPBELL RIVER A,1021267,10/26/2022 8:00,2022,10.00,26,8:00,0.1,,0.1,,100,,,,32,,6,,48.3,,100.31,,,,,,NA
-125.27,49.95,CAMPBELL RIVER A,1021267,10/26/2022 9:00,2022,10.00,26,9:00,1.6,,1.6,,100,,,,27,,3,,48.3,,100.35,,,,,,NA
-125.27,49.95,CAMPBELL RIVER A,1021267,10/26/2022 10:00,2022,10.00,26,10:00,4.2,,4.2,,100,,,,31,,3,,48.3,,100.4,,,,,,Cloudy
-125.27,49.95,CAMPBELL RIVER A,1021267,10/26/2022 11:00,2022,10.00,26,11:00,5.8,,4.5,,92,,,,,,0,,32.2,,100.42,,,,,,NA
-125.27,49.95,CAMPBELL RIVER A,1021267,10/26/2022 12:00,2022,10.00,26,12:00,6.7,,4.8,,88,,,,14,,9,,32.2,,100.4,,,,,,NA
-125.27,49.95,CAMPBELL RIVER A,1021267,10/26/2022 13:00,2022,10.00,26,13:00,7.5,,4.9,,84,,,,13,,11,,40.2,,100.35,,,,,,Cloudy
-125.27,49.95,CAMPBELL RIVER A,1021267,10/26/2022 14:00,2022,10.00,26,14:00,8.1,,5.6,,84,,,,12,,17,,32.2,,100.29,,,,,,NA
-125.27,49.95,CAMPBELL RIVER A,1021267,10/26/2022 15:00,2022,10.00,26,15:00,8,,5.3,,83,,,,11,,19,,32.2,,100.25,,,,,,NA
-125.27,49.95,CAMPBELL RIVER A,1021267,10/26/2022 16:00,2022,10.00,26,16:00,7.8,,5.8,,87,,,,13,,11,,24.1,,100.28,,,,,,Rain
-125.27,49.95,CAMPBELL RIVER A,1021267,10/26/2022 17:00,2022,10.00,26,17:00,6.9,,6.5,,97,,,,36,,3,,40.2,,100.24,,,,,,NA
-125.27,49.95,CAMPBELL RIVER A,1021267,10/26/2022 18:00,2022,10.00,26,18:00,6.4,,6.3,,99,,,,,,0,,24.1,,100.26,,,,,,Rain
-125.27,49.95,CAMPBELL RIVER A,1021267,10/26/2022 19:00,2022,10.00,26,19:00,6.1,,6.1,,100,,,,36,,3,,24.1,,100.3,,,,,,Rain
-125.27,49.95,CAMPBELL RIVER A,1021267,10/26/2022 20:00,2022,10.00,26,20:00,6,,6,,100,,,,,,0,,24.1,,100.23,,,,,,NA
-125.27,49.95,CAMPBELL RIVER A,1021267,10/26/2022 21:00,2022,10.00,26,21:00,,,,,,,,,,,,,,,,,,,,,
-125.27,49.95,CAMPBELL RIVER A,1021267,10/26/2022 22:00,2022,10.00,26,22:00,,,,,,,,,,,,,,,,,,,,,
-125.27,49.95,CAMPBELL RIVER A,1021267,10/26/2022 23:00,2022,10.00,26,23:00,,,,,,,,,,,,,,,,,,,,,
-125.27,49.95,CAMPBELL RIVER A,1021267,10/27/2022 0:00,2022,10.00,27,0:00,,,,,,,,,,,,,,,,,,,,,
-125.27,49.95,CAMPBELL RIVER A,1021267,10/27/2022 1:00,2022,10.00,27,1:00,,,,,,,,,,,,,,,,,,,,,
-125.27,49.95,CAMPBELL RIVER A,1021267,10/27/2022 2:00,2022,10.00,27,2:00,,,,,,,,,,,,,,,,,,,,,
-125.27,49.95,CAMPBELL RIVER A,1021267,10/27/2022 3:00,2022,10.00,27,3:00,,,,,,,,,,,,,,,,,,,,,
-125.27,49.95,CAMPBELL RIVER A,1021267,10/27/2022 4:00,2022,10.00,27,4:00,,,,,,,,,,,,,,,,,,,,,
-125.27,49.95,CAMPBELL RIVER A,1021267,10/27/2022 5:00,2022,10.00,27,5:00,9.3,,9.2,,99,,,,13,,25,,19.3,,99.4,,,,,,Rain
-125.27,49.95,CAMPBELL RIVER A,1021267,10/27/2022 6:00,2022,10.00,27,6:00,9.3,,9,,98,,,,13,,16,,24.1,,99.25,,,,,,NA
-125.27,49.95,CAMPBELL RIVER A,1021267,10/27/2022 7:00,2022,10.00,27,7:00,9,,9,,100,,,,12,,11,,16.1,,99.17,,,,,,Rain Showers
-125.27,49.95,CAMPBELL RIVER A,1021267,10/27/2022 8:00,2022,10.00,27,8:00,10,,9.8,,98,,,,14,,23,,9.7,,99.07,,,,,,"Rain Showers,Fog"
-125.27,49.95,CAMPBELL RIVER A,1021267,10/27/2022 9:00,2022,10.00,27,9:00,10.5,,10.2,,98,,,,14,,10,,12.9,,99.13,,,,,,Rain
-125.27,49.95,CAMPBELL RIVER A,1021267,10/27/2022 10:00,2022,10.00,27,10:00,10.2,,10.2,,100,,,,24,,3,,8.1,,99.22,,,,,,"Rain,Fog"
-125.27,49.95,CAMPBELL RIVER A,1021267,10/27/2022 11:00,2022,10.00,27,11:00,10.7,,10.7,,100,,,,31,,7,,16.1,,99.36,,,,,,Rain
-125.27,49.95,CAMPBELL RIVER A,1021267,10/27/2022 12:00,2022,10.00,27,12:00,10.6,,10.6,,100,,,,7,,8,,16.1,,99.41,,,,,,Rain
-125.27,49.95,CAMPBELL RIVER A,1021267,10/27/2022 13:00,2022,10.00,27,13:00,10.1,,8.9,,93,,,,33,,14,,16.1,,99.53,,,,,,Cloudy
-125.27,49.95,CAMPBELL RIVER A,1021267,10/27/2022 14:00,2022,10.00,27,14:00,10.3,,8.6,,89,,,,34,,7,,24.1,,99.55,,,,,,NA
-125.27,49.95,CAMPBELL RIVER A,1021267,10/27/2022 15:00,2022,10.00,27,15:00,10.2,,10,,98,,,,36,,3,,24.1,,99.59,,,,,,NA
-125.27,49.95,CAMPBELL RIVER A,1021267,10/27/2022 16:00,2022,10.00,27,16:00,9.5,,9.1,,97,,,,15,,9,,32.2,,99.64,,,,,,Cloudy
-125.27,49.95,CAMPBELL RIVER A,1021267,10/27/2022 17:00,2022,10.00,27,17:00,8.5,,8.5,,100,,,,30,,3,,48.3,,99.64,,,,,,NA
-125.27,49.95,CAMPBELL RIVER A,1021267,10/27/2022 18:00,2022,10.00,27,18:00,7,,7,,100,,,,30,,6,,24.1,,99.7,,,,,,NA
-125.27,49.95,CAMPBELL RIVER A,1021267,10/27/2022 19:00,2022,10.00,27,19:00,7,,7,,100,,,,30,,6,,24.1,,99.75,,,,,,Cloudy
-125.27,49.95,CAMPBELL RIVER A,1021267,10/27/2022 20:00,2022,10.00,27,20:00,5.4,,5.4,,100,,,,29,,3,,24.1,,99.78,,,,,,NA
-125.27,49.95,CAMPBELL RIVER A,1021267,10/27/2022 21:00,2022,10.00,27,21:00,,,,,,,,,,,,,,,,,,,,,
-125.27,49.95,CAMPBELL RIVER A,1021267,10/27/2022 22:00,2022,10.00,27,22:00,,,,,,,,,,,,,,,,,,,,,
-125.27,49.95,CAMPBELL RIVER A,1021267,10/27/2022 23:00,2022,10.00,27,23:00,,,,,,,,,,,,,,,,,,,,,
-125.27,49.95,CAMPBELL RIVER A,1021267,10/28/2022 0:00,2022,10.00,28,0:00,,,,,,,,,,,,,,,,,,,,,
-125.27,49.95,CAMPBELL RIVER A,1021267,10/28/2022 1:00,2022,10.00,28,1:00,,,,,,,,,,,,,,,,,,,,,
-125.27,49.95,CAMPBELL RIVER A,1021267,10/28/2022 2:00,2022,10.00,28,2:00,,,,,,,,,,,,,,,,,,,,,
-125.27,49.95,CAMPBELL RIVER A,1021267,10/28/2022 3:00,2022,10.00,28,3:00,,,,,,,,,,,,,,,,,,,,,
-125.27,49.95,CAMPBELL RIVER A,1021267,10/28/2022 4:00,2022,10.00,28,4:00,,,,,,,,,,,,,,,,,,,,,
-125.27,49.95,CAMPBELL RIVER A,1021267,10/28/2022 5:00,2022,10.00,28,5:00,3.1,,3.1,,100,,,,32,,4,,24.1,,100.16,,,,,,NA
-125.27,49.95,CAMPBELL RIVER A,1021267,10/28/2022 6:00,2022,10.00,28,6:00,0.7,,0.7,,100,,,,30,,6,,24.1,,100.23,,,,,,NA
-125.27,49.95,CAMPBELL RIVER A,1021267,10/28/2022 7:00,2022,10.00,28,7:00,0.8,,0.8,,100,,,,29,,5,,48.3,,100.32,,,,,,Mainly Clear
-125.27,49.95,CAMPBELL RIVER A,1021267,10/28/2022 8:00,2022,10.00,28,8:00,0.8,,0.8,,100,,,,30,,6,,48.3,,100.37,,,,,,NA
-125.27,49.95,CAMPBELL RIVER A,1021267,10/28/2022 9:00,2022,10.00,28,9:00,4.5,,4.5,,100,,,,,,0,,48.3,,100.47,,,,,,NA
-125.27,49.95,CAMPBELL RIVER A,1021267,10/28/2022 10:00,2022,10.00,28,10:00,9.1,,7.3,,89,,,,8,,4,,48.3,,100.53,,,,,,Mostly Cloudy
-125.27,49.95,CAMPBELL RIVER A,1021267,10/28/2022 11:00,2022,10.00,28,11:00,10.2,,6.2,,76,,,,8,,11,,48.3,,100.57,,,,,,NA
-125.27,49.95,CAMPBELL RIVER A,1021267,10/28/2022 12:00,2022,10.00,28,12:00,11.7,,7.4,,75,,,,13,,7,,48.3,,100.58,,,,,,NA
-125.27,49.95,CAMPBELL RIVER A,1021267,10/28/2022 13:00,2022,10.00,28,13:00,11.8,,6.9,,72,,,,11,,13,,48.3,,100.53,,,,,,Mostly Cloudy
-125.27,49.95,CAMPBELL RIVER A,1021267,10/28/2022 14:00,2022,10.00,28,14:00,14,,2.3,,45,,,,13,,20,,48.3,,100.5,,,,,,NA
-125.27,49.95,CAMPBELL RIVER A,1021267,10/28/2022 15:00,2022,10.00,28,15:00,11.6,,4.1,,60,,,,14,,20,,40.2,,100.55,,,,,,NA
-125.27,49.95,CAMPBELL RIVER A,1021267,10/28/2022 16:00,2022,10.00,28,16:00,11.1,,5.1,,66,,,,13,,15,,32.2,,100.54,,,,,,Mostly Cloudy
-125.27,49.95,CAMPBELL RIVER A,1021267,10/28/2022 17:00,2022,10.00,28,17:00,9.6,,4.9,,72,,,,17,,4,,40.2,,100.58,,,,,,NA
-125.27,49.95,CAMPBELL RIVER A,1021267,10/28/2022 18:00,2022,10.00,28,18:00,8.7,,4.7,,76,,,,15,,9,,24.1,,100.58,,,,,,NA
-125.27,49.95,CAMPBELL RIVER A,1021267,10/28/2022 19:00,2022,10.00,28,19:00,6.9,,4.6,,85,,,,11,,4,,24.1,,100.57,,,,,,Mostly Cloudy
-125.27,49.95,CAMPBELL RIVER A,1021267,10/28/2022 20:00,2022,10.00,28,20:00,7.9,,4.5,,79,,,,,,0,,24.1,,100.61,,,,,,NA
-125.27,49.95,CAMPBELL RIVER A,1021267,10/28/2022 21:00,2022,10.00,28,21:00,,,,,,,,,,,,,,,,,,,,,
-125.27,49.95,CAMPBELL RIVER A,1021267,10/28/2022 22:00,2022,10.00,28,22:00,,,,,,,,,,,,,,,,,,,,,
-125.27,49.95,CAMPBELL RIVER A,1021267,10/28/2022 23:00,2022,10.00,28,23:00,,,,,,,,,,,,,,,,,,,,,
-125.27,49.95,CAMPBELL RIVER A,1021267,10/29/2022 0:00,2022,10.00,29,0:00,,,,,,,,,,,,,,,,,,,,,
-125.27,49.95,CAMPBELL RIVER A,1021267,10/29/2022 1:00,2022,10.00,29,1:00,,,,,,,,,,,,,,,,,,,,,
-125.27,49.95,CAMPBELL RIVER A,1021267,10/29/2022 2:00,2022,10.00,29,2:00,,,,,,,,,,,,,,,,,,,,,
-125.27,49.95,CAMPBELL RIVER A,1021267,10/29/2022 3:00,2022,10.00,29,3:00,,,,,,,,,,,,,,,,,,,,,
-125.27,49.95,CAMPBELL RIVER A,1021267,10/29/2022 4:00,2022,10.00,29,4:00,,,,,,,,,,,,,,,,,,,,,
-125.27,49.95,CAMPBELL RIVER A,1021267,10/29/2022 5:00,2022,10.00,29,5:00,3,,3,,100,,,,27,,4,,24.1,,100.81,,,,,,NA
-125.27,49.95,CAMPBELL RIVER A,1021267,10/29/2022 6:00,2022,10.00,29,6:00,3.5,,3.5,,100,,,,,,0,,24.1,,100.81,,,,,,NA
-125.27,49.95,CAMPBELL RIVER A,1021267,10/29/2022 7:00,2022,10.00,29,7:00,2.2,,2.2,,100,,,,31,,5,,48.3,,100.78,,,,,,Mostly Cloudy
-125.27,49.95,CAMPBELL RIVER A,1021267,10/29/2022 8:00,2022,10.00,29,8:00,3.7,,3.7,,100,,,,31,,8,,48.3,,100.8,,,,,,NA
-125.27,49.95,CAMPBELL RIVER A,1021267,10/29/2022 9:00,2022,10.00,29,9:00,6.4,,6.4,,100,,,,31,,3,,40.2,,100.83,,,,,,Rain Showers
-125.27,49.95,CAMPBELL RIVER A,1021267,10/29/2022 10:00,2022,10.00,29,10:00,7.6,,7.6,,100,,,,,,0,,40.2,,100.84,,,,,,Cloudy
-125.27,49.95,CAMPBELL RIVER A,1021267,10/29/2022 11:00,2022,10.00,29,11:00,9.5,,8.5,,94,,,,12,,6,,32.2,,100.81,,,,,,NA
-125.27,49.95,CAMPBELL RIVER A,1021267,10/29/2022 12:00,2022,10.00,29,12:00,10.7,,9,,89,,,,8,,5,,32.2,,100.76,,,,,,NA
-125.27,49.95,CAMPBELL RIVER A,1021267,10/29/2022 13:00,2022,10.00,29,13:00,11.2,,9.7,,91,,,,11,,9,,24.1,,100.67,,,,,,Clear
-125.27,49.95,CAMPBELL RIVER A,1021267,10/29/2022 14:00,2022,10.00,29,14:00,11.1,,10.3,,95,,,,12,,6,,16.1,,100.64,,,,,,Rain
-125.27,49.95,CAMPBELL RIVER A,1021267,10/29/2022 15:00,2022,10.00,29,15:00,10.8,,9.9,,95,,,,10,,9,,19.3,,100.57,,,,,,Rain
-125.27,49.95,CAMPBELL RIVER A,1021267,10/29/2022 16:00,2022,10.00,29,16:00,11.3,,9.7,,90,,,,13,,14,,32.2,,100.51,,,,,,Cloudy
-125.27,49.95,CAMPBELL RIVER A,1021267,10/29/2022 17:00,2022,10.00,29,17:00,10.7,,9.2,,90,,,,14,,8,,24.1,,100.51,,,,,,NA
-125.27,49.95,CAMPBELL RIVER A,1021267,10/29/2022 18:00,2022,10.00,29,18:00,10.2,,9.3,,94,,,,14,,13,,19.3,,100.5,,,,,,Rain
-125.27,49.95,CAMPBELL RIVER A,1021267,10/29/2022 19:00,2022,10.00,29,19:00,10.2,,9.5,,95,,,,14,,20,,19.3,,100.43,,,,,,Rain
-125.27,49.95,CAMPBELL RIVER A,1021267,10/29/2022 20:00,2022,10.00,29,20:00,9.8,,9.5,,98,,,,15,,15,,19.3,,100.36,,,,,,Rain
-125.27,49.95,CAMPBELL RIVER A,1021267,10/29/2022 21:00,2022,10.00,29,21:00,,,,,,,,,,,,,,,,,,,,,
-125.27,49.95,CAMPBELL RIVER A,1021267,10/29/2022 22:00,2022,10.00,29,22:00,,,,,,,,,,,,,,,,,,,,,
-125.27,49.95,CAMPBELL RIVER A,1021267,10/29/2022 23:00,2022,10.00,29,23:00,,,,,,,,,,,,,,,,,,,,,
-125.27,49.95,CAMPBELL RIVER A,1021267,10/30/2022 0:00,2022,10.00,30,0:00,,,,,,,,,,,,,,,,,,,,,
-125.27,49.95,CAMPBELL RIVER A,1021267,10/30/2022 1:00,2022,10.00,30,1:00,,,,,,,,,,,,,,,,,,,,,
-125.27,49.95,CAMPBELL RIVER A,1021267,10/30/2022 2:00,2022,10.00,30,2:00,,,,,,,,,,,,,,,,,,,,,
-125.27,49.95,CAMPBELL RIVER A,1021267,10/30/2022 3:00,2022,10.00,30,3:00,,,,,,,,,,,,,,,,,,,,,
-125.27,49.95,CAMPBELL RIVER A,1021267,10/30/2022 4:00,2022,10.00,30,4:00,,,,,,,,,,,,,,,,,,,,,
-125.27,49.95,CAMPBELL RIVER A,1021267,10/30/2022 5:00,2022,10.00,30,5:00,9.9,,9.9,,100,,,,11,,13,,12.9,,99.98,,,,,,Rain
-125.27,49.95,CAMPBELL RIVER A,1021267,10/30/2022 6:00,2022,10.00,30,6:00,9.9,,9.9,,100,,,,11,,15,,9.7,,99.97,,,,,,"Rain,Fog"
-125.27,49.95,CAMPBELL RIVER A,1021267,10/30/2022 7:00,2022,10.00,30,7:00,9.8,,9.8,,100,,,,12,,12,,4.8,,100,,,,,,"Rain,Fog"
-125.27,49.95,CAMPBELL RIVER A,1021267,10/30/2022 8:00,2022,10.00,30,8:00,9.6,,9.6,,100,,,,10,,7,,4.8,,100.03,,,,,,Fog
-125.27,49.95,CAMPBELL RIVER A,1021267,10/30/2022 9:00,2022,10.00,30,9:00,9.8,,9.8,,100,,,,12,,8,,4.8,,100.08,,,,,,Fog
-125.27,49.95,CAMPBELL RIVER A,1021267,10/30/2022 10:00,2022,10.00,30,10:00,10.5,,10.5,,100,,,,16,,6,,4.8,,100.08,,,,,,Fog
-125.27,49.95,CAMPBELL RIVER A,1021267,10/30/2022 11:00,2022,10.00,30,11:00,10.5,,10.5,,100,,,,15,,9,,4.8,,100.12,,,,,,Fog
-125.27,49.95,CAMPBELL RIVER A,1021267,10/30/2022 12:00,2022,10.00,30,12:00,10.8,,10.6,,99,,,,30,,4,,8.1,,100.13,,,,,,Fog
-125.27,49.95,CAMPBELL RIVER A,1021267,10/30/2022 13:00,2022,10.00,30,13:00,10.7,,10.7,,100,,,,7,,8,,8.1,,100.09,,,,,,Fog
-125.27,49.95,CAMPBELL RIVER A,1021267,10/30/2022 14:00,2022,10.00,30,14:00,10.7,,10.7,,100,,,,15,,3,,8.1,,100.03,,,,,,Fog
-125.27,49.95,CAMPBELL RIVER A,1021267,10/30/2022 15:00,2022,10.00,30,15:00,10.3,,10.3,,100,,,,2,,11,,4.8,,100.01,,,,,,Fog
-125.27,49.95,CAMPBELL RIVER A,1021267,10/30/2022 16:00,2022,10.00,30,16:00,10,,10,,100,,,,34,,5,,4.8,,99.93,,,,,,"Rain,Fog"
-125.27,49.95,CAMPBELL RIVER A,1021267,10/30/2022 17:00,2022,10.00,30,17:00,9.6,,9.6,,100,,,,31,,8,,4.8,,99.87,,,,,,Fog
-125.27,49.95,CAMPBELL RIVER A,1021267,10/30/2022 18:00,2022,10.00,30,18:00,9.2,,9.2,,100,,,,31,,6,,3.2,,99.8,,,,,,Fog
-125.27,49.95,CAMPBELL RIVER A,1021267,10/30/2022 19:00,2022,10.00,30,19:00,8.4,,8.4,,100,,,,31,,6,,6.4,,99.77,,,,,,Fog
-125.27,49.95,CAMPBELL RIVER A,1021267,10/30/2022 20:00,2022,10.00,30,20:00,8.6,,8.6,,100,,,,28,,8,,8.1,,99.8,,,,,,Fog
-125.27,49.95,CAMPBELL RIVER A,1021267,10/30/2022 21:00,2022,10.00,30,21:00,,,,,,,,,,,,,,,,,,,,,
-125.27,49.95,CAMPBELL RIVER A,1021267,10/30/2022 22:00,2022,10.00,30,22:00,,,,,,,,,,,,,,,,,,,,,
-125.27,49.95,CAMPBELL RIVER A,1021267,10/30/2022 23:00,2022,10.00,30,23:00,,,,,,,,,,,,,,,,,,,,,
-125.27,49.95,CAMPBELL RIVER A,1021267,10/31/2022 0:00,2022,10.00,31,0:00,,,,,,,,,,,,,,,,,,,,,
-125.27,49.95,CAMPBELL RIVER A,1021267,10/31/2022 1:00,2022,10.00,31,1:00,,,,,,,,,,,,,,,,,,,,,
-125.27,49.95,CAMPBELL RIVER A,1021267,10/31/2022 2:00,2022,10.00,31,2:00,,,,,,,,,,,,,,,,,,,,,
-125.27,49.95,CAMPBELL RIVER A,1021267,10/31/2022 3:00,2022,10.00,31,3:00,,,,,,,,,,,,,,,,,,,,,
-125.27,49.95,CAMPBELL RIVER A,1021267,10/31/2022 4:00,2022,10.00,31,4:00,,,,,,,,,,,,,,,,,,,,,
-125.27,49.95,CAMPBELL RIVER A,1021267,10/31/2022 5:00,2022,10.00,31,5:00,6.3,,6.3,,100,,,,29,,6,,6.4,,99.38,,,,,,Fog
-125.27,49.95,CAMPBELL RIVER A,1021267,10/31/2022 6:00,2022,10.00,31,6:00,6.2,,6.2,,100,,,,,,0,,6.4,,99.36,,,,,,Fog
-125.27,49.95,CAMPBELL RIVER A,1021267,10/31/2022 7:00,2022,10.00,31,7:00,3.7,,3.7,,100,,,,30,,3,,32.2,,99.34,,,,,,Mostly Cloudy
-125.27,49.95,CAMPBELL RIVER A,1021267,10/31/2022 8:00,2022,10.00,31,8:00,4.2,,4.2,,100,,,,29,,4,,32.2,,99.36,,,,,,NA
-125.27,49.95,CAMPBELL RIVER A,1021267,10/31/2022 9:00,2022,10.00,31,9:00,6.5,,6.5,,100,,,,32,,14,,32.2,,99.44,,,,,,NA
-125.27,49.95,CAMPBELL RIVER A,1021267,10/31/2022 10:00,2022,10.00,31,10:00,7.3,,5,,85,,,,32,,24,,48.3,,99.5,,,,,,Mainly Clear
-125.27,49.95,CAMPBELL RIVER A,1021267,10/31/2022 11:00,2022,10.00,31,11:00,8.4,,4,,74,,,,31,,17,,48.3,,99.55,,,,,,NA
-125.27,49.95,CAMPBELL RIVER A,1021267,10/31/2022 12:00,2022,10.00,31,12:00,9.5,,3.2,,65,,,,33,,17,,32.2,,99.58,,,,,,NA
-125.27,49.95,CAMPBELL RIVER A,1021267,10/31/2022 13:00,2022,10.00,31,13:00,9.3,,2.7,,63,,,,35,,8,,48.3,,99.57,,,,,,Mostly Cloudy
-125.27,49.95,CAMPBELL RIVER A,1021267,10/31/2022 14:00,2022,10.00,31,14:00,8.7,,3.5,,70,,,,2,,8,,48.3,,99.58,,,,,,NA
-125.27,49.95,CAMPBELL RIVER A,1021267,10/31/2022 15:00,2022,10.00,31,15:00,7.4,,3.9,,78,,,,31,,4,,32.2,,99.6,,,,,,Rain Showers
-125.27,49.95,CAMPBELL RIVER A,1021267,10/31/2022 16:00,2022,10.00,31,16:00,6.1,,3.7,,84,,,,18,,7,,24.1,,99.62,,,,,,Mostly Cloudy
-125.27,49.95,CAMPBELL RIVER A,1021267,10/31/2022 17:00,2022,10.00,31,17:00,4,,3.3,,95,,,,22,,5,,32.2,,99.6,,,,,,NA
-125.27,49.95,CAMPBELL RIVER A,1021267,10/31/2022 18:00,2022,10.00,31,18:00,2.3,,2.3,,100,,,,27,,3,,24.1,,99.61,,,,,,NA
-125.27,49.95,CAMPBELL RIVER A,1021267,10/31/2022 19:00,2022,10.00,31,19:00,0.2,,0.2,,100,,,,31,,5,,24.1,,99.59,,,,,,Mainly Clear
-125.27,49.95,CAMPBELL RIVER A,1021267,10/31/2022 20:00,2022,10.00,31,20:00,0.6,,0.6,,100,,,,26,,4,,24.1,,99.6,,,,,,NA
-125.27,49.95,CAMPBELL RIVER A,1021267,10/31/2022 21:00,2022,10.00,31,21:00,,,,,,,,,,,,,,,,,,,,,
-125.27,49.95,CAMPBELL RIVER A,1021267,10/31/2022 22:00,2022,10.00,31,22:00,,,,,,,,,,,,,,,,,,,,,
-125.27,49.95,CAMPBELL RIVER A,1021267,10/31/2022 23:00,2022,10.00,31,23:00,,,,,,,,,,,,,,,,,,,,,
